[{"code":"110101001","name":"东华门街道办事处","areaCode":"110101","cityCode":"1101","provinceCode":"11"},{"code":"110101002","name":"景山街道办事处","areaCode":"110101","cityCode":"1101","provinceCode":"11"},{"code":"110101003","name":"交道口街道办事处","areaCode":"110101","cityCode":"1101","provinceCode":"11"},{"code":"110101004","name":"安定门街道办事处","areaCode":"110101","cityCode":"1101","provinceCode":"11"},{"code":"110101005","name":"北新桥街道办事处","areaCode":"110101","cityCode":"1101","provinceCode":"11"},{"code":"110101006","name":"东四街道办事处","areaCode":"110101","cityCode":"1101","provinceCode":"11"},{"code":"110101007","name":"朝阳门街道办事处","areaCode":"110101","cityCode":"1101","provinceCode":"11"},{"code":"110101008","name":"建国门街道办事处","areaCode":"110101","cityCode":"1101","provinceCode":"11"},{"code":"110101009","name":"东直门街道办事处","areaCode":"110101","cityCode":"1101","provinceCode":"11"},{"code":"110101010","name":"和平里街道办事处","areaCode":"110101","cityCode":"1101","provinceCode":"11"},{"code":"110101011","name":"前门街道办事处","areaCode":"110101","cityCode":"1101","provinceCode":"11"},{"code":"110101012","name":"崇文门外街道办事处","areaCode":"110101","cityCode":"1101","provinceCode":"11"},{"code":"110101013","name":"东花市街道办事处","areaCode":"110101","cityCode":"1101","provinceCode":"11"},{"code":"110101014","name":"龙潭街道办事处","areaCode":"110101","cityCode":"1101","provinceCode":"11"},{"code":"110101015","name":"体育馆路街道办事处","areaCode":"110101","cityCode":"1101","provinceCode":"11"},{"code":"110101016","name":"天坛街道办事处","areaCode":"110101","cityCode":"1101","provinceCode":"11"},{"code":"110101017","name":"永定门外街道办事处","areaCode":"110101","cityCode":"1101","provinceCode":"11"},{"code":"110102001","name":"西长安街街道办事处","areaCode":"110102","cityCode":"1101","provinceCode":"11"},{"code":"110102003","name":"新街口街道办事处","areaCode":"110102","cityCode":"1101","provinceCode":"11"},{"code":"110102007","name":"月坛街道办事处","areaCode":"110102","cityCode":"1101","provinceCode":"11"},{"code":"110102009","name":"展览路街道办事处","areaCode":"110102","cityCode":"1101","provinceCode":"11"},{"code":"110102010","name":"德胜街道办事处","areaCode":"110102","cityCode":"1101","provinceCode":"11"},{"code":"110102011","name":"金融街街道办事处","areaCode":"110102","cityCode":"1101","provinceCode":"11"},{"code":"110102012","name":"什刹海街道办事处","areaCode":"110102","cityCode":"1101","provinceCode":"11"},{"code":"110102013","name":"大栅栏街道办事处","areaCode":"110102","cityCode":"1101","provinceCode":"11"},{"code":"110102014","name":"天桥街道办事处","areaCode":"110102","cityCode":"1101","provinceCode":"11"},{"code":"110102015","name":"椿树街道办事处","areaCode":"110102","cityCode":"1101","provinceCode":"11"},{"code":"110102016","name":"陶然亭街道办事处","areaCode":"110102","cityCode":"1101","provinceCode":"11"},{"code":"110102017","name":"广安门内街道办事处","areaCode":"110102","cityCode":"1101","provinceCode":"11"},{"code":"110102018","name":"牛街街道办事处","areaCode":"110102","cityCode":"1101","provinceCode":"11"},{"code":"110102019","name":"白纸坊街道办事处","areaCode":"110102","cityCode":"1101","provinceCode":"11"},{"code":"110102020","name":"广安门外街道办事处","areaCode":"110102","cityCode":"1101","provinceCode":"11"},{"code":"110105001","name":"建外街道办事处","areaCode":"110105","cityCode":"1101","provinceCode":"11"},{"code":"110105002","name":"朝外街道办事处","areaCode":"110105","cityCode":"1101","provinceCode":"11"},{"code":"110105003","name":"呼家楼街道办事处","areaCode":"110105","cityCode":"1101","provinceCode":"11"},{"code":"110105004","name":"三里屯街道办事处","areaCode":"110105","cityCode":"1101","provinceCode":"11"},{"code":"110105005","name":"左家庄街道办事处","areaCode":"110105","cityCode":"1101","provinceCode":"11"},{"code":"110105006","name":"香河园街道办事处","areaCode":"110105","cityCode":"1101","provinceCode":"11"},{"code":"110105007","name":"和平街街道办事处","areaCode":"110105","cityCode":"1101","provinceCode":"11"},{"code":"110105008","name":"安贞街道办事处","areaCode":"110105","cityCode":"1101","provinceCode":"11"},{"code":"110105009","name":"亚运村街道办事处","areaCode":"110105","cityCode":"1101","provinceCode":"11"},{"code":"110105010","name":"小关街道办事处","areaCode":"110105","cityCode":"1101","provinceCode":"11"},{"code":"110105011","name":"酒仙桥街道办事处","areaCode":"110105","cityCode":"1101","provinceCode":"11"},{"code":"110105012","name":"麦子店街道办事处","areaCode":"110105","cityCode":"1101","provinceCode":"11"},{"code":"110105013","name":"团结湖街道办事处","areaCode":"110105","cityCode":"1101","provinceCode":"11"},{"code":"110105014","name":"六里屯街道办事处","areaCode":"110105","cityCode":"1101","provinceCode":"11"},{"code":"110105015","name":"八里庄街道办事处","areaCode":"110105","cityCode":"1101","provinceCode":"11"},{"code":"110105016","name":"双井街道办事处","areaCode":"110105","cityCode":"1101","provinceCode":"11"},{"code":"110105017","name":"劲松街道办事处","areaCode":"110105","cityCode":"1101","provinceCode":"11"},{"code":"110105018","name":"潘家园街道办事处","areaCode":"110105","cityCode":"1101","provinceCode":"11"},{"code":"110105019","name":"垡头街道办事处","areaCode":"110105","cityCode":"1101","provinceCode":"11"},{"code":"110105021","name":"南磨房地区办事处","areaCode":"110105","cityCode":"1101","provinceCode":"11"},{"code":"110105022","name":"高碑店地区办事处","areaCode":"110105","cityCode":"1101","provinceCode":"11"},{"code":"110105023","name":"将台地区办事处","areaCode":"110105","cityCode":"1101","provinceCode":"11"},{"code":"110105024","name":"太阳宫地区办事处","areaCode":"110105","cityCode":"1101","provinceCode":"11"},{"code":"110105025","name":"大屯街道办事处","areaCode":"110105","cityCode":"1101","provinceCode":"11"},{"code":"110105026","name":"望京街道办事处","areaCode":"110105","cityCode":"1101","provinceCode":"11"},{"code":"110105027","name":"小红门地区办事处","areaCode":"110105","cityCode":"1101","provinceCode":"11"},{"code":"110105028","name":"十八里店地区办事处","areaCode":"110105","cityCode":"1101","provinceCode":"11"},{"code":"110105029","name":"平房地区办事处","areaCode":"110105","cityCode":"1101","provinceCode":"11"},{"code":"110105030","name":"东风地区办事处","areaCode":"110105","cityCode":"1101","provinceCode":"11"},{"code":"110105031","name":"奥运村街道办事处","areaCode":"110105","cityCode":"1101","provinceCode":"11"},{"code":"110105032","name":"来广营地区办事处","areaCode":"110105","cityCode":"1101","provinceCode":"11"},{"code":"110105033","name":"常营地区办事处","areaCode":"110105","cityCode":"1101","provinceCode":"11"},{"code":"110105034","name":"三间房地区办事处","areaCode":"110105","cityCode":"1101","provinceCode":"11"},{"code":"110105035","name":"管庄地区办事处","areaCode":"110105","cityCode":"1101","provinceCode":"11"},{"code":"110105036","name":"金盏地区办事处","areaCode":"110105","cityCode":"1101","provinceCode":"11"},{"code":"110105037","name":"孙河地区办事处","areaCode":"110105","cityCode":"1101","provinceCode":"11"},{"code":"110105038","name":"崔各庄地区办事处","areaCode":"110105","cityCode":"1101","provinceCode":"11"},{"code":"110105039","name":"东坝地区办事处","areaCode":"110105","cityCode":"1101","provinceCode":"11"},{"code":"110105040","name":"黑庄户地区办事处","areaCode":"110105","cityCode":"1101","provinceCode":"11"},{"code":"110105041","name":"豆各庄地区办事处","areaCode":"110105","cityCode":"1101","provinceCode":"11"},{"code":"110105042","name":"王四营地区办事处","areaCode":"110105","cityCode":"1101","provinceCode":"11"},{"code":"110105043","name":"东湖街道办事处","areaCode":"110105","cityCode":"1101","provinceCode":"11"},{"code":"110105400","name":"首都机场街道办事处","areaCode":"110105","cityCode":"1101","provinceCode":"11"},{"code":"110106001","name":"右安门街道办事处","areaCode":"110106","cityCode":"1101","provinceCode":"11"},{"code":"110106002","name":"太平桥街道办事处","areaCode":"110106","cityCode":"1101","provinceCode":"11"},{"code":"110106003","name":"西罗园街道办事处","areaCode":"110106","cityCode":"1101","provinceCode":"11"},{"code":"110106004","name":"大红门街道办事处","areaCode":"110106","cityCode":"1101","provinceCode":"11"},{"code":"110106005","name":"南苑街道办事处","areaCode":"110106","cityCode":"1101","provinceCode":"11"},{"code":"110106006","name":"东高地街道办事处","areaCode":"110106","cityCode":"1101","provinceCode":"11"},{"code":"110106007","name":"东铁匠营街道办事处","areaCode":"110106","cityCode":"1101","provinceCode":"11"},{"code":"110106008","name":"卢沟桥街道办事处","areaCode":"110106","cityCode":"1101","provinceCode":"11"},{"code":"110106009","name":"丰台街道办事处","areaCode":"110106","cityCode":"1101","provinceCode":"11"},{"code":"110106010","name":"新村街道办事处","areaCode":"110106","cityCode":"1101","provinceCode":"11"},{"code":"110106011","name":"长辛店街道办事处","areaCode":"110106","cityCode":"1101","provinceCode":"11"},{"code":"110106012","name":"云岗街道办事处","areaCode":"110106","cityCode":"1101","provinceCode":"11"},{"code":"110106013","name":"方庄地区办事处","areaCode":"110106","cityCode":"1101","provinceCode":"11"},{"code":"110106014","name":"宛平城地区办事处","areaCode":"110106","cityCode":"1101","provinceCode":"11"},{"code":"110106015","name":"马家堡街道办事处","areaCode":"110106","cityCode":"1101","provinceCode":"11"},{"code":"110106016","name":"和义街道办事处","areaCode":"110106","cityCode":"1101","provinceCode":"11"},{"code":"110106017","name":"卢沟桥地区办事处","areaCode":"110106","cityCode":"1101","provinceCode":"11"},{"code":"110106018","name":"花乡地区办事处","areaCode":"110106","cityCode":"1101","provinceCode":"11"},{"code":"110106019","name":"南苑地区办事处","areaCode":"110106","cityCode":"1101","provinceCode":"11"},{"code":"110106100","name":"长辛店镇","areaCode":"110106","cityCode":"1101","provinceCode":"11"},{"code":"110106101","name":"王佐镇","areaCode":"110106","cityCode":"1101","provinceCode":"11"},{"code":"110107001","name":"八宝山街道办事处","areaCode":"110107","cityCode":"1101","provinceCode":"11"},{"code":"110107002","name":"老山街道办事处","areaCode":"110107","cityCode":"1101","provinceCode":"11"},{"code":"110107003","name":"八角街道办事处","areaCode":"110107","cityCode":"1101","provinceCode":"11"},{"code":"110107004","name":"古城街道办事处","areaCode":"110107","cityCode":"1101","provinceCode":"11"},{"code":"110107005","name":"苹果园街道办事处","areaCode":"110107","cityCode":"1101","provinceCode":"11"},{"code":"110107006","name":"金顶街街道办事处","areaCode":"110107","cityCode":"1101","provinceCode":"11"},{"code":"110107009","name":"广宁街道办事处","areaCode":"110107","cityCode":"1101","provinceCode":"11"},{"code":"110107010","name":"五里坨街道办事处","areaCode":"110107","cityCode":"1101","provinceCode":"11"},{"code":"110107011","name":"鲁谷街道办事处","areaCode":"110107","cityCode":"1101","provinceCode":"11"},{"code":"110108001","name":"万寿路街道办事处","areaCode":"110108","cityCode":"1101","provinceCode":"11"},{"code":"110108002","name":"永定路街道办事处","areaCode":"110108","cityCode":"1101","provinceCode":"11"},{"code":"110108003","name":"羊坊店街道办事处","areaCode":"110108","cityCode":"1101","provinceCode":"11"},{"code":"110108004","name":"甘家口街道办事处","areaCode":"110108","cityCode":"1101","provinceCode":"11"},{"code":"110108005","name":"八里庄街道办事处","areaCode":"110108","cityCode":"1101","provinceCode":"11"},{"code":"110108006","name":"紫竹院街道办事处","areaCode":"110108","cityCode":"1101","provinceCode":"11"},{"code":"110108007","name":"北下关街道办事处","areaCode":"110108","cityCode":"1101","provinceCode":"11"},{"code":"110108008","name":"北太平庄街道办事处","areaCode":"110108","cityCode":"1101","provinceCode":"11"},{"code":"110108010","name":"学院路街道办事处","areaCode":"110108","cityCode":"1101","provinceCode":"11"},{"code":"110108011","name":"中关村街道办事处","areaCode":"110108","cityCode":"1101","provinceCode":"11"},{"code":"110108012","name":"海淀街道办事处","areaCode":"110108","cityCode":"1101","provinceCode":"11"},{"code":"110108013","name":"青龙桥街道办事处","areaCode":"110108","cityCode":"1101","provinceCode":"11"},{"code":"110108014","name":"清华园街道办事处","areaCode":"110108","cityCode":"1101","provinceCode":"11"},{"code":"110108015","name":"燕园街道办事处","areaCode":"110108","cityCode":"1101","provinceCode":"11"},{"code":"110108016","name":"香山街道办事处","areaCode":"110108","cityCode":"1101","provinceCode":"11"},{"code":"110108017","name":"清河街道办事处","areaCode":"110108","cityCode":"1101","provinceCode":"11"},{"code":"110108018","name":"花园路街道办事处","areaCode":"110108","cityCode":"1101","provinceCode":"11"},{"code":"110108019","name":"西三旗街道办事处","areaCode":"110108","cityCode":"1101","provinceCode":"11"},{"code":"110108020","name":"马连洼街道办事处","areaCode":"110108","cityCode":"1101","provinceCode":"11"},{"code":"110108021","name":"田村路街道办事处","areaCode":"110108","cityCode":"1101","provinceCode":"11"},{"code":"110108022","name":"上地街道办事处","areaCode":"110108","cityCode":"1101","provinceCode":"11"},{"code":"110108023","name":"万柳地区办事处","areaCode":"110108","cityCode":"1101","provinceCode":"11"},{"code":"110108024","name":"东升地区办事处","areaCode":"110108","cityCode":"1101","provinceCode":"11"},{"code":"110108025","name":"曙光街道办事处","areaCode":"110108","cityCode":"1101","provinceCode":"11"},{"code":"110108026","name":"温泉地区办事处","areaCode":"110108","cityCode":"1101","provinceCode":"11"},{"code":"110108027","name":"四季青地区办事处","areaCode":"110108","cityCode":"1101","provinceCode":"11"},{"code":"110108028","name":"西北旺地区办事处","areaCode":"110108","cityCode":"1101","provinceCode":"11"},{"code":"110108029","name":"苏家坨地区办事处","areaCode":"110108","cityCode":"1101","provinceCode":"11"},{"code":"110108030","name":"上庄地区办事处","areaCode":"110108","cityCode":"1101","provinceCode":"11"},{"code":"110109001","name":"大峪街道办事处","areaCode":"110109","cityCode":"1101","provinceCode":"11"},{"code":"110109002","name":"城子街道办事处","areaCode":"110109","cityCode":"1101","provinceCode":"11"},{"code":"110109003","name":"东辛房街道办事处","areaCode":"110109","cityCode":"1101","provinceCode":"11"},{"code":"110109004","name":"大台街道办事处","areaCode":"110109","cityCode":"1101","provinceCode":"11"},{"code":"110109005","name":"王平地区办事处","areaCode":"110109","cityCode":"1101","provinceCode":"11"},{"code":"110109006","name":"永定地区办事处","areaCode":"110109","cityCode":"1101","provinceCode":"11"},{"code":"110109007","name":"龙泉地区办事处","areaCode":"110109","cityCode":"1101","provinceCode":"11"},{"code":"110109101","name":"潭柘寺镇","areaCode":"110109","cityCode":"1101","provinceCode":"11"},{"code":"110109104","name":"军庄镇","areaCode":"110109","cityCode":"1101","provinceCode":"11"},{"code":"110109105","name":"雁翅镇","areaCode":"110109","cityCode":"1101","provinceCode":"11"},{"code":"110109106","name":"斋堂镇","areaCode":"110109","cityCode":"1101","provinceCode":"11"},{"code":"110109107","name":"清水镇","areaCode":"110109","cityCode":"1101","provinceCode":"11"},{"code":"110109108","name":"妙峰山镇","areaCode":"110109","cityCode":"1101","provinceCode":"11"},{"code":"110111001","name":"城关街道办事处","areaCode":"110111","cityCode":"1101","provinceCode":"11"},{"code":"110111002","name":"新镇街道办事处","areaCode":"110111","cityCode":"1101","provinceCode":"11"},{"code":"110111004","name":"向阳街道办事处","areaCode":"110111","cityCode":"1101","provinceCode":"11"},{"code":"110111005","name":"东风街道办事处","areaCode":"110111","cityCode":"1101","provinceCode":"11"},{"code":"110111006","name":"迎风街道办事处","areaCode":"110111","cityCode":"1101","provinceCode":"11"},{"code":"110111007","name":"星城街道办事处","areaCode":"110111","cityCode":"1101","provinceCode":"11"},{"code":"110111008","name":"良乡地区办事处","areaCode":"110111","cityCode":"1101","provinceCode":"11"},{"code":"110111009","name":"周口店地区办事处","areaCode":"110111","cityCode":"1101","provinceCode":"11"},{"code":"110111010","name":"琉璃河地区办事处","areaCode":"110111","cityCode":"1101","provinceCode":"11"},{"code":"110111011","name":"拱辰街道办事处","areaCode":"110111","cityCode":"1101","provinceCode":"11"},{"code":"110111012","name":"西潞街道办事处","areaCode":"110111","cityCode":"1101","provinceCode":"11"},{"code":"110111101","name":"阎村镇","areaCode":"110111","cityCode":"1101","provinceCode":"11"},{"code":"110111103","name":"窦店镇","areaCode":"110111","cityCode":"1101","provinceCode":"11"},{"code":"110111104","name":"石楼镇","areaCode":"110111","cityCode":"1101","provinceCode":"11"},{"code":"110111105","name":"长阳镇","areaCode":"110111","cityCode":"1101","provinceCode":"11"},{"code":"110111107","name":"河北镇","areaCode":"110111","cityCode":"1101","provinceCode":"11"},{"code":"110111108","name":"长沟镇","areaCode":"110111","cityCode":"1101","provinceCode":"11"},{"code":"110111109","name":"大石窝镇","areaCode":"110111","cityCode":"1101","provinceCode":"11"},{"code":"110111110","name":"张坊镇","areaCode":"110111","cityCode":"1101","provinceCode":"11"},{"code":"110111111","name":"十渡镇","areaCode":"110111","cityCode":"1101","provinceCode":"11"},{"code":"110111112","name":"青龙湖镇","areaCode":"110111","cityCode":"1101","provinceCode":"11"},{"code":"110111115","name":"韩村河镇","areaCode":"110111","cityCode":"1101","provinceCode":"11"},{"code":"110111208","name":"霞云岭乡","areaCode":"110111","cityCode":"1101","provinceCode":"11"},{"code":"110111209","name":"南窖乡","areaCode":"110111","cityCode":"1101","provinceCode":"11"},{"code":"110111210","name":"佛子庄乡","areaCode":"110111","cityCode":"1101","provinceCode":"11"},{"code":"110111211","name":"大安山乡","areaCode":"110111","cityCode":"1101","provinceCode":"11"},{"code":"110111212","name":"史家营乡","areaCode":"110111","cityCode":"1101","provinceCode":"11"},{"code":"110111213","name":"蒲洼乡","areaCode":"110111","cityCode":"1101","provinceCode":"11"},{"code":"110112001","name":"中仓街道办事处","areaCode":"110112","cityCode":"1101","provinceCode":"11"},{"code":"110112002","name":"新华街道办事处","areaCode":"110112","cityCode":"1101","provinceCode":"11"},{"code":"110112003","name":"北苑街道办事处","areaCode":"110112","cityCode":"1101","provinceCode":"11"},{"code":"110112004","name":"玉桥街道办事处","areaCode":"110112","cityCode":"1101","provinceCode":"11"},{"code":"110112005","name":"永顺地区办事处","areaCode":"110112","cityCode":"1101","provinceCode":"11"},{"code":"110112006","name":"梨园地区办事处","areaCode":"110112","cityCode":"1101","provinceCode":"11"},{"code":"110112104","name":"宋庄镇","areaCode":"110112","cityCode":"1101","provinceCode":"11"},{"code":"110112105","name":"张家湾镇","areaCode":"110112","cityCode":"1101","provinceCode":"11"},{"code":"110112106","name":"漷县镇","areaCode":"110112","cityCode":"1101","provinceCode":"11"},{"code":"110112109","name":"马驹桥镇","areaCode":"110112","cityCode":"1101","provinceCode":"11"},{"code":"110112110","name":"西集镇","areaCode":"110112","cityCode":"1101","provinceCode":"11"},{"code":"110112114","name":"台湖镇","areaCode":"110112","cityCode":"1101","provinceCode":"11"},{"code":"110112117","name":"永乐店镇","areaCode":"110112","cityCode":"1101","provinceCode":"11"},{"code":"110112119","name":"潞城镇","areaCode":"110112","cityCode":"1101","provinceCode":"11"},{"code":"110112209","name":"于家务回族乡","areaCode":"110112","cityCode":"1101","provinceCode":"11"},{"code":"110113001","name":"胜利街道办事处","areaCode":"110113","cityCode":"1101","provinceCode":"11"},{"code":"110113002","name":"光明街道办事处","areaCode":"110113","cityCode":"1101","provinceCode":"11"},{"code":"110113003","name":"仁和地区办事处","areaCode":"110113","cityCode":"1101","provinceCode":"11"},{"code":"110113004","name":"后沙峪地区办事处","areaCode":"110113","cityCode":"1101","provinceCode":"11"},{"code":"110113005","name":"天竺地区办事处","areaCode":"110113","cityCode":"1101","provinceCode":"11"},{"code":"110113006","name":"杨镇地区办事处","areaCode":"110113","cityCode":"1101","provinceCode":"11"},{"code":"110113007","name":"牛栏山地区办事处","areaCode":"110113","cityCode":"1101","provinceCode":"11"},{"code":"110113008","name":"南法信地区办事处","areaCode":"110113","cityCode":"1101","provinceCode":"11"},{"code":"110113009","name":"马坡地区办事处","areaCode":"110113","cityCode":"1101","provinceCode":"11"},{"code":"110113010","name":"石园街道办事处","areaCode":"110113","cityCode":"1101","provinceCode":"11"},{"code":"110113011","name":"空港街道办事处","areaCode":"110113","cityCode":"1101","provinceCode":"11"},{"code":"110113012","name":"双丰街道办事处","areaCode":"110113","cityCode":"1101","provinceCode":"11"},{"code":"110113013","name":"旺泉街道办事处","areaCode":"110113","cityCode":"1101","provinceCode":"11"},{"code":"110113101","name":"高丽营镇","areaCode":"110113","cityCode":"1101","provinceCode":"11"},{"code":"110113104","name":"李桥镇","areaCode":"110113","cityCode":"1101","provinceCode":"11"},{"code":"110113105","name":"李遂镇","areaCode":"110113","cityCode":"1101","provinceCode":"11"},{"code":"110113106","name":"南彩镇","areaCode":"110113","cityCode":"1101","provinceCode":"11"},{"code":"110113108","name":"北务镇","areaCode":"110113","cityCode":"1101","provinceCode":"11"},{"code":"110113109","name":"大孙各庄镇","areaCode":"110113","cityCode":"1101","provinceCode":"11"},{"code":"110113110","name":"张镇","areaCode":"110113","cityCode":"1101","provinceCode":"11"},{"code":"110113111","name":"龙湾屯镇","areaCode":"110113","cityCode":"1101","provinceCode":"11"},{"code":"110113112","name":"木林镇","areaCode":"110113","cityCode":"1101","provinceCode":"11"},{"code":"110113113","name":"北小营镇","areaCode":"110113","cityCode":"1101","provinceCode":"11"},{"code":"110113115","name":"北石槽镇","areaCode":"110113","cityCode":"1101","provinceCode":"11"},{"code":"110113116","name":"赵全营镇","areaCode":"110113","cityCode":"1101","provinceCode":"11"},{"code":"110114001","name":"城北街道办事处","areaCode":"110114","cityCode":"1101","provinceCode":"11"},{"code":"110114002","name":"南口地区办事处","areaCode":"110114","cityCode":"1101","provinceCode":"11"},{"code":"110114003","name":"马池口地区办事处","areaCode":"110114","cityCode":"1101","provinceCode":"11"},{"code":"110114004","name":"沙河地区办事处","areaCode":"110114","cityCode":"1101","provinceCode":"11"},{"code":"110114005","name":"城南街道办事处","areaCode":"110114","cityCode":"1101","provinceCode":"11"},{"code":"110114007","name":"东小口地区办事处","areaCode":"110114","cityCode":"1101","provinceCode":"11"},{"code":"110114008","name":"天通苑北街道办事处","areaCode":"110114","cityCode":"1101","provinceCode":"11"},{"code":"110114009","name":"天通苑南街道办事处","areaCode":"110114","cityCode":"1101","provinceCode":"11"},{"code":"110114010","name":"霍营街道办事处","areaCode":"110114","cityCode":"1101","provinceCode":"11"},{"code":"110114011","name":"回龙观街道办事处","areaCode":"110114","cityCode":"1101","provinceCode":"11"},{"code":"110114012","name":"龙泽园街道办事处","areaCode":"110114","cityCode":"1101","provinceCode":"11"},{"code":"110114013","name":"史各庄街道办事处","areaCode":"110114","cityCode":"1101","provinceCode":"11"},{"code":"110114104","name":"阳坊镇","areaCode":"110114","cityCode":"1101","provinceCode":"11"},{"code":"110114110","name":"小汤山镇","areaCode":"110114","cityCode":"1101","provinceCode":"11"},{"code":"110114111","name":"南邵镇","areaCode":"110114","cityCode":"1101","provinceCode":"11"},{"code":"110114112","name":"崔村镇","areaCode":"110114","cityCode":"1101","provinceCode":"11"},{"code":"110114113","name":"百善镇","areaCode":"110114","cityCode":"1101","provinceCode":"11"},{"code":"110114115","name":"北七家镇","areaCode":"110114","cityCode":"1101","provinceCode":"11"},{"code":"110114116","name":"兴寿镇","areaCode":"110114","cityCode":"1101","provinceCode":"11"},{"code":"110114118","name":"流村镇","areaCode":"110114","cityCode":"1101","provinceCode":"11"},{"code":"110114119","name":"十三陵镇","areaCode":"110114","cityCode":"1101","provinceCode":"11"},{"code":"110114120","name":"延寿镇","areaCode":"110114","cityCode":"1101","provinceCode":"11"},{"code":"110115001","name":"兴丰街道办事处","areaCode":"110115","cityCode":"1101","provinceCode":"11"},{"code":"110115002","name":"林校路街道办事处","areaCode":"110115","cityCode":"1101","provinceCode":"11"},{"code":"110115003","name":"清源街道办事处","areaCode":"110115","cityCode":"1101","provinceCode":"11"},{"code":"110115004","name":"亦庄地区办事处","areaCode":"110115","cityCode":"1101","provinceCode":"11"},{"code":"110115005","name":"黄村地区办事处","areaCode":"110115","cityCode":"1101","provinceCode":"11"},{"code":"110115006","name":"旧宫地区办事处","areaCode":"110115","cityCode":"1101","provinceCode":"11"},{"code":"110115007","name":"西红门地区办事处","areaCode":"110115","cityCode":"1101","provinceCode":"11"},{"code":"110115008","name":"瀛海地区办事处","areaCode":"110115","cityCode":"1101","provinceCode":"11"},{"code":"110115009","name":"观音寺街道办事处","areaCode":"110115","cityCode":"1101","provinceCode":"11"},{"code":"110115010","name":"天宫院街道办事处","areaCode":"110115","cityCode":"1101","provinceCode":"11"},{"code":"110115011","name":"高米店街道办事处","areaCode":"110115","cityCode":"1101","provinceCode":"11"},{"code":"110115012","name":"荣华街道办事处","areaCode":"110115","cityCode":"1101","provinceCode":"11"},{"code":"110115013","name":"博兴街道办事处","areaCode":"110115","cityCode":"1101","provinceCode":"11"},{"code":"110115103","name":"青云店镇","areaCode":"110115","cityCode":"1101","provinceCode":"11"},{"code":"110115104","name":"采育镇","areaCode":"110115","cityCode":"1101","provinceCode":"11"},{"code":"110115105","name":"安定镇","areaCode":"110115","cityCode":"1101","provinceCode":"11"},{"code":"110115106","name":"礼贤镇","areaCode":"110115","cityCode":"1101","provinceCode":"11"},{"code":"110115107","name":"榆垡镇","areaCode":"110115","cityCode":"1101","provinceCode":"11"},{"code":"110115108","name":"庞各庄镇","areaCode":"110115","cityCode":"1101","provinceCode":"11"},{"code":"110115109","name":"北臧村镇","areaCode":"110115","cityCode":"1101","provinceCode":"11"},{"code":"110115110","name":"魏善庄镇","areaCode":"110115","cityCode":"1101","provinceCode":"11"},{"code":"110115111","name":"长子营镇","areaCode":"110115","cityCode":"1101","provinceCode":"11"},{"code":"110115403","name":"北京经济技术开发区","areaCode":"110115","cityCode":"1101","provinceCode":"11"},{"code":"110115404","name":"中关村国家自主创新示范区大兴生物医药产业基地","areaCode":"110115","cityCode":"1101","provinceCode":"11"},{"code":"110115405","name":"国家新媒体产业基地","areaCode":"110115","cityCode":"1101","provinceCode":"11"},{"code":"110116001","name":"泉河街道办事处","areaCode":"110116","cityCode":"1101","provinceCode":"11"},{"code":"110116002","name":"龙山街道办事处","areaCode":"110116","cityCode":"1101","provinceCode":"11"},{"code":"110116003","name":"怀柔地区办事处","areaCode":"110116","cityCode":"1101","provinceCode":"11"},{"code":"110116004","name":"雁栖地区办事处","areaCode":"110116","cityCode":"1101","provinceCode":"11"},{"code":"110116005","name":"庙城地区办事处","areaCode":"110116","cityCode":"1101","provinceCode":"11"},{"code":"110116102","name":"北房镇","areaCode":"110116","cityCode":"1101","provinceCode":"11"},{"code":"110116103","name":"杨宋镇","areaCode":"110116","cityCode":"1101","provinceCode":"11"},{"code":"110116105","name":"桥梓镇","areaCode":"110116","cityCode":"1101","provinceCode":"11"},{"code":"110116106","name":"怀北镇","areaCode":"110116","cityCode":"1101","provinceCode":"11"},{"code":"110116107","name":"汤河口镇","areaCode":"110116","cityCode":"1101","provinceCode":"11"},{"code":"110116108","name":"渤海镇","areaCode":"110116","cityCode":"1101","provinceCode":"11"},{"code":"110116109","name":"九渡河镇","areaCode":"110116","cityCode":"1101","provinceCode":"11"},{"code":"110116110","name":"琉璃庙镇","areaCode":"110116","cityCode":"1101","provinceCode":"11"},{"code":"110116111","name":"宝山镇","areaCode":"110116","cityCode":"1101","provinceCode":"11"},{"code":"110116211","name":"长哨营满族乡","areaCode":"110116","cityCode":"1101","provinceCode":"11"},{"code":"110116213","name":"喇叭沟门满族乡","areaCode":"110116","cityCode":"1101","provinceCode":"11"},{"code":"110116400","name":"北京雁栖经济开发区","areaCode":"110116","cityCode":"1101","provinceCode":"11"},{"code":"110117001","name":"滨河街道办事处","areaCode":"110117","cityCode":"1101","provinceCode":"11"},{"code":"110117002","name":"兴谷街道办事处","areaCode":"110117","cityCode":"1101","provinceCode":"11"},{"code":"110117003","name":"渔阳地区办事处","areaCode":"110117","cityCode":"1101","provinceCode":"11"},{"code":"110117004","name":"峪口地区办事处","areaCode":"110117","cityCode":"1101","provinceCode":"11"},{"code":"110117005","name":"马坊地区办事处","areaCode":"110117","cityCode":"1101","provinceCode":"11"},{"code":"110117006","name":"金海湖地区办事处","areaCode":"110117","cityCode":"1101","provinceCode":"11"},{"code":"110117101","name":"东高村镇","areaCode":"110117","cityCode":"1101","provinceCode":"11"},{"code":"110117102","name":"山东庄镇","areaCode":"110117","cityCode":"1101","provinceCode":"11"},{"code":"110117104","name":"南独乐河镇","areaCode":"110117","cityCode":"1101","provinceCode":"11"},{"code":"110117105","name":"大华山镇","areaCode":"110117","cityCode":"1101","provinceCode":"11"},{"code":"110117106","name":"夏各庄镇","areaCode":"110117","cityCode":"1101","provinceCode":"11"},{"code":"110117108","name":"马昌营镇","areaCode":"110117","cityCode":"1101","provinceCode":"11"},{"code":"110117110","name":"王辛庄镇","areaCode":"110117","cityCode":"1101","provinceCode":"11"},{"code":"110117111","name":"大兴庄镇","areaCode":"110117","cityCode":"1101","provinceCode":"11"},{"code":"110117112","name":"刘家店镇","areaCode":"110117","cityCode":"1101","provinceCode":"11"},{"code":"110117114","name":"镇罗营镇","areaCode":"110117","cityCode":"1101","provinceCode":"11"},{"code":"110117213","name":"黄松峪乡","areaCode":"110117","cityCode":"1101","provinceCode":"11"},{"code":"110117214","name":"熊儿寨乡","areaCode":"110117","cityCode":"1101","provinceCode":"11"},{"code":"110118001","name":"鼓楼街道办事处","areaCode":"110118","cityCode":"1101","provinceCode":"11"},{"code":"110118002","name":"果园街道办事处","areaCode":"110118","cityCode":"1101","provinceCode":"11"},{"code":"110118003","name":"檀营地区办事处","areaCode":"110118","cityCode":"1101","provinceCode":"11"},{"code":"110118100","name":"密云镇","areaCode":"110118","cityCode":"1101","provinceCode":"11"},{"code":"110118101","name":"溪翁庄镇","areaCode":"110118","cityCode":"1101","provinceCode":"11"},{"code":"110118102","name":"西田各庄镇","areaCode":"110118","cityCode":"1101","provinceCode":"11"},{"code":"110118103","name":"十里堡镇","areaCode":"110118","cityCode":"1101","provinceCode":"11"},{"code":"110118104","name":"河南寨镇","areaCode":"110118","cityCode":"1101","provinceCode":"11"},{"code":"110118105","name":"巨各庄镇","areaCode":"110118","cityCode":"1101","provinceCode":"11"},{"code":"110118106","name":"穆家峪镇","areaCode":"110118","cityCode":"1101","provinceCode":"11"},{"code":"110118107","name":"太师屯镇","areaCode":"110118","cityCode":"1101","provinceCode":"11"},{"code":"110118108","name":"高岭镇","areaCode":"110118","cityCode":"1101","provinceCode":"11"},{"code":"110118109","name":"不老屯镇","areaCode":"110118","cityCode":"1101","provinceCode":"11"},{"code":"110118110","name":"冯家峪镇","areaCode":"110118","cityCode":"1101","provinceCode":"11"},{"code":"110118111","name":"古北口镇","areaCode":"110118","cityCode":"1101","provinceCode":"11"},{"code":"110118112","name":"大城子镇","areaCode":"110118","cityCode":"1101","provinceCode":"11"},{"code":"110118113","name":"东邵渠镇","areaCode":"110118","cityCode":"1101","provinceCode":"11"},{"code":"110118114","name":"北庄镇","areaCode":"110118","cityCode":"1101","provinceCode":"11"},{"code":"110118115","name":"新城子镇","areaCode":"110118","cityCode":"1101","provinceCode":"11"},{"code":"110118116","name":"石城镇","areaCode":"110118","cityCode":"1101","provinceCode":"11"},{"code":"110118400","name":"北京密云经济开发区","areaCode":"110118","cityCode":"1101","provinceCode":"11"},{"code":"110119001","name":"百泉街道办事处","areaCode":"110119","cityCode":"1101","provinceCode":"11"},{"code":"110119002","name":"香水园街道办事处","areaCode":"110119","cityCode":"1101","provinceCode":"11"},{"code":"110119003","name":"儒林街道办事处","areaCode":"110119","cityCode":"1101","provinceCode":"11"},{"code":"110119100","name":"延庆镇","areaCode":"110119","cityCode":"1101","provinceCode":"11"},{"code":"110119101","name":"康庄镇","areaCode":"110119","cityCode":"1101","provinceCode":"11"},{"code":"110119102","name":"八达岭镇","areaCode":"110119","cityCode":"1101","provinceCode":"11"},{"code":"110119103","name":"永宁镇","areaCode":"110119","cityCode":"1101","provinceCode":"11"},{"code":"110119104","name":"旧县镇","areaCode":"110119","cityCode":"1101","provinceCode":"11"},{"code":"110119105","name":"张山营镇","areaCode":"110119","cityCode":"1101","provinceCode":"11"},{"code":"110119106","name":"四海镇","areaCode":"110119","cityCode":"1101","provinceCode":"11"},{"code":"110119107","name":"千家店镇","areaCode":"110119","cityCode":"1101","provinceCode":"11"},{"code":"110119108","name":"沈家营镇","areaCode":"110119","cityCode":"1101","provinceCode":"11"},{"code":"110119109","name":"大榆树镇","areaCode":"110119","cityCode":"1101","provinceCode":"11"},{"code":"110119110","name":"井庄镇","areaCode":"110119","cityCode":"1101","provinceCode":"11"},{"code":"110119200","name":"大庄科乡","areaCode":"110119","cityCode":"1101","provinceCode":"11"},{"code":"110119201","name":"刘斌堡乡","areaCode":"110119","cityCode":"1101","provinceCode":"11"},{"code":"110119202","name":"香营乡","areaCode":"110119","cityCode":"1101","provinceCode":"11"},{"code":"110119203","name":"珍珠泉乡","areaCode":"110119","cityCode":"1101","provinceCode":"11"},{"code":"440103001","name":"沙面街道","areaCode":"440103","cityCode":"4401","provinceCode":"44"},{"code":"440103002","name":"岭南街道","areaCode":"440103","cityCode":"4401","provinceCode":"44"},{"code":"440103003","name":"华林街道","areaCode":"440103","cityCode":"4401","provinceCode":"44"},{"code":"440103004","name":"多宝街道","areaCode":"440103","cityCode":"4401","provinceCode":"44"},{"code":"440103005","name":"昌华街道","areaCode":"440103","cityCode":"4401","provinceCode":"44"},{"code":"440103006","name":"逢源街道","areaCode":"440103","cityCode":"4401","provinceCode":"44"},{"code":"440103007","name":"龙津街道","areaCode":"440103","cityCode":"4401","provinceCode":"44"},{"code":"440103008","name":"金花街道","areaCode":"440103","cityCode":"4401","provinceCode":"44"},{"code":"440103009","name":"彩虹街道","areaCode":"440103","cityCode":"4401","provinceCode":"44"},{"code":"440103010","name":"南源街道","areaCode":"440103","cityCode":"4401","provinceCode":"44"},{"code":"440103011","name":"西村街道","areaCode":"440103","cityCode":"4401","provinceCode":"44"},{"code":"440103012","name":"站前街道","areaCode":"440103","cityCode":"4401","provinceCode":"44"},{"code":"440103013","name":"桥中街道","areaCode":"440103","cityCode":"4401","provinceCode":"44"},{"code":"440103014","name":"白鹤洞街道","areaCode":"440103","cityCode":"4401","provinceCode":"44"},{"code":"440103015","name":"冲口街道","areaCode":"440103","cityCode":"4401","provinceCode":"44"},{"code":"440103016","name":"花地街道","areaCode":"440103","cityCode":"4401","provinceCode":"44"},{"code":"440103017","name":"石围塘街道","areaCode":"440103","cityCode":"4401","provinceCode":"44"},{"code":"440103018","name":"茶滘街道","areaCode":"440103","cityCode":"4401","provinceCode":"44"},{"code":"440103019","name":"东漖街道","areaCode":"440103","cityCode":"4401","provinceCode":"44"},{"code":"440103020","name":"海龙街道","areaCode":"440103","cityCode":"4401","provinceCode":"44"},{"code":"440103021","name":"东沙街道","areaCode":"440103","cityCode":"4401","provinceCode":"44"},{"code":"440103022","name":"中南街道","areaCode":"440103","cityCode":"4401","provinceCode":"44"},{"code":"440104001","name":"洪桥街道","areaCode":"440104","cityCode":"4401","provinceCode":"44"},{"code":"440104003","name":"北京街道","areaCode":"440104","cityCode":"4401","provinceCode":"44"},{"code":"440104004","name":"六榕街道","areaCode":"440104","cityCode":"4401","provinceCode":"44"},{"code":"440104005","name":"流花街道","areaCode":"440104","cityCode":"4401","provinceCode":"44"},{"code":"440104007","name":"光塔街道","areaCode":"440104","cityCode":"4401","provinceCode":"44"},{"code":"440104010","name":"人民街道","areaCode":"440104","cityCode":"4401","provinceCode":"44"},{"code":"440104011","name":"东山街道","areaCode":"440104","cityCode":"4401","provinceCode":"44"},{"code":"440104012","name":"农林街道","areaCode":"440104","cityCode":"4401","provinceCode":"44"},{"code":"440104013","name":"梅花村街道","areaCode":"440104","cityCode":"4401","provinceCode":"44"},{"code":"440104014","name":"黄花岗街道","areaCode":"440104","cityCode":"4401","provinceCode":"44"},{"code":"440104015","name":"华乐街道","areaCode":"440104","cityCode":"4401","provinceCode":"44"},{"code":"440104016","name":"建设街道","areaCode":"440104","cityCode":"4401","provinceCode":"44"},{"code":"440104017","name":"大塘街道","areaCode":"440104","cityCode":"4401","provinceCode":"44"},{"code":"440104018","name":"珠光街道","areaCode":"440104","cityCode":"4401","provinceCode":"44"},{"code":"440104019","name":"大东街道","areaCode":"440104","cityCode":"4401","provinceCode":"44"},{"code":"440104020","name":"白云街道","areaCode":"440104","cityCode":"4401","provinceCode":"44"},{"code":"440104021","name":"登峰街道","areaCode":"440104","cityCode":"4401","provinceCode":"44"},{"code":"440104022","name":"矿泉街道","areaCode":"440104","cityCode":"4401","provinceCode":"44"},{"code":"440105001","name":"赤岗街道","areaCode":"440105","cityCode":"4401","provinceCode":"44"},{"code":"440105002","name":"新港街道","areaCode":"440105","cityCode":"4401","provinceCode":"44"},{"code":"440105003","name":"昌岗街道","areaCode":"440105","cityCode":"4401","provinceCode":"44"},{"code":"440105004","name":"江南中街道","areaCode":"440105","cityCode":"4401","provinceCode":"44"},{"code":"440105005","name":"滨江街道","areaCode":"440105","cityCode":"4401","provinceCode":"44"},{"code":"440105006","name":"素社街道","areaCode":"440105","cityCode":"4401","provinceCode":"44"},{"code":"440105007","name":"海幢街道","areaCode":"440105","cityCode":"4401","provinceCode":"44"},{"code":"440105008","name":"南华西街道","areaCode":"440105","cityCode":"4401","provinceCode":"44"},{"code":"440105009","name":"龙凤街道","areaCode":"440105","cityCode":"4401","provinceCode":"44"},{"code":"440105010","name":"沙园街道","areaCode":"440105","cityCode":"4401","provinceCode":"44"},{"code":"440105011","name":"南石头街道","areaCode":"440105","cityCode":"4401","provinceCode":"44"},{"code":"440105012","name":"凤阳街道","areaCode":"440105","cityCode":"4401","provinceCode":"44"},{"code":"440105013","name":"瑞宝街道","areaCode":"440105","cityCode":"4401","provinceCode":"44"},{"code":"440105014","name":"江海街道","areaCode":"440105","cityCode":"4401","provinceCode":"44"},{"code":"440105015","name":"琶洲街道","areaCode":"440105","cityCode":"4401","provinceCode":"44"},{"code":"440105016","name":"南洲街道","areaCode":"440105","cityCode":"4401","provinceCode":"44"},{"code":"440105017","name":"华洲街道","areaCode":"440105","cityCode":"4401","provinceCode":"44"},{"code":"440105018","name":"官洲街道","areaCode":"440105","cityCode":"4401","provinceCode":"44"},{"code":"440106001","name":"五山街道","areaCode":"440106","cityCode":"4401","provinceCode":"44"},{"code":"440106002","name":"员村街道","areaCode":"440106","cityCode":"4401","provinceCode":"44"},{"code":"440106003","name":"车陂街道","areaCode":"440106","cityCode":"4401","provinceCode":"44"},{"code":"440106004","name":"沙河街道","areaCode":"440106","cityCode":"4401","provinceCode":"44"},{"code":"440106006","name":"石牌街道","areaCode":"440106","cityCode":"4401","provinceCode":"44"},{"code":"440106007","name":"沙东街道","areaCode":"440106","cityCode":"4401","provinceCode":"44"},{"code":"440106008","name":"天河南街道","areaCode":"440106","cityCode":"4401","provinceCode":"44"},{"code":"440106009","name":"林和街道","areaCode":"440106","cityCode":"4401","provinceCode":"44"},{"code":"440106010","name":"兴华街道","areaCode":"440106","cityCode":"4401","provinceCode":"44"},{"code":"440106011","name":"棠下街道","areaCode":"440106","cityCode":"4401","provinceCode":"44"},{"code":"440106012","name":"天园街道","areaCode":"440106","cityCode":"4401","provinceCode":"44"},{"code":"440106013","name":"猎德街道","areaCode":"440106","cityCode":"4401","provinceCode":"44"},{"code":"440106014","name":"冼村街道","areaCode":"440106","cityCode":"4401","provinceCode":"44"},{"code":"440106015","name":"元岗街道","areaCode":"440106","cityCode":"4401","provinceCode":"44"},{"code":"440106016","name":"黄村街道","areaCode":"440106","cityCode":"4401","provinceCode":"44"},{"code":"440106017","name":"长兴街道","areaCode":"440106","cityCode":"4401","provinceCode":"44"},{"code":"440106018","name":"龙洞街道","areaCode":"440106","cityCode":"4401","provinceCode":"44"},{"code":"440106019","name":"凤凰街道","areaCode":"440106","cityCode":"4401","provinceCode":"44"},{"code":"440106020","name":"前进街道","areaCode":"440106","cityCode":"4401","provinceCode":"44"},{"code":"440106021","name":"珠吉街道","areaCode":"440106","cityCode":"4401","provinceCode":"44"},{"code":"440106022","name":"新塘街道","areaCode":"440106","cityCode":"4401","provinceCode":"44"},{"code":"440111002","name":"三元里街道","areaCode":"440111","cityCode":"4401","provinceCode":"44"},{"code":"440111003","name":"松洲街道","areaCode":"440111","cityCode":"4401","provinceCode":"44"},{"code":"440111004","name":"景泰街道","areaCode":"440111","cityCode":"4401","provinceCode":"44"},{"code":"440111005","name":"同德街道","areaCode":"440111","cityCode":"4401","provinceCode":"44"},{"code":"440111006","name":"黄石街道","areaCode":"440111","cityCode":"4401","provinceCode":"44"},{"code":"440111007","name":"棠景街道","areaCode":"440111","cityCode":"4401","provinceCode":"44"},{"code":"440111008","name":"新市街道","areaCode":"440111","cityCode":"4401","provinceCode":"44"},{"code":"440111009","name":"同和街道","areaCode":"440111","cityCode":"4401","provinceCode":"44"},{"code":"440111010","name":"京溪街道","areaCode":"440111","cityCode":"4401","provinceCode":"44"},{"code":"440111011","name":"永平街道","areaCode":"440111","cityCode":"4401","provinceCode":"44"},{"code":"440111012","name":"嘉禾街道","areaCode":"440111","cityCode":"4401","provinceCode":"44"},{"code":"440111013","name":"均禾街道","areaCode":"440111","cityCode":"4401","provinceCode":"44"},{"code":"440111014","name":"石井街道","areaCode":"440111","cityCode":"4401","provinceCode":"44"},{"code":"440111015","name":"金沙街道","areaCode":"440111","cityCode":"4401","provinceCode":"44"},{"code":"440111016","name":"云城街道","areaCode":"440111","cityCode":"4401","provinceCode":"44"},{"code":"440111017","name":"鹤龙街道","areaCode":"440111","cityCode":"4401","provinceCode":"44"},{"code":"440111018","name":"白云湖街道","areaCode":"440111","cityCode":"4401","provinceCode":"44"},{"code":"440111019","name":"石门街道","areaCode":"440111","cityCode":"4401","provinceCode":"44"},{"code":"440111103","name":"人和镇","areaCode":"440111","cityCode":"4401","provinceCode":"44"},{"code":"440111107","name":"太和镇","areaCode":"440111","cityCode":"4401","provinceCode":"44"},{"code":"440111108","name":"钟落潭镇","areaCode":"440111","cityCode":"4401","provinceCode":"44"},{"code":"440111113","name":"江高镇","areaCode":"440111","cityCode":"4401","provinceCode":"44"},{"code":"440112001","name":"黄埔街道","areaCode":"440112","cityCode":"4401","provinceCode":"44"},{"code":"440112002","name":"红山街道","areaCode":"440112","cityCode":"4401","provinceCode":"44"},{"code":"440112003","name":"鱼珠街道","areaCode":"440112","cityCode":"4401","provinceCode":"44"},{"code":"440112005","name":"大沙街道","areaCode":"440112","cityCode":"4401","provinceCode":"44"},{"code":"440112006","name":"文冲街道","areaCode":"440112","cityCode":"4401","provinceCode":"44"},{"code":"440112007","name":"穗东街道","areaCode":"440112","cityCode":"4401","provinceCode":"44"},{"code":"440112008","name":"南岗街道","areaCode":"440112","cityCode":"4401","provinceCode":"44"},{"code":"440112009","name":"荔联街道","areaCode":"440112","cityCode":"4401","provinceCode":"44"},{"code":"440112010","name":"长洲街道","areaCode":"440112","cityCode":"4401","provinceCode":"44"},{"code":"440112011","name":"夏港街道","areaCode":"440112","cityCode":"4401","provinceCode":"44"},{"code":"440112012","name":"萝岗街道","areaCode":"440112","cityCode":"4401","provinceCode":"44"},{"code":"440112013","name":"东区街道","areaCode":"440112","cityCode":"4401","provinceCode":"44"},{"code":"440112014","name":"联和街道","areaCode":"440112","cityCode":"4401","provinceCode":"44"},{"code":"440112015","name":"永和街道","areaCode":"440112","cityCode":"4401","provinceCode":"44"},{"code":"440112101","name":"九龙镇","areaCode":"440112","cityCode":"4401","provinceCode":"44"},{"code":"440113007","name":"市桥街道","areaCode":"440113","cityCode":"4401","provinceCode":"44"},{"code":"440113008","name":"沙头街道","areaCode":"440113","cityCode":"4401","provinceCode":"44"},{"code":"440113009","name":"东环街道","areaCode":"440113","cityCode":"4401","provinceCode":"44"},{"code":"440113010","name":"桥南街道","areaCode":"440113","cityCode":"4401","provinceCode":"44"},{"code":"440113011","name":"小谷围街道","areaCode":"440113","cityCode":"4401","provinceCode":"44"},{"code":"440113012","name":"大石街道","areaCode":"440113","cityCode":"4401","provinceCode":"44"},{"code":"440113013","name":"洛浦街道","areaCode":"440113","cityCode":"4401","provinceCode":"44"},{"code":"440113014","name":"石壁街道","areaCode":"440113","cityCode":"4401","provinceCode":"44"},{"code":"440113015","name":"钟村街道","areaCode":"440113","cityCode":"4401","provinceCode":"44"},{"code":"440113016","name":"大龙街道","areaCode":"440113","cityCode":"4401","provinceCode":"44"},{"code":"440113102","name":"南村镇","areaCode":"440113","cityCode":"4401","provinceCode":"44"},{"code":"440113103","name":"新造镇","areaCode":"440113","cityCode":"4401","provinceCode":"44"},{"code":"440113104","name":"化龙镇","areaCode":"440113","cityCode":"4401","provinceCode":"44"},{"code":"440113105","name":"石楼镇","areaCode":"440113","cityCode":"4401","provinceCode":"44"},{"code":"440113118","name":"沙湾镇","areaCode":"440113","cityCode":"4401","provinceCode":"44"},{"code":"440113120","name":"石基镇","areaCode":"440113","cityCode":"4401","provinceCode":"44"},{"code":"440114001","name":"新华街道办事处","areaCode":"440114","cityCode":"4401","provinceCode":"44"},{"code":"440114002","name":"花城街道办事处","areaCode":"440114","cityCode":"4401","provinceCode":"44"},{"code":"440114003","name":"秀全街道办事处","areaCode":"440114","cityCode":"4401","provinceCode":"44"},{"code":"440114004","name":"新雅街道办事处","areaCode":"440114","cityCode":"4401","provinceCode":"44"},{"code":"440114103","name":"梯面镇","areaCode":"440114","cityCode":"4401","provinceCode":"44"},{"code":"440114104","name":"花山镇","areaCode":"440114","cityCode":"4401","provinceCode":"44"},{"code":"440114105","name":"花东镇","areaCode":"440114","cityCode":"4401","provinceCode":"44"},{"code":"440114107","name":"炭步镇","areaCode":"440114","cityCode":"4401","provinceCode":"44"},{"code":"440114108","name":"赤坭镇","areaCode":"440114","cityCode":"4401","provinceCode":"44"},{"code":"440114109","name":"狮岭镇","areaCode":"440114","cityCode":"4401","provinceCode":"44"},{"code":"440115001","name":"南沙街道","areaCode":"440115","cityCode":"4401","provinceCode":"44"},{"code":"440115002","name":"珠江街道","areaCode":"440115","cityCode":"4401","provinceCode":"44"},{"code":"440115003","name":"龙穴街道","areaCode":"440115","cityCode":"4401","provinceCode":"44"},{"code":"440115100","name":"万顷沙镇","areaCode":"440115","cityCode":"4401","provinceCode":"44"},{"code":"440115101","name":"横沥镇","areaCode":"440115","cityCode":"4401","provinceCode":"44"},{"code":"440115102","name":"黄阁镇","areaCode":"440115","cityCode":"4401","provinceCode":"44"},{"code":"440115103","name":"东涌镇","areaCode":"440115","cityCode":"4401","provinceCode":"44"},{"code":"440115104","name":"大岗镇","areaCode":"440115","cityCode":"4401","provinceCode":"44"},{"code":"440115105","name":"榄核镇","areaCode":"440115","cityCode":"4401","provinceCode":"44"},{"code":"440117001","name":"街口街道","areaCode":"440117","cityCode":"4401","provinceCode":"44"},{"code":"440117002","name":"江埔街道","areaCode":"440117","cityCode":"4401","provinceCode":"44"},{"code":"440117003","name":"城郊街道","areaCode":"440117","cityCode":"4401","provinceCode":"44"},{"code":"440117103","name":"温泉镇","areaCode":"440117","cityCode":"4401","provinceCode":"44"},{"code":"440117104","name":"良口镇","areaCode":"440117","cityCode":"4401","provinceCode":"44"},{"code":"440117107","name":"吕田镇","areaCode":"440117","cityCode":"4401","provinceCode":"44"},{"code":"440117111","name":"太平镇","areaCode":"440117","cityCode":"4401","provinceCode":"44"},{"code":"440117113","name":"鳌头镇","areaCode":"440117","cityCode":"4401","provinceCode":"44"},{"code":"440117402","name":"流溪河林场","areaCode":"440117","cityCode":"4401","provinceCode":"44"},{"code":"440117404","name":"黄龙带水库管理处","areaCode":"440117","cityCode":"4401","provinceCode":"44"},{"code":"440117405","name":"大岭山林场","areaCode":"440117","cityCode":"4401","provinceCode":"44"},{"code":"440118001","name":"荔城街道","areaCode":"440118","cityCode":"4401","provinceCode":"44"},{"code":"440118002","name":"增江街道","areaCode":"440118","cityCode":"4401","provinceCode":"44"},{"code":"440118003","name":"朱村街道","areaCode":"440118","cityCode":"4401","provinceCode":"44"},{"code":"440118004","name":"永宁街道","areaCode":"440118","cityCode":"4401","provinceCode":"44"},{"code":"440118101","name":"新塘镇","areaCode":"440118","cityCode":"4401","provinceCode":"44"},{"code":"440118102","name":"石滩镇","areaCode":"440118","cityCode":"4401","provinceCode":"44"},{"code":"440118103","name":"中新镇","areaCode":"440118","cityCode":"4401","provinceCode":"44"},{"code":"440118104","name":"正果镇","areaCode":"440118","cityCode":"4401","provinceCode":"44"},{"code":"440118105","name":"派潭镇","areaCode":"440118","cityCode":"4401","provinceCode":"44"},{"code":"440118106","name":"小楼镇","areaCode":"440118","cityCode":"4401","provinceCode":"44"},{"code":"440118107","name":"仙村镇","areaCode":"440118","cityCode":"4401","provinceCode":"44"},{"code":"440203001","name":"新华街道办事处","areaCode":"440203","cityCode":"4402","provinceCode":"44"},{"code":"440203002","name":"惠民街道办事处","areaCode":"440203","cityCode":"4402","provinceCode":"44"},{"code":"440203100","name":"西联镇","areaCode":"440203","cityCode":"4402","provinceCode":"44"},{"code":"440203101","name":"西河镇","areaCode":"440203","cityCode":"4402","provinceCode":"44"},{"code":"440203102","name":"龙归镇","areaCode":"440203","cityCode":"4402","provinceCode":"44"},{"code":"440203103","name":"江湾镇","areaCode":"440203","cityCode":"4402","provinceCode":"44"},{"code":"440203104","name":"重阳镇","areaCode":"440203","cityCode":"4402","provinceCode":"44"},{"code":"440204001","name":"东河街道办事处","areaCode":"440204","cityCode":"4402","provinceCode":"44"},{"code":"440204002","name":"车站街道办事处","areaCode":"440204","cityCode":"4402","provinceCode":"44"},{"code":"440204008","name":"风采街道办事处","areaCode":"440204","cityCode":"4402","provinceCode":"44"},{"code":"440204100","name":"新韶镇","areaCode":"440204","cityCode":"4402","provinceCode":"44"},{"code":"440204101","name":"乐园镇","areaCode":"440204","cityCode":"4402","provinceCode":"44"},{"code":"440204102","name":"十里亭镇","areaCode":"440204","cityCode":"4402","provinceCode":"44"},{"code":"440204103","name":"犁市镇","areaCode":"440204","cityCode":"4402","provinceCode":"44"},{"code":"440204104","name":"花坪镇","areaCode":"440204","cityCode":"4402","provinceCode":"44"},{"code":"440204401","name":"田螺冲办事处","areaCode":"440204","cityCode":"4402","provinceCode":"44"},{"code":"440204402","name":"曲仁办事处","areaCode":"440204","cityCode":"4402","provinceCode":"44"},{"code":"440205001","name":"松山街道办事处","areaCode":"440205","cityCode":"4402","provinceCode":"44"},{"code":"440205100","name":"马坝镇","areaCode":"440205","cityCode":"4402","provinceCode":"44"},{"code":"440205101","name":"大塘镇","areaCode":"440205","cityCode":"4402","provinceCode":"44"},{"code":"440205102","name":"枫湾镇","areaCode":"440205","cityCode":"4402","provinceCode":"44"},{"code":"440205103","name":"小坑镇","areaCode":"440205","cityCode":"4402","provinceCode":"44"},{"code":"440205104","name":"沙溪镇","areaCode":"440205","cityCode":"4402","provinceCode":"44"},{"code":"440205106","name":"乌石镇","areaCode":"440205","cityCode":"4402","provinceCode":"44"},{"code":"440205107","name":"樟市镇","areaCode":"440205","cityCode":"4402","provinceCode":"44"},{"code":"440205108","name":"白土镇","areaCode":"440205","cityCode":"4402","provinceCode":"44"},{"code":"440205109","name":"罗坑镇","areaCode":"440205","cityCode":"4402","provinceCode":"44"},{"code":"440205451","name":"韶关发电厂","areaCode":"440205","cityCode":"4402","provinceCode":"44"},{"code":"440205452","name":"曲江区大宝山矿","areaCode":"440205","cityCode":"4402","provinceCode":"44"},{"code":"440205453","name":"韶关十六冶金建设公司","areaCode":"440205","cityCode":"4402","provinceCode":"44"},{"code":"440222100","name":"太平镇","areaCode":"440222","cityCode":"4402","provinceCode":"44"},{"code":"440222101","name":"马市镇","areaCode":"440222","cityCode":"4402","provinceCode":"44"},{"code":"440222102","name":"澄江镇","areaCode":"440222","cityCode":"4402","provinceCode":"44"},{"code":"440222103","name":"顿岗镇","areaCode":"440222","cityCode":"4402","provinceCode":"44"},{"code":"440222104","name":"罗坝镇","areaCode":"440222","cityCode":"4402","provinceCode":"44"},{"code":"440222105","name":"司前镇","areaCode":"440222","cityCode":"4402","provinceCode":"44"},{"code":"440222106","name":"隘子镇","areaCode":"440222","cityCode":"4402","provinceCode":"44"},{"code":"440222107","name":"城南镇","areaCode":"440222","cityCode":"4402","provinceCode":"44"},{"code":"440222108","name":"沈所镇","areaCode":"440222","cityCode":"4402","provinceCode":"44"},{"code":"440222204","name":"深渡水乡","areaCode":"440222","cityCode":"4402","provinceCode":"44"},{"code":"440224001","name":"丹霞街道办事处","areaCode":"440224","cityCode":"4402","provinceCode":"44"},{"code":"440224102","name":"闻韶镇","areaCode":"440224","cityCode":"4402","provinceCode":"44"},{"code":"440224103","name":"扶溪镇","areaCode":"440224","cityCode":"4402","provinceCode":"44"},{"code":"440224104","name":"长江镇","areaCode":"440224","cityCode":"4402","provinceCode":"44"},{"code":"440224105","name":"城口镇","areaCode":"440224","cityCode":"4402","provinceCode":"44"},{"code":"440224106","name":"红山镇","areaCode":"440224","cityCode":"4402","provinceCode":"44"},{"code":"440224107","name":"石塘镇","areaCode":"440224","cityCode":"4402","provinceCode":"44"},{"code":"440224108","name":"董塘镇","areaCode":"440224","cityCode":"4402","provinceCode":"44"},{"code":"440224109","name":"大桥镇","areaCode":"440224","cityCode":"4402","provinceCode":"44"},{"code":"440224110","name":"周田镇","areaCode":"440224","cityCode":"4402","provinceCode":"44"},{"code":"440224111","name":"黄坑镇","areaCode":"440224","cityCode":"4402","provinceCode":"44"},{"code":"440229100","name":"龙仙镇","areaCode":"440229","cityCode":"4402","provinceCode":"44"},{"code":"440229104","name":"坝仔镇","areaCode":"440229","cityCode":"4402","provinceCode":"44"},{"code":"440229106","name":"江尾镇","areaCode":"440229","cityCode":"4402","provinceCode":"44"},{"code":"440229109","name":"官渡镇","areaCode":"440229","cityCode":"4402","provinceCode":"44"},{"code":"440229111","name":"周陂镇","areaCode":"440229","cityCode":"4402","provinceCode":"44"},{"code":"440229113","name":"翁城镇","areaCode":"440229","cityCode":"4402","provinceCode":"44"},{"code":"440229114","name":"新江镇","areaCode":"440229","cityCode":"4402","provinceCode":"44"},{"code":"440229450","name":"铁龙林场","areaCode":"440229","cityCode":"4402","provinceCode":"44"},{"code":"440232100","name":"乳城镇","areaCode":"440232","cityCode":"4402","provinceCode":"44"},{"code":"440232103","name":"一六镇","areaCode":"440232","cityCode":"4402","provinceCode":"44"},{"code":"440232104","name":"桂头镇","areaCode":"440232","cityCode":"4402","provinceCode":"44"},{"code":"440232106","name":"洛阳镇","areaCode":"440232","cityCode":"4402","provinceCode":"44"},{"code":"440232108","name":"大布镇","areaCode":"440232","cityCode":"4402","provinceCode":"44"},{"code":"440232109","name":"大桥镇","areaCode":"440232","cityCode":"4402","provinceCode":"44"},{"code":"440232111","name":"东坪镇","areaCode":"440232","cityCode":"4402","provinceCode":"44"},{"code":"440232112","name":"游溪镇","areaCode":"440232","cityCode":"4402","provinceCode":"44"},{"code":"440232113","name":"必背镇","areaCode":"440232","cityCode":"4402","provinceCode":"44"},{"code":"440232450","name":"天井山林场","areaCode":"440232","cityCode":"4402","provinceCode":"44"},{"code":"440232451","name":"乳阳林业局","areaCode":"440232","cityCode":"4402","provinceCode":"44"},{"code":"440233001","name":"丰城街道办事处","areaCode":"440233","cityCode":"4402","provinceCode":"44"},{"code":"440233100","name":"黄礤镇","areaCode":"440233","cityCode":"4402","provinceCode":"44"},{"code":"440233101","name":"马头镇","areaCode":"440233","cityCode":"4402","provinceCode":"44"},{"code":"440233102","name":"梅坑镇","areaCode":"440233","cityCode":"4402","provinceCode":"44"},{"code":"440233103","name":"沙田镇","areaCode":"440233","cityCode":"4402","provinceCode":"44"},{"code":"440233104","name":"遥田镇","areaCode":"440233","cityCode":"4402","provinceCode":"44"},{"code":"440233105","name":"回龙镇","areaCode":"440233","cityCode":"4402","provinceCode":"44"},{"code":"440281001","name":"乐城街道办事处","areaCode":"440281","cityCode":"4402","provinceCode":"44"},{"code":"440281102","name":"北乡镇","areaCode":"440281","cityCode":"4402","provinceCode":"44"},{"code":"440281103","name":"九峰镇","areaCode":"440281","cityCode":"4402","provinceCode":"44"},{"code":"440281104","name":"廊田镇","areaCode":"440281","cityCode":"4402","provinceCode":"44"},{"code":"440281105","name":"长来镇","areaCode":"440281","cityCode":"4402","provinceCode":"44"},{"code":"440281106","name":"梅花镇","areaCode":"440281","cityCode":"4402","provinceCode":"44"},{"code":"440281107","name":"三溪镇","areaCode":"440281","cityCode":"4402","provinceCode":"44"},{"code":"440281108","name":"坪石镇","areaCode":"440281","cityCode":"4402","provinceCode":"44"},{"code":"440281110","name":"黄圃镇","areaCode":"440281","cityCode":"4402","provinceCode":"44"},{"code":"440281111","name":"五山镇","areaCode":"440281","cityCode":"4402","provinceCode":"44"},{"code":"440281112","name":"两江镇","areaCode":"440281","cityCode":"4402","provinceCode":"44"},{"code":"440281113","name":"沙坪镇","areaCode":"440281","cityCode":"4402","provinceCode":"44"},{"code":"440281114","name":"云岩镇","areaCode":"440281","cityCode":"4402","provinceCode":"44"},{"code":"440281115","name":"秀水镇","areaCode":"440281","cityCode":"4402","provinceCode":"44"},{"code":"440281117","name":"大源镇","areaCode":"440281","cityCode":"4402","provinceCode":"44"},{"code":"440281118","name":"庆云镇","areaCode":"440281","cityCode":"4402","provinceCode":"44"},{"code":"440281119","name":"白石镇","areaCode":"440281","cityCode":"4402","provinceCode":"44"},{"code":"440281451","name":"坪石办事处","areaCode":"440281","cityCode":"4402","provinceCode":"44"},{"code":"440281452","name":"梅田办事处","areaCode":"440281","cityCode":"4402","provinceCode":"44"},{"code":"440282001","name":"雄州街道办事处","areaCode":"440282","cityCode":"4402","provinceCode":"44"},{"code":"440282100","name":"乌迳镇","areaCode":"440282","cityCode":"4402","provinceCode":"44"},{"code":"440282103","name":"界址镇","areaCode":"440282","cityCode":"4402","provinceCode":"44"},{"code":"440282104","name":"坪田镇","areaCode":"440282","cityCode":"4402","provinceCode":"44"},{"code":"440282105","name":"黄坑镇","areaCode":"440282","cityCode":"4402","provinceCode":"44"},{"code":"440282106","name":"邓坊镇","areaCode":"440282","cityCode":"4402","provinceCode":"44"},{"code":"440282107","name":"油山镇","areaCode":"440282","cityCode":"4402","provinceCode":"44"},{"code":"440282109","name":"南亩镇","areaCode":"440282","cityCode":"4402","provinceCode":"44"},{"code":"440282110","name":"水口镇","areaCode":"440282","cityCode":"4402","provinceCode":"44"},{"code":"440282111","name":"江头镇","areaCode":"440282","cityCode":"4402","provinceCode":"44"},{"code":"440282112","name":"湖口镇","areaCode":"440282","cityCode":"4402","provinceCode":"44"},{"code":"440282113","name":"珠玑镇","areaCode":"440282","cityCode":"4402","provinceCode":"44"},{"code":"440282115","name":"主田镇","areaCode":"440282","cityCode":"4402","provinceCode":"44"},{"code":"440282116","name":"古市镇","areaCode":"440282","cityCode":"4402","provinceCode":"44"},{"code":"440282118","name":"全安镇","areaCode":"440282","cityCode":"4402","provinceCode":"44"},{"code":"440282120","name":"百顺镇","areaCode":"440282","cityCode":"4402","provinceCode":"44"},{"code":"440282121","name":"澜河镇","areaCode":"440282","cityCode":"4402","provinceCode":"44"},{"code":"440282122","name":"帽子峰镇","areaCode":"440282","cityCode":"4402","provinceCode":"44"},{"code":"440282400","name":"东莞大岭山（南雄）产业转移工业园","areaCode":"440282","cityCode":"4402","provinceCode":"44"},{"code":"440303001","name":"桂园街道办事处","areaCode":"440303","cityCode":"4403","provinceCode":"44"},{"code":"440303002","name":"黄贝街道办事处","areaCode":"440303","cityCode":"4403","provinceCode":"44"},{"code":"440303003","name":"东门街道办事处","areaCode":"440303","cityCode":"4403","provinceCode":"44"},{"code":"440303004","name":"翠竹街道办事处","areaCode":"440303","cityCode":"4403","provinceCode":"44"},{"code":"440303005","name":"南湖街道办事处","areaCode":"440303","cityCode":"4403","provinceCode":"44"},{"code":"440303006","name":"笋岗街道办事处","areaCode":"440303","cityCode":"4403","provinceCode":"44"},{"code":"440303007","name":"东湖街道办事处","areaCode":"440303","cityCode":"4403","provinceCode":"44"},{"code":"440303008","name":"莲塘街道办事处","areaCode":"440303","cityCode":"4403","provinceCode":"44"},{"code":"440303009","name":"东晓街道办事处","areaCode":"440303","cityCode":"4403","provinceCode":"44"},{"code":"440303010","name":"清水河街道办事处","areaCode":"440303","cityCode":"4403","provinceCode":"44"},{"code":"440304001","name":"南园街道办事处","areaCode":"440304","cityCode":"4403","provinceCode":"44"},{"code":"440304002","name":"园岭街道办事处","areaCode":"440304","cityCode":"4403","provinceCode":"44"},{"code":"440304004","name":"福田街道办事处","areaCode":"440304","cityCode":"4403","provinceCode":"44"},{"code":"440304005","name":"沙头街道办事处","areaCode":"440304","cityCode":"4403","provinceCode":"44"},{"code":"440304006","name":"香蜜湖街道办事处","areaCode":"440304","cityCode":"4403","provinceCode":"44"},{"code":"440304007","name":"梅林街道办事处","areaCode":"440304","cityCode":"4403","provinceCode":"44"},{"code":"440304008","name":"莲花街道办事处","areaCode":"440304","cityCode":"4403","provinceCode":"44"},{"code":"440304009","name":"华富街道办事处","areaCode":"440304","cityCode":"4403","provinceCode":"44"},{"code":"440304010","name":"福保街道办事处","areaCode":"440304","cityCode":"4403","provinceCode":"44"},{"code":"440304011","name":"华强北街道办事处","areaCode":"440304","cityCode":"4403","provinceCode":"44"},{"code":"440304400","name":"福田保税区","areaCode":"440304","cityCode":"4403","provinceCode":"44"},{"code":"440305001","name":"南头街道办事处","areaCode":"440305","cityCode":"4403","provinceCode":"44"},{"code":"440305002","name":"南山街道办事处","areaCode":"440305","cityCode":"4403","provinceCode":"44"},{"code":"440305003","name":"沙河街道办事处","areaCode":"440305","cityCode":"4403","provinceCode":"44"},{"code":"440305005","name":"蛇口街道办事处","areaCode":"440305","cityCode":"4403","provinceCode":"44"},{"code":"440305006","name":"招商街道办事处","areaCode":"440305","cityCode":"4403","provinceCode":"44"},{"code":"440305007","name":"粤海街道办事处","areaCode":"440305","cityCode":"4403","provinceCode":"44"},{"code":"440305008","name":"桃源街道办事处","areaCode":"440305","cityCode":"4403","provinceCode":"44"},{"code":"440305009","name":"西丽街道办事处","areaCode":"440305","cityCode":"4403","provinceCode":"44"},{"code":"440305400","name":"前海合作区","areaCode":"440305","cityCode":"4403","provinceCode":"44"},{"code":"440306001","name":"新安街道办事处","areaCode":"440306","cityCode":"4403","provinceCode":"44"},{"code":"440306002","name":"光明办事处","areaCode":"440306","cityCode":"4403","provinceCode":"44"},{"code":"440306003","name":"西乡街道办事处","areaCode":"440306","cityCode":"4403","provinceCode":"44"},{"code":"440306004","name":"福永街道办事处","areaCode":"440306","cityCode":"4403","provinceCode":"44"},{"code":"440306005","name":"沙井街道办事处","areaCode":"440306","cityCode":"4403","provinceCode":"44"},{"code":"440306006","name":"松岗街道办事处","areaCode":"440306","cityCode":"4403","provinceCode":"44"},{"code":"440306007","name":"公明办事处","areaCode":"440306","cityCode":"4403","provinceCode":"44"},{"code":"440306008","name":"石岩街道办事处","areaCode":"440306","cityCode":"4403","provinceCode":"44"},{"code":"440306011","name":"大浪办事处","areaCode":"440306","cityCode":"4403","provinceCode":"44"},{"code":"440306012","name":"龙华办事处","areaCode":"440306","cityCode":"4403","provinceCode":"44"},{"code":"440306013","name":"民治办事处","areaCode":"440306","cityCode":"4403","provinceCode":"44"},{"code":"440306014","name":"观湖办事处","areaCode":"440306","cityCode":"4403","provinceCode":"44"},{"code":"440306015","name":"福城办事处","areaCode":"440306","cityCode":"4403","provinceCode":"44"},{"code":"440306016","name":"观澜办事处","areaCode":"440306","cityCode":"4403","provinceCode":"44"},{"code":"440306400","name":"深圳市宝安国际机场","areaCode":"440306","cityCode":"4403","provinceCode":"44"},{"code":"440307003","name":"平湖街道办事处","areaCode":"440307","cityCode":"4403","provinceCode":"44"},{"code":"440307006","name":"坪地街道办事处","areaCode":"440307","cityCode":"4403","provinceCode":"44"},{"code":"440307007","name":"坪山街道办事处","areaCode":"440307","cityCode":"4403","provinceCode":"44"},{"code":"440307008","name":"坑梓街道办事处","areaCode":"440307","cityCode":"4403","provinceCode":"44"},{"code":"440307009","name":"葵涌街道办事处","areaCode":"440307","cityCode":"4403","provinceCode":"44"},{"code":"440307010","name":"大鹏街道办事处","areaCode":"440307","cityCode":"4403","provinceCode":"44"},{"code":"440307011","name":"南澳街道办事处","areaCode":"440307","cityCode":"4403","provinceCode":"44"},{"code":"440307012","name":"南湾街道办事处","areaCode":"440307","cityCode":"4403","provinceCode":"44"},{"code":"440307013","name":"坂田街道办事处","areaCode":"440307","cityCode":"4403","provinceCode":"44"},{"code":"440307014","name":"布吉街道办事处","areaCode":"440307","cityCode":"4403","provinceCode":"44"},{"code":"440307015","name":"龙城街道办事处","areaCode":"440307","cityCode":"4403","provinceCode":"44"},{"code":"440307016","name":"龙岗街道办事处","areaCode":"440307","cityCode":"4403","provinceCode":"44"},{"code":"440307017","name":"横岗街道办事处","areaCode":"440307","cityCode":"4403","provinceCode":"44"},{"code":"440307401","name":"深圳市大工业区","areaCode":"440307","cityCode":"4403","provinceCode":"44"},{"code":"440308001","name":"梅沙街道办事处","areaCode":"440308","cityCode":"4403","provinceCode":"44"},{"code":"440308002","name":"盐田街道办事处","areaCode":"440308","cityCode":"4403","provinceCode":"44"},{"code":"440308003","name":"沙头角街道办事处","areaCode":"440308","cityCode":"4403","provinceCode":"44"},{"code":"440308004","name":"海山街道办事处","areaCode":"440308","cityCode":"4403","provinceCode":"44"},{"code":"440308400","name":"市保税区（沙头角）","areaCode":"440308","cityCode":"4403","provinceCode":"44"},{"code":"440308401","name":"市保税区（盐田港）","areaCode":"440308","cityCode":"4403","provinceCode":"44"},{"code":"440402001","name":"翠香街道办","areaCode":"440402","cityCode":"4404","provinceCode":"44"},{"code":"440402002","name":"梅华街道办","areaCode":"440402","cityCode":"4404","provinceCode":"44"},{"code":"440402003","name":"前山街道办","areaCode":"440402","cityCode":"4404","provinceCode":"44"},{"code":"440402004","name":"吉大街道办","areaCode":"440402","cityCode":"4404","provinceCode":"44"},{"code":"440402005","name":"拱北街道办","areaCode":"440402","cityCode":"4404","provinceCode":"44"},{"code":"440402006","name":"香湾街道办","areaCode":"440402","cityCode":"4404","provinceCode":"44"},{"code":"440402007","name":"狮山街道办","areaCode":"440402","cityCode":"4404","provinceCode":"44"},{"code":"440402008","name":"湾仔街道办","areaCode":"440402","cityCode":"4404","provinceCode":"44"},{"code":"440402100","name":"唐家湾镇","areaCode":"440402","cityCode":"4404","provinceCode":"44"},{"code":"440402102","name":"南屏镇","areaCode":"440402","cityCode":"4404","provinceCode":"44"},{"code":"440402104","name":"横琴镇","areaCode":"440402","cityCode":"4404","provinceCode":"44"},{"code":"440402105","name":"桂山镇","areaCode":"440402","cityCode":"4404","provinceCode":"44"},{"code":"440402106","name":"万山镇","areaCode":"440402","cityCode":"4404","provinceCode":"44"},{"code":"440402107","name":"担杆镇","areaCode":"440402","cityCode":"4404","provinceCode":"44"},{"code":"440402401","name":"南屏科技园","areaCode":"440402","cityCode":"4404","provinceCode":"44"},{"code":"440402402","name":"保税区","areaCode":"440402","cityCode":"4404","provinceCode":"44"},{"code":"440402403","name":"前山商贸物流中心","areaCode":"440402","cityCode":"4404","provinceCode":"44"},{"code":"440402404","name":"洪湾商贸物流中心","areaCode":"440402","cityCode":"4404","provinceCode":"44"},{"code":"440402406","name":"金鼎工业园","areaCode":"440402","cityCode":"4404","provinceCode":"44"},{"code":"440403001","name":"白藤街道办事处","areaCode":"440403","cityCode":"4404","provinceCode":"44"},{"code":"440403100","name":"莲洲镇","areaCode":"440403","cityCode":"4404","provinceCode":"44"},{"code":"440403103","name":"斗门镇","areaCode":"440403","cityCode":"4404","provinceCode":"44"},{"code":"440403105","name":"乾务镇","areaCode":"440403","cityCode":"4404","provinceCode":"44"},{"code":"440403106","name":"白蕉镇","areaCode":"440403","cityCode":"4404","provinceCode":"44"},{"code":"440403107","name":"井岸镇","areaCode":"440403","cityCode":"4404","provinceCode":"44"},{"code":"440404100","name":"三灶镇","areaCode":"440404","cityCode":"4404","provinceCode":"44"},{"code":"440404101","name":"南水镇","areaCode":"440404","cityCode":"4404","provinceCode":"44"},{"code":"440404103","name":"红旗镇","areaCode":"440404","cityCode":"4404","provinceCode":"44"},{"code":"440404104","name":"平沙镇","areaCode":"440404","cityCode":"4404","provinceCode":"44"},{"code":"440404400","name":"联港工业区","areaCode":"440404","cityCode":"4404","provinceCode":"44"},{"code":"440404401","name":"航空产业园","areaCode":"440404","cityCode":"4404","provinceCode":"44"},{"code":"440507001","name":"金霞街道","areaCode":"440507","cityCode":"4405","provinceCode":"44"},{"code":"440507003","name":"珠池街道","areaCode":"440507","cityCode":"4405","provinceCode":"44"},{"code":"440507004","name":"新津街道","areaCode":"440507","cityCode":"4405","provinceCode":"44"},{"code":"440507005","name":"鸥汀街道","areaCode":"440507","cityCode":"4405","provinceCode":"44"},{"code":"440507008","name":"龙祥街道","areaCode":"440507","cityCode":"4405","provinceCode":"44"},{"code":"440507100","name":"外砂镇","areaCode":"440507","cityCode":"4405","provinceCode":"44"},{"code":"440507101","name":"新溪镇","areaCode":"440507","cityCode":"4405","provinceCode":"44"},{"code":"440511001","name":"石炮台街道","areaCode":"440511","cityCode":"4405","provinceCode":"44"},{"code":"440511002","name":"金砂街道","areaCode":"440511","cityCode":"4405","provinceCode":"44"},{"code":"440511003","name":"金厦街道","areaCode":"440511","cityCode":"4405","provinceCode":"44"},{"code":"440511004","name":"东方街道","areaCode":"440511","cityCode":"4405","provinceCode":"44"},{"code":"440511005","name":"大华街道","areaCode":"440511","cityCode":"4405","provinceCode":"44"},{"code":"440511006","name":"同益街道","areaCode":"440511","cityCode":"4405","provinceCode":"44"},{"code":"440511007","name":"光华街道","areaCode":"440511","cityCode":"4405","provinceCode":"44"},{"code":"440511008","name":"东墩街道","areaCode":"440511","cityCode":"4405","provinceCode":"44"},{"code":"440511009","name":"广厦街道","areaCode":"440511","cityCode":"4405","provinceCode":"44"},{"code":"440511010","name":"海安街道","areaCode":"440511","cityCode":"4405","provinceCode":"44"},{"code":"440511011","name":"新福街道","areaCode":"440511","cityCode":"4405","provinceCode":"44"},{"code":"440511012","name":"乌桥街道","areaCode":"440511","cityCode":"4405","provinceCode":"44"},{"code":"440511013","name":"岐山街道","areaCode":"440511","cityCode":"4405","provinceCode":"44"},{"code":"440511014","name":"永祥街道","areaCode":"440511","cityCode":"4405","provinceCode":"44"},{"code":"440511015","name":"鮀莲街道","areaCode":"440511","cityCode":"4405","provinceCode":"44"},{"code":"440511016","name":"鮀江街道","areaCode":"440511","cityCode":"4405","provinceCode":"44"},{"code":"440511017","name":"月浦街道","areaCode":"440511","cityCode":"4405","provinceCode":"44"},{"code":"440512001","name":"达濠街道","areaCode":"440512","cityCode":"4405","provinceCode":"44"},{"code":"440512002","name":"马窖街道","areaCode":"440512","cityCode":"4405","provinceCode":"44"},{"code":"440512003","name":"礐石街道","areaCode":"440512","cityCode":"4405","provinceCode":"44"},{"code":"440512004","name":"广澳街道","areaCode":"440512","cityCode":"4405","provinceCode":"44"},{"code":"440512005","name":"滨海街道","areaCode":"440512","cityCode":"4405","provinceCode":"44"},{"code":"440512006","name":"河浦街道","areaCode":"440512","cityCode":"4405","provinceCode":"44"},{"code":"440512007","name":"玉新街道","areaCode":"440512","cityCode":"4405","provinceCode":"44"},{"code":"440513001","name":"文光街道","areaCode":"440513","cityCode":"4405","provinceCode":"44"},{"code":"440513002","name":"棉北街道","areaCode":"440513","cityCode":"4405","provinceCode":"44"},{"code":"440513003","name":"城南街道","areaCode":"440513","cityCode":"4405","provinceCode":"44"},{"code":"440513004","name":"金浦街道","areaCode":"440513","cityCode":"4405","provinceCode":"44"},{"code":"440513100","name":"海门镇","areaCode":"440513","cityCode":"4405","provinceCode":"44"},{"code":"440513101","name":"河溪镇","areaCode":"440513","cityCode":"4405","provinceCode":"44"},{"code":"440513102","name":"和平镇","areaCode":"440513","cityCode":"4405","provinceCode":"44"},{"code":"440513103","name":"西胪镇","areaCode":"440513","cityCode":"4405","provinceCode":"44"},{"code":"440513104","name":"关埠镇","areaCode":"440513","cityCode":"4405","provinceCode":"44"},{"code":"440513106","name":"谷饶镇","areaCode":"440513","cityCode":"4405","provinceCode":"44"},{"code":"440513107","name":"贵屿镇","areaCode":"440513","cityCode":"4405","provinceCode":"44"},{"code":"440513108","name":"铜盂镇","areaCode":"440513","cityCode":"4405","provinceCode":"44"},{"code":"440513110","name":"金灶镇","areaCode":"440513","cityCode":"4405","provinceCode":"44"},{"code":"440514001","name":"峡山街道","areaCode":"440514","cityCode":"4405","provinceCode":"44"},{"code":"440514101","name":"井都镇","areaCode":"440514","cityCode":"4405","provinceCode":"44"},{"code":"440514103","name":"成田镇","areaCode":"440514","cityCode":"4405","provinceCode":"44"},{"code":"440514104","name":"司马浦镇","areaCode":"440514","cityCode":"4405","provinceCode":"44"},{"code":"440514105","name":"陈店镇","areaCode":"440514","cityCode":"4405","provinceCode":"44"},{"code":"440514106","name":"两英镇","areaCode":"440514","cityCode":"4405","provinceCode":"44"},{"code":"440514107","name":"仙城镇","areaCode":"440514","cityCode":"4405","provinceCode":"44"},{"code":"440514108","name":"胪岗镇","areaCode":"440514","cityCode":"4405","provinceCode":"44"},{"code":"440514109","name":"红场镇","areaCode":"440514","cityCode":"4405","provinceCode":"44"},{"code":"440514110","name":"雷岭镇","areaCode":"440514","cityCode":"4405","provinceCode":"44"},{"code":"440514112","name":"陇田镇","areaCode":"440514","cityCode":"4405","provinceCode":"44"},{"code":"440515001","name":"凤翔街道","areaCode":"440515","cityCode":"4405","provinceCode":"44"},{"code":"440515002","name":"广益街道","areaCode":"440515","cityCode":"4405","provinceCode":"44"},{"code":"440515003","name":"澄华街道","areaCode":"440515","cityCode":"4405","provinceCode":"44"},{"code":"440515100","name":"上华镇","areaCode":"440515","cityCode":"4405","provinceCode":"44"},{"code":"440515101","name":"隆都镇","areaCode":"440515","cityCode":"4405","provinceCode":"44"},{"code":"440515102","name":"莲下镇","areaCode":"440515","cityCode":"4405","provinceCode":"44"},{"code":"440515103","name":"莲上镇","areaCode":"440515","cityCode":"4405","provinceCode":"44"},{"code":"440515104","name":"溪南镇","areaCode":"440515","cityCode":"4405","provinceCode":"44"},{"code":"440515105","name":"东里镇","areaCode":"440515","cityCode":"4405","provinceCode":"44"},{"code":"440515106","name":"盐鸿镇","areaCode":"440515","cityCode":"4405","provinceCode":"44"},{"code":"440515107","name":"莲华镇","areaCode":"440515","cityCode":"4405","provinceCode":"44"},{"code":"440523100","name":"后宅镇","areaCode":"440523","cityCode":"4405","provinceCode":"44"},{"code":"440523101","name":"云澳镇","areaCode":"440523","cityCode":"4405","provinceCode":"44"},{"code":"440523102","name":"深澳镇","areaCode":"440523","cityCode":"4405","provinceCode":"44"},{"code":"440604010","name":"石湾镇街道办事处","areaCode":"440604","cityCode":"4406","provinceCode":"44"},{"code":"440604011","name":"张槎街道办事处","areaCode":"440604","cityCode":"4406","provinceCode":"44"},{"code":"440604012","name":"祖庙街道办事处","areaCode":"440604","cityCode":"4406","provinceCode":"44"},{"code":"440604100","name":"南庄镇","areaCode":"440604","cityCode":"4406","provinceCode":"44"},{"code":"440605011","name":"桂城街道办事处","areaCode":"440605","cityCode":"4406","provinceCode":"44"},{"code":"440605121","name":"九江镇","areaCode":"440605","cityCode":"4406","provinceCode":"44"},{"code":"440605122","name":"西樵镇","areaCode":"440605","cityCode":"4406","provinceCode":"44"},{"code":"440605123","name":"丹灶镇","areaCode":"440605","cityCode":"4406","provinceCode":"44"},{"code":"440605124","name":"狮山镇","areaCode":"440605","cityCode":"4406","provinceCode":"44"},{"code":"440605125","name":"大沥镇","areaCode":"440605","cityCode":"4406","provinceCode":"44"},{"code":"440605126","name":"里水镇","areaCode":"440605","cityCode":"4406","provinceCode":"44"},{"code":"440606003","name":"伦教街道办事处","areaCode":"440606","cityCode":"4406","provinceCode":"44"},{"code":"440606004","name":"勒流街道办事处","areaCode":"440606","cityCode":"4406","provinceCode":"44"},{"code":"440606005","name":"大良街道办事处","areaCode":"440606","cityCode":"4406","provinceCode":"44"},{"code":"440606006","name":"容桂街道办事处","areaCode":"440606","cityCode":"4406","provinceCode":"44"},{"code":"440606101","name":"陈村镇","areaCode":"440606","cityCode":"4406","provinceCode":"44"},{"code":"440606102","name":"北滘镇","areaCode":"440606","cityCode":"4406","provinceCode":"44"},{"code":"440606103","name":"乐从镇","areaCode":"440606","cityCode":"4406","provinceCode":"44"},{"code":"440606104","name":"龙江镇","areaCode":"440606","cityCode":"4406","provinceCode":"44"},{"code":"440606105","name":"杏坛镇","areaCode":"440606","cityCode":"4406","provinceCode":"44"},{"code":"440606106","name":"均安镇","areaCode":"440606","cityCode":"4406","provinceCode":"44"},{"code":"440607001","name":"西南街道办事处","areaCode":"440607","cityCode":"4406","provinceCode":"44"},{"code":"440607004","name":"云东海街道办事处","areaCode":"440607","cityCode":"4406","provinceCode":"44"},{"code":"440607101","name":"大塘镇","areaCode":"440607","cityCode":"4406","provinceCode":"44"},{"code":"440607103","name":"乐平镇","areaCode":"440607","cityCode":"4406","provinceCode":"44"},{"code":"440607104","name":"白坭镇","areaCode":"440607","cityCode":"4406","provinceCode":"44"},{"code":"440607105","name":"芦苞镇","areaCode":"440607","cityCode":"4406","provinceCode":"44"},{"code":"440607106","name":"南山镇","areaCode":"440607","cityCode":"4406","provinceCode":"44"},{"code":"440607400","name":"省三水劳教所","areaCode":"440607","cityCode":"4406","provinceCode":"44"},{"code":"440607401","name":"省南丰劳教所","areaCode":"440607","cityCode":"4406","provinceCode":"44"},{"code":"440607402","name":"省女子劳教所","areaCode":"440607","cityCode":"4406","provinceCode":"44"},{"code":"440607403","name":"省第二戒毒劳教所","areaCode":"440607","cityCode":"4406","provinceCode":"44"},{"code":"440607404","name":"广州军区三水农场","areaCode":"440607","cityCode":"4406","provinceCode":"44"},{"code":"440608004","name":"荷城街道办事处","areaCode":"440608","cityCode":"4406","provinceCode":"44"},{"code":"440608106","name":"杨和镇","areaCode":"440608","cityCode":"4406","provinceCode":"44"},{"code":"440608107","name":"明城镇","areaCode":"440608","cityCode":"4406","provinceCode":"44"},{"code":"440608108","name":"更合镇","areaCode":"440608","cityCode":"4406","provinceCode":"44"},{"code":"440608400","name":"高明监狱","areaCode":"440608","cityCode":"4406","provinceCode":"44"},{"code":"440608401","name":"云勇林场","areaCode":"440608","cityCode":"4406","provinceCode":"44"},{"code":"440608402","name":"对川茶场","areaCode":"440608","cityCode":"4406","provinceCode":"44"},{"code":"440608403","name":"佛山监狱","areaCode":"440608","cityCode":"4406","provinceCode":"44"},{"code":"440703002","name":"白沙街道办事处","areaCode":"440703","cityCode":"4407","provinceCode":"44"},{"code":"440703005","name":"潮连街道办事处","areaCode":"440703","cityCode":"4407","provinceCode":"44"},{"code":"440703006","name":"环市街道办事处","areaCode":"440703","cityCode":"4407","provinceCode":"44"},{"code":"440703101","name":"棠下镇","areaCode":"440703","cityCode":"4407","provinceCode":"44"},{"code":"440703102","name":"荷塘镇","areaCode":"440703","cityCode":"4407","provinceCode":"44"},{"code":"440703103","name":"杜阮镇","areaCode":"440703","cityCode":"4407","provinceCode":"44"},{"code":"440704001","name":"江南街道办事处","areaCode":"440704","cityCode":"4407","provinceCode":"44"},{"code":"440704004","name":"外海街道办事处","areaCode":"440704","cityCode":"4407","provinceCode":"44"},{"code":"440704005","name":"礼乐街道办事处","areaCode":"440704","cityCode":"4407","provinceCode":"44"},{"code":"440705001","name":"会城街道办","areaCode":"440705","cityCode":"4407","provinceCode":"44"},{"code":"440705101","name":"大泽镇","areaCode":"440705","cityCode":"4407","provinceCode":"44"},{"code":"440705102","name":"司前镇","areaCode":"440705","cityCode":"4407","provinceCode":"44"},{"code":"440705103","name":"罗坑镇","areaCode":"440705","cityCode":"4407","provinceCode":"44"},{"code":"440705104","name":"双水镇","areaCode":"440705","cityCode":"4407","provinceCode":"44"},{"code":"440705105","name":"崖门镇","areaCode":"440705","cityCode":"4407","provinceCode":"44"},{"code":"440705106","name":"沙堆镇","areaCode":"440705","cityCode":"4407","provinceCode":"44"},{"code":"440705107","name":"古井镇","areaCode":"440705","cityCode":"4407","provinceCode":"44"},{"code":"440705108","name":"三江镇","areaCode":"440705","cityCode":"4407","provinceCode":"44"},{"code":"440705109","name":"睦洲镇","areaCode":"440705","cityCode":"4407","provinceCode":"44"},{"code":"440705110","name":"大鳌镇","areaCode":"440705","cityCode":"4407","provinceCode":"44"},{"code":"440705450","name":"圭峰管理委员会","areaCode":"440705","cityCode":"4407","provinceCode":"44"},{"code":"440705451","name":"银湖湾管理委员会","areaCode":"440705","cityCode":"4407","provinceCode":"44"},{"code":"440705470","name":"新会经济开发区管理委员会","areaCode":"440705","cityCode":"4407","provinceCode":"44"},{"code":"440781001","name":"台城街道办事处","areaCode":"440781","cityCode":"4407","provinceCode":"44"},{"code":"440781100","name":"大江镇","areaCode":"440781","cityCode":"4407","provinceCode":"44"},{"code":"440781101","name":"水步镇","areaCode":"440781","cityCode":"4407","provinceCode":"44"},{"code":"440781102","name":"四九镇","areaCode":"440781","cityCode":"4407","provinceCode":"44"},{"code":"440781103","name":"白沙镇","areaCode":"440781","cityCode":"4407","provinceCode":"44"},{"code":"440781104","name":"三合镇","areaCode":"440781","cityCode":"4407","provinceCode":"44"},{"code":"440781105","name":"冲蒌镇","areaCode":"440781","cityCode":"4407","provinceCode":"44"},{"code":"440781106","name":"斗山镇","areaCode":"440781","cityCode":"4407","provinceCode":"44"},{"code":"440781107","name":"都斛镇","areaCode":"440781","cityCode":"4407","provinceCode":"44"},{"code":"440781108","name":"赤溪镇","areaCode":"440781","cityCode":"4407","provinceCode":"44"},{"code":"440781109","name":"端芬镇","areaCode":"440781","cityCode":"4407","provinceCode":"44"},{"code":"440781110","name":"广海镇","areaCode":"440781","cityCode":"4407","provinceCode":"44"},{"code":"440781111","name":"海宴镇","areaCode":"440781","cityCode":"4407","provinceCode":"44"},{"code":"440781112","name":"汶村镇","areaCode":"440781","cityCode":"4407","provinceCode":"44"},{"code":"440781113","name":"深井镇","areaCode":"440781","cityCode":"4407","provinceCode":"44"},{"code":"440781114","name":"北陡镇","areaCode":"440781","cityCode":"4407","provinceCode":"44"},{"code":"440781115","name":"川岛镇","areaCode":"440781","cityCode":"4407","provinceCode":"44"},{"code":"440783001","name":"三埠街道","areaCode":"440783","cityCode":"4407","provinceCode":"44"},{"code":"440783002","name":"长沙街道","areaCode":"440783","cityCode":"4407","provinceCode":"44"},{"code":"440783103","name":"沙塘镇","areaCode":"440783","cityCode":"4407","provinceCode":"44"},{"code":"440783104","name":"苍城镇","areaCode":"440783","cityCode":"4407","provinceCode":"44"},{"code":"440783105","name":"龙胜镇","areaCode":"440783","cityCode":"4407","provinceCode":"44"},{"code":"440783106","name":"大沙镇","areaCode":"440783","cityCode":"4407","provinceCode":"44"},{"code":"440783107","name":"马冈镇","areaCode":"440783","cityCode":"4407","provinceCode":"44"},{"code":"440783108","name":"塘口镇","areaCode":"440783","cityCode":"4407","provinceCode":"44"},{"code":"440783109","name":"赤坎镇","areaCode":"440783","cityCode":"4407","provinceCode":"44"},{"code":"440783110","name":"百合镇","areaCode":"440783","cityCode":"4407","provinceCode":"44"},{"code":"440783111","name":"蚬冈镇","areaCode":"440783","cityCode":"4407","provinceCode":"44"},{"code":"440783112","name":"金鸡镇","areaCode":"440783","cityCode":"4407","provinceCode":"44"},{"code":"440783115","name":"月山镇","areaCode":"440783","cityCode":"4407","provinceCode":"44"},{"code":"440783116","name":"赤水镇","areaCode":"440783","cityCode":"4407","provinceCode":"44"},{"code":"440783117","name":"水口镇","areaCode":"440783","cityCode":"4407","provinceCode":"44"},{"code":"440783400","name":"翠山湖新区","areaCode":"440783","cityCode":"4407","provinceCode":"44"},{"code":"440784001","name":"沙坪街道","areaCode":"440784","cityCode":"4407","provinceCode":"44"},{"code":"440784101","name":"龙口镇","areaCode":"440784","cityCode":"4407","provinceCode":"44"},{"code":"440784102","name":"雅瑶镇","areaCode":"440784","cityCode":"4407","provinceCode":"44"},{"code":"440784103","name":"古劳镇","areaCode":"440784","cityCode":"4407","provinceCode":"44"},{"code":"440784104","name":"桃源镇","areaCode":"440784","cityCode":"4407","provinceCode":"44"},{"code":"440784105","name":"鹤城镇","areaCode":"440784","cityCode":"4407","provinceCode":"44"},{"code":"440784106","name":"共和镇","areaCode":"440784","cityCode":"4407","provinceCode":"44"},{"code":"440784107","name":"址山镇","areaCode":"440784","cityCode":"4407","provinceCode":"44"},{"code":"440784108","name":"宅梧镇","areaCode":"440784","cityCode":"4407","provinceCode":"44"},{"code":"440784112","name":"双合镇","areaCode":"440784","cityCode":"4407","provinceCode":"44"},{"code":"440784401","name":"广东省江门监狱","areaCode":"440784","cityCode":"4407","provinceCode":"44"},{"code":"440784402","name":"江门市四堡林场","areaCode":"440784","cityCode":"4407","provinceCode":"44"},{"code":"440785001","name":"恩城街道办事处","areaCode":"440785","cityCode":"4407","provinceCode":"44"},{"code":"440785100","name":"横陂镇","areaCode":"440785","cityCode":"4407","provinceCode":"44"},{"code":"440785101","name":"圣堂镇","areaCode":"440785","cityCode":"4407","provinceCode":"44"},{"code":"440785102","name":"良西镇","areaCode":"440785","cityCode":"4407","provinceCode":"44"},{"code":"440785103","name":"沙湖镇","areaCode":"440785","cityCode":"4407","provinceCode":"44"},{"code":"440785104","name":"牛江镇","areaCode":"440785","cityCode":"4407","provinceCode":"44"},{"code":"440785105","name":"君堂镇","areaCode":"440785","cityCode":"4407","provinceCode":"44"},{"code":"440785106","name":"大田镇","areaCode":"440785","cityCode":"4407","provinceCode":"44"},{"code":"440785107","name":"那吉镇","areaCode":"440785","cityCode":"4407","provinceCode":"44"},{"code":"440785108","name":"大槐镇","areaCode":"440785","cityCode":"4407","provinceCode":"44"},{"code":"440785109","name":"东成镇","areaCode":"440785","cityCode":"4407","provinceCode":"44"},{"code":"440785400","name":"恩平园区管委会","areaCode":"440785","cityCode":"4407","provinceCode":"44"},{"code":"440802001","name":"中华街道","areaCode":"440802","cityCode":"4408","provinceCode":"44"},{"code":"440802002","name":"寸金街道","areaCode":"440802","cityCode":"4408","provinceCode":"44"},{"code":"440802003","name":"民主街道","areaCode":"440802","cityCode":"4408","provinceCode":"44"},{"code":"440802004","name":"中山街道","areaCode":"440802","cityCode":"4408","provinceCode":"44"},{"code":"440802005","name":"沙湾街道","areaCode":"440802","cityCode":"4408","provinceCode":"44"},{"code":"440802006","name":"调顺街道","areaCode":"440802","cityCode":"4408","provinceCode":"44"},{"code":"440802007","name":"南桥街道","areaCode":"440802","cityCode":"4408","provinceCode":"44"},{"code":"440802008","name":"北桥街道","areaCode":"440802","cityCode":"4408","provinceCode":"44"},{"code":"440803001","name":"解放街道办事处","areaCode":"440803","cityCode":"4408","provinceCode":"44"},{"code":"440803002","name":"爱国街道办事处","areaCode":"440803","cityCode":"4408","provinceCode":"44"},{"code":"440803003","name":"工农街道办事处","areaCode":"440803","cityCode":"4408","provinceCode":"44"},{"code":"440803004","name":"友谊街道办事处","areaCode":"440803","cityCode":"4408","provinceCode":"44"},{"code":"440803005","name":"新兴街道办事处","areaCode":"440803","cityCode":"4408","provinceCode":"44"},{"code":"440803006","name":"海滨街道办事处","areaCode":"440803","cityCode":"4408","provinceCode":"44"},{"code":"440803009","name":"建设街道办事处","areaCode":"440803","cityCode":"4408","provinceCode":"44"},{"code":"440803010","name":"东新街道办事处","areaCode":"440803","cityCode":"4408","provinceCode":"44"},{"code":"440803011","name":"新园街道办事处","areaCode":"440803","cityCode":"4408","provinceCode":"44"},{"code":"440803012","name":"海头街道办事处","areaCode":"440803","cityCode":"4408","provinceCode":"44"},{"code":"440803070","name":"泉庄街道办事处","areaCode":"440803","cityCode":"4408","provinceCode":"44"},{"code":"440803071","name":"乐华街道办事处","areaCode":"440803","cityCode":"4408","provinceCode":"44"},{"code":"440804001","name":"南调街道办事处","areaCode":"440804","cityCode":"4408","provinceCode":"44"},{"code":"440804002","name":"麻斜街道办事处","areaCode":"440804","cityCode":"4408","provinceCode":"44"},{"code":"440804100","name":"南三镇","areaCode":"440804","cityCode":"4408","provinceCode":"44"},{"code":"440804101","name":"坡头镇","areaCode":"440804","cityCode":"4408","provinceCode":"44"},{"code":"440804102","name":"乾塘镇","areaCode":"440804","cityCode":"4408","provinceCode":"44"},{"code":"440804103","name":"龙头镇","areaCode":"440804","cityCode":"4408","provinceCode":"44"},{"code":"440804104","name":"官渡镇","areaCode":"440804","cityCode":"4408","provinceCode":"44"},{"code":"440804401","name":"湛江市坡头区官渡工业园","areaCode":"440804","cityCode":"4408","provinceCode":"44"},{"code":"440811100","name":"麻章镇","areaCode":"440811","cityCode":"4408","provinceCode":"44"},{"code":"440811101","name":"太平镇","areaCode":"440811","cityCode":"4408","provinceCode":"44"},{"code":"440811102","name":"湖光镇","areaCode":"440811","cityCode":"4408","provinceCode":"44"},{"code":"440811170","name":"东山镇","areaCode":"440811","cityCode":"4408","provinceCode":"44"},{"code":"440811171","name":"东简镇","areaCode":"440811","cityCode":"4408","provinceCode":"44"},{"code":"440811172","name":"民安镇","areaCode":"440811","cityCode":"4408","provinceCode":"44"},{"code":"440811173","name":"硇洲镇","areaCode":"440811","cityCode":"4408","provinceCode":"44"},{"code":"440811450","name":"湖光农场","areaCode":"440811","cityCode":"4408","provinceCode":"44"},{"code":"440823100","name":"遂城镇","areaCode":"440823","cityCode":"4408","provinceCode":"44"},{"code":"440823101","name":"黄略镇","areaCode":"440823","cityCode":"4408","provinceCode":"44"},{"code":"440823102","name":"洋青镇","areaCode":"440823","cityCode":"4408","provinceCode":"44"},{"code":"440823103","name":"界炮镇","areaCode":"440823","cityCode":"4408","provinceCode":"44"},{"code":"440823104","name":"乐民镇","areaCode":"440823","cityCode":"4408","provinceCode":"44"},{"code":"440823105","name":"江洪镇","areaCode":"440823","cityCode":"4408","provinceCode":"44"},{"code":"440823106","name":"杨柑镇","areaCode":"440823","cityCode":"4408","provinceCode":"44"},{"code":"440823107","name":"城月镇","areaCode":"440823","cityCode":"4408","provinceCode":"44"},{"code":"440823108","name":"乌塘镇","areaCode":"440823","cityCode":"4408","provinceCode":"44"},{"code":"440823109","name":"建新镇","areaCode":"440823","cityCode":"4408","provinceCode":"44"},{"code":"440823110","name":"岭北镇","areaCode":"440823","cityCode":"4408","provinceCode":"44"},{"code":"440823111","name":"北坡镇","areaCode":"440823","cityCode":"4408","provinceCode":"44"},{"code":"440823112","name":"港门镇","areaCode":"440823","cityCode":"4408","provinceCode":"44"},{"code":"440823113","name":"草潭镇","areaCode":"440823","cityCode":"4408","provinceCode":"44"},{"code":"440823114","name":"河头镇","areaCode":"440823","cityCode":"4408","provinceCode":"44"},{"code":"440823450","name":"广前公司","areaCode":"440823","cityCode":"4408","provinceCode":"44"},{"code":"440825001","name":"徐城街道办","areaCode":"440825","cityCode":"4408","provinceCode":"44"},{"code":"440825102","name":"迈陈镇","areaCode":"440825","cityCode":"4408","provinceCode":"44"},{"code":"440825103","name":"海安镇","areaCode":"440825","cityCode":"4408","provinceCode":"44"},{"code":"440825104","name":"曲界镇","areaCode":"440825","cityCode":"4408","provinceCode":"44"},{"code":"440825105","name":"前山镇","areaCode":"440825","cityCode":"4408","provinceCode":"44"},{"code":"440825106","name":"西连镇","areaCode":"440825","cityCode":"4408","provinceCode":"44"},{"code":"440825107","name":"下桥镇","areaCode":"440825","cityCode":"4408","provinceCode":"44"},{"code":"440825108","name":"龙塘镇","areaCode":"440825","cityCode":"4408","provinceCode":"44"},{"code":"440825109","name":"下洋镇","areaCode":"440825","cityCode":"4408","provinceCode":"44"},{"code":"440825110","name":"锦和镇","areaCode":"440825","cityCode":"4408","provinceCode":"44"},{"code":"440825111","name":"和安镇","areaCode":"440825","cityCode":"4408","provinceCode":"44"},{"code":"440825112","name":"新寮镇","areaCode":"440825","cityCode":"4408","provinceCode":"44"},{"code":"440825113","name":"南山镇","areaCode":"440825","cityCode":"4408","provinceCode":"44"},{"code":"440825201","name":"城北乡","areaCode":"440825","cityCode":"4408","provinceCode":"44"},{"code":"440825204","name":"角尾乡","areaCode":"440825","cityCode":"4408","provinceCode":"44"},{"code":"440825451","name":"南华农场","areaCode":"440825","cityCode":"4408","provinceCode":"44"},{"code":"440825452","name":"五一农场","areaCode":"440825","cityCode":"4408","provinceCode":"44"},{"code":"440825453","name":"华海公司","areaCode":"440825","cityCode":"4408","provinceCode":"44"},{"code":"440825454","name":"友好农场","areaCode":"440825","cityCode":"4408","provinceCode":"44"},{"code":"440825455","name":"红星农场","areaCode":"440825","cityCode":"4408","provinceCode":"44"},{"code":"440881001","name":"罗州街道办","areaCode":"440881","cityCode":"4408","provinceCode":"44"},{"code":"440881002","name":"城南街道办","areaCode":"440881","cityCode":"4408","provinceCode":"44"},{"code":"440881003","name":"城北街道办","areaCode":"440881","cityCode":"4408","provinceCode":"44"},{"code":"440881101","name":"石城镇","areaCode":"440881","cityCode":"4408","provinceCode":"44"},{"code":"440881102","name":"新民镇","areaCode":"440881","cityCode":"4408","provinceCode":"44"},{"code":"440881103","name":"吉水镇","areaCode":"440881","cityCode":"4408","provinceCode":"44"},{"code":"440881104","name":"河唇镇","areaCode":"440881","cityCode":"4408","provinceCode":"44"},{"code":"440881105","name":"石角镇","areaCode":"440881","cityCode":"4408","provinceCode":"44"},{"code":"440881106","name":"良垌镇","areaCode":"440881","cityCode":"4408","provinceCode":"44"},{"code":"440881107","name":"横山镇","areaCode":"440881","cityCode":"4408","provinceCode":"44"},{"code":"440881108","name":"安铺镇","areaCode":"440881","cityCode":"4408","provinceCode":"44"},{"code":"440881109","name":"营仔镇","areaCode":"440881","cityCode":"4408","provinceCode":"44"},{"code":"440881110","name":"青平镇","areaCode":"440881","cityCode":"4408","provinceCode":"44"},{"code":"440881111","name":"车板镇","areaCode":"440881","cityCode":"4408","provinceCode":"44"},{"code":"440881112","name":"高桥镇","areaCode":"440881","cityCode":"4408","provinceCode":"44"},{"code":"440881113","name":"石岭镇","areaCode":"440881","cityCode":"4408","provinceCode":"44"},{"code":"440881114","name":"雅塘镇","areaCode":"440881","cityCode":"4408","provinceCode":"44"},{"code":"440881115","name":"石颈镇","areaCode":"440881","cityCode":"4408","provinceCode":"44"},{"code":"440881116","name":"长山镇","areaCode":"440881","cityCode":"4408","provinceCode":"44"},{"code":"440881117","name":"塘蓬镇","areaCode":"440881","cityCode":"4408","provinceCode":"44"},{"code":"440881118","name":"和寮镇","areaCode":"440881","cityCode":"4408","provinceCode":"44"},{"code":"440881401","name":"九洲江开发区","areaCode":"440881","cityCode":"4408","provinceCode":"44"},{"code":"440882001","name":"雷城街道办","areaCode":"440882","cityCode":"4408","provinceCode":"44"},{"code":"440882002","name":"西湖街道办","areaCode":"440882","cityCode":"4408","provinceCode":"44"},{"code":"440882003","name":"新城街道办","areaCode":"440882","cityCode":"4408","provinceCode":"44"},{"code":"440882100","name":"白沙镇","areaCode":"440882","cityCode":"4408","provinceCode":"44"},{"code":"440882101","name":"沈塘镇","areaCode":"440882","cityCode":"4408","provinceCode":"44"},{"code":"440882102","name":"客路镇","areaCode":"440882","cityCode":"4408","provinceCode":"44"},{"code":"440882103","name":"杨家镇","areaCode":"440882","cityCode":"4408","provinceCode":"44"},{"code":"440882104","name":"唐家镇","areaCode":"440882","cityCode":"4408","provinceCode":"44"},{"code":"440882105","name":"企水镇","areaCode":"440882","cityCode":"4408","provinceCode":"44"},{"code":"440882106","name":"纪家镇","areaCode":"440882","cityCode":"4408","provinceCode":"44"},{"code":"440882107","name":"松竹镇","areaCode":"440882","cityCode":"4408","provinceCode":"44"},{"code":"440882108","name":"南兴镇","areaCode":"440882","cityCode":"4408","provinceCode":"44"},{"code":"440882109","name":"雷高镇","areaCode":"440882","cityCode":"4408","provinceCode":"44"},{"code":"440882110","name":"东里镇","areaCode":"440882","cityCode":"4408","provinceCode":"44"},{"code":"440882111","name":"调风镇","areaCode":"440882","cityCode":"4408","provinceCode":"44"},{"code":"440882112","name":"龙门镇","areaCode":"440882","cityCode":"4408","provinceCode":"44"},{"code":"440882113","name":"英利镇","areaCode":"440882","cityCode":"4408","provinceCode":"44"},{"code":"440882114","name":"北和镇","areaCode":"440882","cityCode":"4408","provinceCode":"44"},{"code":"440882115","name":"乌石镇","areaCode":"440882","cityCode":"4408","provinceCode":"44"},{"code":"440882116","name":"覃斗镇","areaCode":"440882","cityCode":"4408","provinceCode":"44"},{"code":"440882117","name":"附城镇","areaCode":"440882","cityCode":"4408","provinceCode":"44"},{"code":"440882450","name":"湛江奋勇高新技术产业开发区管理委员会","areaCode":"440882","cityCode":"4408","provinceCode":"44"},{"code":"440882451","name":"广东省丰收糖业发展有限公司","areaCode":"440882","cityCode":"4408","provinceCode":"44"},{"code":"440882452","name":"广东省国营火炬农场","areaCode":"440882","cityCode":"4408","provinceCode":"44"},{"code":"440882453","name":"广东省国营幸福农场","areaCode":"440882","cityCode":"4408","provinceCode":"44"},{"code":"440882454","name":"湛江农垦东方红农场","areaCode":"440882","cityCode":"4408","provinceCode":"44"},{"code":"440882455","name":"湛江农垦金星农场","areaCode":"440882","cityCode":"4408","provinceCode":"44"},{"code":"440883001","name":"梅录街道","areaCode":"440883","cityCode":"4408","provinceCode":"44"},{"code":"440883002","name":"塘尾街道","areaCode":"440883","cityCode":"4408","provinceCode":"44"},{"code":"440883003","name":"大山江街道","areaCode":"440883","cityCode":"4408","provinceCode":"44"},{"code":"440883004","name":"博铺街道","areaCode":"440883","cityCode":"4408","provinceCode":"44"},{"code":"440883005","name":"海滨街道","areaCode":"440883","cityCode":"4408","provinceCode":"44"},{"code":"440883100","name":"浅水镇","areaCode":"440883","cityCode":"4408","provinceCode":"44"},{"code":"440883101","name":"长岐镇","areaCode":"440883","cityCode":"4408","provinceCode":"44"},{"code":"440883102","name":"覃巴镇","areaCode":"440883","cityCode":"4408","provinceCode":"44"},{"code":"440883103","name":"王村港镇","areaCode":"440883","cityCode":"4408","provinceCode":"44"},{"code":"440883104","name":"振文镇","areaCode":"440883","cityCode":"4408","provinceCode":"44"},{"code":"440883105","name":"樟铺镇","areaCode":"440883","cityCode":"4408","provinceCode":"44"},{"code":"440883106","name":"吴阳镇","areaCode":"440883","cityCode":"4408","provinceCode":"44"},{"code":"440883107","name":"塘缀镇","areaCode":"440883","cityCode":"4408","provinceCode":"44"},{"code":"440883109","name":"黄坡镇","areaCode":"440883","cityCode":"4408","provinceCode":"44"},{"code":"440883111","name":"兰石镇","areaCode":"440883","cityCode":"4408","provinceCode":"44"},{"code":"440902001","name":"红旗街道办","areaCode":"440902","cityCode":"4409","provinceCode":"44"},{"code":"440902002","name":"河西街道办","areaCode":"440902","cityCode":"4409","provinceCode":"44"},{"code":"440902003","name":"河东街道办","areaCode":"440902","cityCode":"4409","provinceCode":"44"},{"code":"440902004","name":"露天矿街道办","areaCode":"440902","cityCode":"4409","provinceCode":"44"},{"code":"440902005","name":"新华街道办","areaCode":"440902","cityCode":"4409","provinceCode":"44"},{"code":"440902006","name":"官渡街道办","areaCode":"440902","cityCode":"4409","provinceCode":"44"},{"code":"440902007","name":"站前街道办","areaCode":"440902","cityCode":"4409","provinceCode":"44"},{"code":"440902100","name":"金塘镇","areaCode":"440902","cityCode":"4409","provinceCode":"44"},{"code":"440902101","name":"公馆镇","areaCode":"440902","cityCode":"4409","provinceCode":"44"},{"code":"440902102","name":"新坡镇","areaCode":"440902","cityCode":"4409","provinceCode":"44"},{"code":"440902103","name":"镇盛镇","areaCode":"440902","cityCode":"4409","provinceCode":"44"},{"code":"440902104","name":"鳌头镇","areaCode":"440902","cityCode":"4409","provinceCode":"44"},{"code":"440902105","name":"袂花镇","areaCode":"440902","cityCode":"4409","provinceCode":"44"},{"code":"440902106","name":"高山镇","areaCode":"440902","cityCode":"4409","provinceCode":"44"},{"code":"440902107","name":"山阁镇","areaCode":"440902","cityCode":"4409","provinceCode":"44"},{"code":"440902400","name":"茂南开发区","areaCode":"440902","cityCode":"4409","provinceCode":"44"},{"code":"440904001","name":"南海街道","areaCode":"440904","cityCode":"4409","provinceCode":"44"},{"code":"440904002","name":"高地街道","areaCode":"440904","cityCode":"4409","provinceCode":"44"},{"code":"440904100","name":"马踏镇","areaCode":"440904","cityCode":"4409","provinceCode":"44"},{"code":"440904101","name":"岭门镇","areaCode":"440904","cityCode":"4409","provinceCode":"44"},{"code":"440904102","name":"坡心镇","areaCode":"440904","cityCode":"4409","provinceCode":"44"},{"code":"440904103","name":"七迳镇","areaCode":"440904","cityCode":"4409","provinceCode":"44"},{"code":"440904104","name":"树仔镇","areaCode":"440904","cityCode":"4409","provinceCode":"44"},{"code":"440904105","name":"沙院镇","areaCode":"440904","cityCode":"4409","provinceCode":"44"},{"code":"440904106","name":"麻岗镇","areaCode":"440904","cityCode":"4409","provinceCode":"44"},{"code":"440904107","name":"旦场镇","areaCode":"440904","cityCode":"4409","provinceCode":"44"},{"code":"440904108","name":"羊角镇","areaCode":"440904","cityCode":"4409","provinceCode":"44"},{"code":"440904109","name":"小良镇","areaCode":"440904","cityCode":"4409","provinceCode":"44"},{"code":"440904115","name":"霞洞镇","areaCode":"440904","cityCode":"4409","provinceCode":"44"},{"code":"440904116","name":"观珠镇","areaCode":"440904","cityCode":"4409","provinceCode":"44"},{"code":"440904117","name":"沙琅镇","areaCode":"440904","cityCode":"4409","provinceCode":"44"},{"code":"440904118","name":"黄岭镇","areaCode":"440904","cityCode":"4409","provinceCode":"44"},{"code":"440904119","name":"望夫镇","areaCode":"440904","cityCode":"4409","provinceCode":"44"},{"code":"440904120","name":"罗坑镇","areaCode":"440904","cityCode":"4409","provinceCode":"44"},{"code":"440904121","name":"那霍镇","areaCode":"440904","cityCode":"4409","provinceCode":"44"},{"code":"440904123","name":"水东镇","areaCode":"440904","cityCode":"4409","provinceCode":"44"},{"code":"440904125","name":"博贺镇","areaCode":"440904","cityCode":"4409","provinceCode":"44"},{"code":"440904126","name":"林头镇","areaCode":"440904","cityCode":"4409","provinceCode":"44"},{"code":"440904127","name":"电城镇","areaCode":"440904","cityCode":"4409","provinceCode":"44"},{"code":"440904128","name":"陈村镇","areaCode":"440904","cityCode":"4409","provinceCode":"44"},{"code":"440904451","name":"曙光农场","areaCode":"440904","cityCode":"4409","provinceCode":"44"},{"code":"440904452","name":"水丰农场","areaCode":"440904","cityCode":"4409","provinceCode":"44"},{"code":"440904453","name":"新华农场","areaCode":"440904","cityCode":"4409","provinceCode":"44"},{"code":"440904454","name":"电白盐场","areaCode":"440904","cityCode":"4409","provinceCode":"44"},{"code":"440981002","name":"石仔岭街道","areaCode":"440981","cityCode":"4409","provinceCode":"44"},{"code":"440981003","name":"山美街道","areaCode":"440981","cityCode":"4409","provinceCode":"44"},{"code":"440981006","name":"金山街道","areaCode":"440981","cityCode":"4409","provinceCode":"44"},{"code":"440981007","name":"潘州街道","areaCode":"440981","cityCode":"4409","provinceCode":"44"},{"code":"440981008","name":"宝光街道","areaCode":"440981","cityCode":"4409","provinceCode":"44"},{"code":"440981100","name":"谢鸡镇","areaCode":"440981","cityCode":"4409","provinceCode":"44"},{"code":"440981101","name":"新垌镇","areaCode":"440981","cityCode":"4409","provinceCode":"44"},{"code":"440981102","name":"云潭镇","areaCode":"440981","cityCode":"4409","provinceCode":"44"},{"code":"440981103","name":"分界镇","areaCode":"440981","cityCode":"4409","provinceCode":"44"},{"code":"440981104","name":"根子镇","areaCode":"440981","cityCode":"4409","provinceCode":"44"},{"code":"440981105","name":"泗水镇","areaCode":"440981","cityCode":"4409","provinceCode":"44"},{"code":"440981107","name":"镇江镇","areaCode":"440981","cityCode":"4409","provinceCode":"44"},{"code":"440981109","name":"沙田镇","areaCode":"440981","cityCode":"4409","provinceCode":"44"},{"code":"440981110","name":"南塘镇","areaCode":"440981","cityCode":"4409","provinceCode":"44"},{"code":"440981111","name":"荷花镇","areaCode":"440981","cityCode":"4409","provinceCode":"44"},{"code":"440981112","name":"石板镇","areaCode":"440981","cityCode":"4409","provinceCode":"44"},{"code":"440981115","name":"大井镇","areaCode":"440981","cityCode":"4409","provinceCode":"44"},{"code":"440981116","name":"潭头镇","areaCode":"440981","cityCode":"4409","provinceCode":"44"},{"code":"440981119","name":"大坡镇","areaCode":"440981","cityCode":"4409","provinceCode":"44"},{"code":"440981120","name":"平山镇","areaCode":"440981","cityCode":"4409","provinceCode":"44"},{"code":"440981121","name":"深镇镇","areaCode":"440981","cityCode":"4409","provinceCode":"44"},{"code":"440981122","name":"马贵镇","areaCode":"440981","cityCode":"4409","provinceCode":"44"},{"code":"440981123","name":"古丁镇","areaCode":"440981","cityCode":"4409","provinceCode":"44"},{"code":"440981124","name":"曹江镇","areaCode":"440981","cityCode":"4409","provinceCode":"44"},{"code":"440981126","name":"荷塘镇","areaCode":"440981","cityCode":"4409","provinceCode":"44"},{"code":"440981127","name":"石鼓镇","areaCode":"440981","cityCode":"4409","provinceCode":"44"},{"code":"440981128","name":"东岸镇","areaCode":"440981","cityCode":"4409","provinceCode":"44"},{"code":"440981129","name":"长坡镇","areaCode":"440981","cityCode":"4409","provinceCode":"44"},{"code":"440981450","name":"团结农场","areaCode":"440981","cityCode":"4409","provinceCode":"44"},{"code":"440981451","name":"胜利农场","areaCode":"440981","cityCode":"4409","provinceCode":"44"},{"code":"440981452","name":"火星农场","areaCode":"440981","cityCode":"4409","provinceCode":"44"},{"code":"440982001","name":"河西街道","areaCode":"440982","cityCode":"4409","provinceCode":"44"},{"code":"440982002","name":"东山街道","areaCode":"440982","cityCode":"4409","provinceCode":"44"},{"code":"440982003","name":"下郭街道","areaCode":"440982","cityCode":"4409","provinceCode":"44"},{"code":"440982004","name":"南盛街道","areaCode":"440982","cityCode":"4409","provinceCode":"44"},{"code":"440982005","name":"石湾街道","areaCode":"440982","cityCode":"4409","provinceCode":"44"},{"code":"440982100","name":"长岐镇","areaCode":"440982","cityCode":"4409","provinceCode":"44"},{"code":"440982101","name":"同庆镇","areaCode":"440982","cityCode":"4409","provinceCode":"44"},{"code":"440982102","name":"杨梅镇","areaCode":"440982","cityCode":"4409","provinceCode":"44"},{"code":"440982103","name":"良光镇","areaCode":"440982","cityCode":"4409","provinceCode":"44"},{"code":"440982104","name":"笪桥镇","areaCode":"440982","cityCode":"4409","provinceCode":"44"},{"code":"440982106","name":"丽岗镇","areaCode":"440982","cityCode":"4409","provinceCode":"44"},{"code":"440982107","name":"新安镇","areaCode":"440982","cityCode":"4409","provinceCode":"44"},{"code":"440982108","name":"官桥镇","areaCode":"440982","cityCode":"4409","provinceCode":"44"},{"code":"440982110","name":"林尘镇","areaCode":"440982","cityCode":"4409","provinceCode":"44"},{"code":"440982112","name":"合江镇","areaCode":"440982","cityCode":"4409","provinceCode":"44"},{"code":"440982113","name":"那务镇","areaCode":"440982","cityCode":"4409","provinceCode":"44"},{"code":"440982114","name":"播扬镇","areaCode":"440982","cityCode":"4409","provinceCode":"44"},{"code":"440982115","name":"宝圩镇","areaCode":"440982","cityCode":"4409","provinceCode":"44"},{"code":"440982116","name":"平定镇","areaCode":"440982","cityCode":"4409","provinceCode":"44"},{"code":"440982117","name":"文楼镇","areaCode":"440982","cityCode":"4409","provinceCode":"44"},{"code":"440982118","name":"江湖镇","areaCode":"440982","cityCode":"4409","provinceCode":"44"},{"code":"440982120","name":"中垌镇","areaCode":"440982","cityCode":"4409","provinceCode":"44"},{"code":"440982400","name":"鉴江开发区","areaCode":"440982","cityCode":"4409","provinceCode":"44"},{"code":"440982401","name":"新时代农场","areaCode":"440982","cityCode":"4409","provinceCode":"44"},{"code":"440982402","name":"新华农场","areaCode":"440982","cityCode":"4409","provinceCode":"44"},{"code":"440982403","name":"和平农场","areaCode":"440982","cityCode":"4409","provinceCode":"44"},{"code":"440982404","name":"红阳农场","areaCode":"440982","cityCode":"4409","provinceCode":"44"},{"code":"440982405","name":"红峰农场","areaCode":"440982","cityCode":"4409","provinceCode":"44"},{"code":"440982406","name":"建设农场","areaCode":"440982","cityCode":"4409","provinceCode":"44"},{"code":"440982407","name":"石滩农场","areaCode":"440982","cityCode":"4409","provinceCode":"44"},{"code":"440983001","name":"东镇街道办","areaCode":"440983","cityCode":"4409","provinceCode":"44"},{"code":"440983101","name":"镇隆镇","areaCode":"440983","cityCode":"4409","provinceCode":"44"},{"code":"440983102","name":"水口镇","areaCode":"440983","cityCode":"4409","provinceCode":"44"},{"code":"440983105","name":"丁堡镇","areaCode":"440983","cityCode":"4409","provinceCode":"44"},{"code":"440983106","name":"池洞镇","areaCode":"440983","cityCode":"4409","provinceCode":"44"},{"code":"440983112","name":"贵子镇","areaCode":"440983","cityCode":"4409","provinceCode":"44"},{"code":"440983113","name":"怀乡镇","areaCode":"440983","cityCode":"4409","provinceCode":"44"},{"code":"440983114","name":"茶山镇","areaCode":"440983","cityCode":"4409","provinceCode":"44"},{"code":"440983115","name":"洪冠镇","areaCode":"440983","cityCode":"4409","provinceCode":"44"},{"code":"440983116","name":"白石镇","areaCode":"440983","cityCode":"4409","provinceCode":"44"},{"code":"440983117","name":"大成镇","areaCode":"440983","cityCode":"4409","provinceCode":"44"},{"code":"440983118","name":"钱排镇","areaCode":"440983","cityCode":"4409","provinceCode":"44"},{"code":"440983119","name":"合水镇","areaCode":"440983","cityCode":"4409","provinceCode":"44"},{"code":"440983120","name":"新宝镇","areaCode":"440983","cityCode":"4409","provinceCode":"44"},{"code":"440983121","name":"平塘镇","areaCode":"440983","cityCode":"4409","provinceCode":"44"},{"code":"440983122","name":"思贺镇","areaCode":"440983","cityCode":"4409","provinceCode":"44"},{"code":"440983123","name":"金垌镇","areaCode":"440983","cityCode":"4409","provinceCode":"44"},{"code":"440983124","name":"朱砂镇","areaCode":"440983","cityCode":"4409","provinceCode":"44"},{"code":"440983125","name":"北界镇","areaCode":"440983","cityCode":"4409","provinceCode":"44"},{"code":"440983400","name":"信宜市国营红旗农场","areaCode":"440983","cityCode":"4409","provinceCode":"44"},{"code":"441202001","name":"端州区城东街道","areaCode":"441202","cityCode":"4412","provinceCode":"44"},{"code":"441202003","name":"端州区城西街道","areaCode":"441202","cityCode":"4412","provinceCode":"44"},{"code":"441202005","name":"端州区黄岗街道","areaCode":"441202","cityCode":"4412","provinceCode":"44"},{"code":"441202006","name":"端州区睦岗街道","areaCode":"441202","cityCode":"4412","provinceCode":"44"},{"code":"441203001","name":"坑口街道办事处","areaCode":"441203","cityCode":"4412","provinceCode":"44"},{"code":"441203002","name":"桂城街道办事处","areaCode":"441203","cityCode":"4412","provinceCode":"44"},{"code":"441203003","name":"广利街道办事处","areaCode":"441203","cityCode":"4412","provinceCode":"44"},{"code":"441203101","name":"永安镇","areaCode":"441203","cityCode":"4412","provinceCode":"44"},{"code":"441203102","name":"沙浦镇","areaCode":"441203","cityCode":"4412","provinceCode":"44"},{"code":"441203103","name":"凤凰镇","areaCode":"441203","cityCode":"4412","provinceCode":"44"},{"code":"441203104","name":"莲花镇","areaCode":"441203","cityCode":"4412","provinceCode":"44"},{"code":"441204001","name":"南岸街道办事处","areaCode":"441204","cityCode":"4412","provinceCode":"44"},{"code":"441204100","name":"河台镇","areaCode":"441204","cityCode":"4412","provinceCode":"44"},{"code":"441204101","name":"乐城镇","areaCode":"441204","cityCode":"4412","provinceCode":"44"},{"code":"441204102","name":"水南镇","areaCode":"441204","cityCode":"4412","provinceCode":"44"},{"code":"441204103","name":"禄步镇","areaCode":"441204","cityCode":"4412","provinceCode":"44"},{"code":"441204105","name":"小湘镇","areaCode":"441204","cityCode":"4412","provinceCode":"44"},{"code":"441204106","name":"大湾镇","areaCode":"441204","cityCode":"4412","provinceCode":"44"},{"code":"441204107","name":"新桥镇","areaCode":"441204","cityCode":"4412","provinceCode":"44"},{"code":"441204108","name":"白诸镇","areaCode":"441204","cityCode":"4412","provinceCode":"44"},{"code":"441204109","name":"莲塘镇","areaCode":"441204","cityCode":"4412","provinceCode":"44"},{"code":"441204110","name":"活道镇","areaCode":"441204","cityCode":"4412","provinceCode":"44"},{"code":"441204111","name":"蛟塘镇","areaCode":"441204","cityCode":"4412","provinceCode":"44"},{"code":"441204112","name":"回龙镇","areaCode":"441204","cityCode":"4412","provinceCode":"44"},{"code":"441204113","name":"白土镇","areaCode":"441204","cityCode":"4412","provinceCode":"44"},{"code":"441204114","name":"金渡镇","areaCode":"441204","cityCode":"4412","provinceCode":"44"},{"code":"441204115","name":"金利镇","areaCode":"441204","cityCode":"4412","provinceCode":"44"},{"code":"441204116","name":"蚬岗镇","areaCode":"441204","cityCode":"4412","provinceCode":"44"},{"code":"441223100","name":"排沙镇","areaCode":"441223","cityCode":"4412","provinceCode":"44"},{"code":"441223102","name":"潭布镇","areaCode":"441223","cityCode":"4412","provinceCode":"44"},{"code":"441223103","name":"江屯镇","areaCode":"441223","cityCode":"4412","provinceCode":"44"},{"code":"441223105","name":"螺岗镇","areaCode":"441223","cityCode":"4412","provinceCode":"44"},{"code":"441223106","name":"北市镇","areaCode":"441223","cityCode":"4412","provinceCode":"44"},{"code":"441223107","name":"坑口镇","areaCode":"441223","cityCode":"4412","provinceCode":"44"},{"code":"441223108","name":"赤坑镇","areaCode":"441223","cityCode":"4412","provinceCode":"44"},{"code":"441223109","name":"南街镇","areaCode":"441223","cityCode":"4412","provinceCode":"44"},{"code":"441223110","name":"宾亨镇","areaCode":"441223","cityCode":"4412","provinceCode":"44"},{"code":"441223111","name":"五和镇","areaCode":"441223","cityCode":"4412","provinceCode":"44"},{"code":"441223112","name":"横山镇","areaCode":"441223","cityCode":"4412","provinceCode":"44"},{"code":"441223113","name":"木格镇","areaCode":"441223","cityCode":"4412","provinceCode":"44"},{"code":"441223114","name":"石咀镇","areaCode":"441223","cityCode":"4412","provinceCode":"44"},{"code":"441223115","name":"古水镇","areaCode":"441223","cityCode":"4412","provinceCode":"44"},{"code":"441223116","name":"洲仔镇","areaCode":"441223","cityCode":"4412","provinceCode":"44"},{"code":"441224100","name":"怀城镇","areaCode":"441224","cityCode":"4412","provinceCode":"44"},{"code":"441224101","name":"闸岗镇","areaCode":"441224","cityCode":"4412","provinceCode":"44"},{"code":"441224102","name":"坳仔镇","areaCode":"441224","cityCode":"4412","provinceCode":"44"},{"code":"441224103","name":"汶朗镇","areaCode":"441224","cityCode":"4412","provinceCode":"44"},{"code":"441224104","name":"甘洒镇","areaCode":"441224","cityCode":"4412","provinceCode":"44"},{"code":"441224105","name":"凤岗镇","areaCode":"441224","cityCode":"4412","provinceCode":"44"},{"code":"441224106","name":"洽水镇","areaCode":"441224","cityCode":"4412","provinceCode":"44"},{"code":"441224107","name":"梁村镇","areaCode":"441224","cityCode":"4412","provinceCode":"44"},{"code":"441224108","name":"大岗镇","areaCode":"441224","cityCode":"4412","provinceCode":"44"},{"code":"441224109","name":"岗坪镇","areaCode":"441224","cityCode":"4412","provinceCode":"44"},{"code":"441224110","name":"冷坑镇","areaCode":"441224","cityCode":"4412","provinceCode":"44"},{"code":"441224111","name":"马宁镇","areaCode":"441224","cityCode":"4412","provinceCode":"44"},{"code":"441224112","name":"蓝钟镇","areaCode":"441224","cityCode":"4412","provinceCode":"44"},{"code":"441224113","name":"永固镇","areaCode":"441224","cityCode":"4412","provinceCode":"44"},{"code":"441224114","name":"诗洞镇","areaCode":"441224","cityCode":"4412","provinceCode":"44"},{"code":"441224115","name":"桥头镇","areaCode":"441224","cityCode":"4412","provinceCode":"44"},{"code":"441224116","name":"中洲镇","areaCode":"441224","cityCode":"4412","provinceCode":"44"},{"code":"441224118","name":"连麦镇","areaCode":"441224","cityCode":"4412","provinceCode":"44"},{"code":"441224200","name":"下帅壮族瑶族乡","areaCode":"441224","cityCode":"4412","provinceCode":"44"},{"code":"441224498","name":"广东省第一监狱","areaCode":"441224","cityCode":"4412","provinceCode":"44"},{"code":"441225100","name":"江口镇","areaCode":"441225","cityCode":"4412","provinceCode":"44"},{"code":"441225101","name":"江川镇","areaCode":"441225","cityCode":"4412","provinceCode":"44"},{"code":"441225102","name":"白垢镇","areaCode":"441225","cityCode":"4412","provinceCode":"44"},{"code":"441225103","name":"大洲镇","areaCode":"441225","cityCode":"4412","provinceCode":"44"},{"code":"441225104","name":"渔涝镇","areaCode":"441225","cityCode":"4412","provinceCode":"44"},{"code":"441225105","name":"河儿口镇","areaCode":"441225","cityCode":"4412","provinceCode":"44"},{"code":"441225106","name":"连都镇","areaCode":"441225","cityCode":"4412","provinceCode":"44"},{"code":"441225107","name":"杏花镇","areaCode":"441225","cityCode":"4412","provinceCode":"44"},{"code":"441225108","name":"罗董镇","areaCode":"441225","cityCode":"4412","provinceCode":"44"},{"code":"441225109","name":"长岗镇","areaCode":"441225","cityCode":"4412","provinceCode":"44"},{"code":"441225110","name":"平凤镇","areaCode":"441225","cityCode":"4412","provinceCode":"44"},{"code":"441225111","name":"南丰镇","areaCode":"441225","cityCode":"4412","provinceCode":"44"},{"code":"441225112","name":"大玉口镇","areaCode":"441225","cityCode":"4412","provinceCode":"44"},{"code":"441225113","name":"都平镇","areaCode":"441225","cityCode":"4412","provinceCode":"44"},{"code":"441225114","name":"金装镇","areaCode":"441225","cityCode":"4412","provinceCode":"44"},{"code":"441225115","name":"长安镇","areaCode":"441225","cityCode":"4412","provinceCode":"44"},{"code":"441226001","name":"德城街道办事处","areaCode":"441226","cityCode":"4412","provinceCode":"44"},{"code":"441226101","name":"新圩镇","areaCode":"441226","cityCode":"4412","provinceCode":"44"},{"code":"441226102","name":"回龙镇","areaCode":"441226","cityCode":"4412","provinceCode":"44"},{"code":"441226103","name":"官圩镇","areaCode":"441226","cityCode":"4412","provinceCode":"44"},{"code":"441226105","name":"马圩镇","areaCode":"441226","cityCode":"4412","provinceCode":"44"},{"code":"441226106","name":"高良镇","areaCode":"441226","cityCode":"4412","provinceCode":"44"},{"code":"441226107","name":"莫村镇","areaCode":"441226","cityCode":"4412","provinceCode":"44"},{"code":"441226109","name":"永丰镇","areaCode":"441226","cityCode":"4412","provinceCode":"44"},{"code":"441226110","name":"武垄镇","areaCode":"441226","cityCode":"4412","provinceCode":"44"},{"code":"441226111","name":"播植镇","areaCode":"441226","cityCode":"4412","provinceCode":"44"},{"code":"441226112","name":"凤村镇","areaCode":"441226","cityCode":"4412","provinceCode":"44"},{"code":"441226113","name":"悦城镇","areaCode":"441226","cityCode":"4412","provinceCode":"44"},{"code":"441226114","name":"九市镇","areaCode":"441226","cityCode":"4412","provinceCode":"44"},{"code":"441284001","name":"城中街道","areaCode":"441284","cityCode":"4412","provinceCode":"44"},{"code":"441284002","name":"东城街道","areaCode":"441284","cityCode":"4412","provinceCode":"44"},{"code":"441284003","name":"贞山街道","areaCode":"441284","cityCode":"4412","provinceCode":"44"},{"code":"441284100","name":"龙甫镇","areaCode":"441284","cityCode":"4412","provinceCode":"44"},{"code":"441284101","name":"地豆镇","areaCode":"441284","cityCode":"4412","provinceCode":"44"},{"code":"441284102","name":"威整镇","areaCode":"441284","cityCode":"4412","provinceCode":"44"},{"code":"441284103","name":"罗源镇","areaCode":"441284","cityCode":"4412","provinceCode":"44"},{"code":"441284104","name":"迳口镇","areaCode":"441284","cityCode":"4412","provinceCode":"44"},{"code":"441284105","name":"大沙镇","areaCode":"441284","cityCode":"4412","provinceCode":"44"},{"code":"441284107","name":"石狗镇","areaCode":"441284","cityCode":"4412","provinceCode":"44"},{"code":"441284108","name":"黄田镇","areaCode":"441284","cityCode":"4412","provinceCode":"44"},{"code":"441284110","name":"江谷镇","areaCode":"441284","cityCode":"4412","provinceCode":"44"},{"code":"441284113","name":"下茆镇","areaCode":"441284","cityCode":"4412","provinceCode":"44"},{"code":"441284400","name":"广东省济广监狱","areaCode":"441284","cityCode":"4412","provinceCode":"44"},{"code":"441284450","name":"肇庆高新技术产业开发区","areaCode":"441284","cityCode":"4412","provinceCode":"44"},{"code":"441302001","name":"桥东街道办事处","areaCode":"441302","cityCode":"4413","provinceCode":"44"},{"code":"441302002","name":"桥西街道办事处","areaCode":"441302","cityCode":"4413","provinceCode":"44"},{"code":"441302003","name":"江南街道办事处","areaCode":"441302","cityCode":"4413","provinceCode":"44"},{"code":"441302004","name":"江北街道办事处","areaCode":"441302","cityCode":"4413","provinceCode":"44"},{"code":"441302005","name":"龙丰街道办事处","areaCode":"441302","cityCode":"4413","provinceCode":"44"},{"code":"441302006","name":"河南岸街道办事处","areaCode":"441302","cityCode":"4413","provinceCode":"44"},{"code":"441302007","name":"惠环街道办事处","areaCode":"441302","cityCode":"4413","provinceCode":"44"},{"code":"441302008","name":"陈江街道办事处","areaCode":"441302","cityCode":"4413","provinceCode":"44"},{"code":"441302009","name":"水口街道办事处","areaCode":"441302","cityCode":"4413","provinceCode":"44"},{"code":"441302010","name":"小金口街道办事处","areaCode":"441302","cityCode":"4413","provinceCode":"44"},{"code":"441302100","name":"汝湖镇","areaCode":"441302","cityCode":"4413","provinceCode":"44"},{"code":"441302103","name":"三栋镇","areaCode":"441302","cityCode":"4413","provinceCode":"44"},{"code":"441302106","name":"潼湖镇","areaCode":"441302","cityCode":"4413","provinceCode":"44"},{"code":"441302107","name":"沥林镇","areaCode":"441302","cityCode":"4413","provinceCode":"44"},{"code":"441302109","name":"马安镇","areaCode":"441302","cityCode":"4413","provinceCode":"44"},{"code":"441302110","name":"横沥镇","areaCode":"441302","cityCode":"4413","provinceCode":"44"},{"code":"441302112","name":"芦洲镇","areaCode":"441302","cityCode":"4413","provinceCode":"44"},{"code":"441302114","name":"潼侨镇","areaCode":"441302","cityCode":"4413","provinceCode":"44"},{"code":"441302401","name":"东江高新科技产业园","areaCode":"441302","cityCode":"4413","provinceCode":"44"},{"code":"441302402","name":"惠南高新科技产业园","areaCode":"441302","cityCode":"4413","provinceCode":"44"},{"code":"441302450","name":"惠州市林场","areaCode":"441302","cityCode":"4413","provinceCode":"44"},{"code":"441303001","name":"淡水街道办事处","areaCode":"441303","cityCode":"4413","provinceCode":"44"},{"code":"441303002","name":"秋长街道办事处","areaCode":"441303","cityCode":"4413","provinceCode":"44"},{"code":"441303003","name":"惠阳区三和街道办事处","areaCode":"441303","cityCode":"4413","provinceCode":"44"},{"code":"441303006","name":"大亚湾澳头办事处","areaCode":"441303","cityCode":"4413","provinceCode":"44"},{"code":"441303007","name":"大亚湾霞涌办事处","areaCode":"441303","cityCode":"4413","provinceCode":"44"},{"code":"441303008","name":"大亚湾西区办事处","areaCode":"441303","cityCode":"4413","provinceCode":"44"},{"code":"441303101","name":"沙田镇","areaCode":"441303","cityCode":"4413","provinceCode":"44"},{"code":"441303103","name":"新圩镇","areaCode":"441303","cityCode":"4413","provinceCode":"44"},{"code":"441303104","name":"镇隆镇","areaCode":"441303","cityCode":"4413","provinceCode":"44"},{"code":"441303108","name":"永湖镇","areaCode":"441303","cityCode":"4413","provinceCode":"44"},{"code":"441303109","name":"良井镇","areaCode":"441303","cityCode":"4413","provinceCode":"44"},{"code":"441303110","name":"平潭镇","areaCode":"441303","cityCode":"4413","provinceCode":"44"},{"code":"441322100","name":"石坝镇","areaCode":"441322","cityCode":"4413","provinceCode":"44"},{"code":"441322102","name":"麻陂镇","areaCode":"441322","cityCode":"4413","provinceCode":"44"},{"code":"441322103","name":"观音阁镇","areaCode":"441322","cityCode":"4413","provinceCode":"44"},{"code":"441322104","name":"公庄镇","areaCode":"441322","cityCode":"4413","provinceCode":"44"},{"code":"441322105","name":"杨村镇","areaCode":"441322","cityCode":"4413","provinceCode":"44"},{"code":"441322106","name":"柏塘镇","areaCode":"441322","cityCode":"4413","provinceCode":"44"},{"code":"441322108","name":"泰美镇","areaCode":"441322","cityCode":"4413","provinceCode":"44"},{"code":"441322110","name":"罗阳镇","areaCode":"441322","cityCode":"4413","provinceCode":"44"},{"code":"441322113","name":"湖镇镇","areaCode":"441322","cityCode":"4413","provinceCode":"44"},{"code":"441322115","name":"长宁镇","areaCode":"441322","cityCode":"4413","provinceCode":"44"},{"code":"441322116","name":"福田镇","areaCode":"441322","cityCode":"4413","provinceCode":"44"},{"code":"441322117","name":"龙华镇","areaCode":"441322","cityCode":"4413","provinceCode":"44"},{"code":"441322118","name":"龙溪镇","areaCode":"441322","cityCode":"4413","provinceCode":"44"},{"code":"441322119","name":"园洲镇","areaCode":"441322","cityCode":"4413","provinceCode":"44"},{"code":"441322121","name":"石湾镇","areaCode":"441322","cityCode":"4413","provinceCode":"44"},{"code":"441322122","name":"杨侨镇","areaCode":"441322","cityCode":"4413","provinceCode":"44"},{"code":"441322123","name":"横河镇","areaCode":"441322","cityCode":"4413","provinceCode":"44"},{"code":"441322570","name":"罗浮山管委会","areaCode":"441322","cityCode":"4413","provinceCode":"44"},{"code":"441323001","name":"平山街道办事处","areaCode":"441323","cityCode":"4413","provinceCode":"44"},{"code":"441323101","name":"大岭镇","areaCode":"441323","cityCode":"4413","provinceCode":"44"},{"code":"441323102","name":"白花镇","areaCode":"441323","cityCode":"4413","provinceCode":"44"},{"code":"441323103","name":"梁化镇","areaCode":"441323","cityCode":"4413","provinceCode":"44"},{"code":"441323104","name":"稔山镇","areaCode":"441323","cityCode":"4413","provinceCode":"44"},{"code":"441323105","name":"铁涌镇","areaCode":"441323","cityCode":"4413","provinceCode":"44"},{"code":"441323106","name":"平海镇","areaCode":"441323","cityCode":"4413","provinceCode":"44"},{"code":"441323109","name":"吉隆镇","areaCode":"441323","cityCode":"4413","provinceCode":"44"},{"code":"441323110","name":"黄埠镇","areaCode":"441323","cityCode":"4413","provinceCode":"44"},{"code":"441323113","name":"多祝镇","areaCode":"441323","cityCode":"4413","provinceCode":"44"},{"code":"441323115","name":"安墩镇","areaCode":"441323","cityCode":"4413","provinceCode":"44"},{"code":"441323118","name":"高潭镇","areaCode":"441323","cityCode":"4413","provinceCode":"44"},{"code":"441323120","name":"宝口镇","areaCode":"441323","cityCode":"4413","provinceCode":"44"},{"code":"441323121","name":"白盆珠镇","areaCode":"441323","cityCode":"4413","provinceCode":"44"},{"code":"441323450","name":"广东省惠州市国营惠东梁化林场","areaCode":"441323","cityCode":"4413","provinceCode":"44"},{"code":"441323451","name":"广东省惠州市国营惠东九龙峰林场","areaCode":"441323","cityCode":"4413","provinceCode":"44"},{"code":"441323452","name":"惠东县港口海龟湾自然保护区","areaCode":"441323","cityCode":"4413","provinceCode":"44"},{"code":"441323453","name":"莲花山白盆珠省级自然保护区","areaCode":"441323","cityCode":"4413","provinceCode":"44"},{"code":"441323454","name":"广东惠东古田省级自然保护区","areaCode":"441323","cityCode":"4413","provinceCode":"44"},{"code":"441323455","name":"惠东县珠三角产业转移园","areaCode":"441323","cityCode":"4413","provinceCode":"44"},{"code":"441323570","name":"巺寮滨海旅游渡假区管理委员会","areaCode":"441323","cityCode":"4413","provinceCode":"44"},{"code":"441324001","name":"龙城街道办事处","areaCode":"441324","cityCode":"4413","provinceCode":"44"},{"code":"441324100","name":"麻榨镇","areaCode":"441324","cityCode":"4413","provinceCode":"44"},{"code":"441324101","name":"永汉镇","areaCode":"441324","cityCode":"4413","provinceCode":"44"},{"code":"441324106","name":"平陵镇","areaCode":"441324","cityCode":"4413","provinceCode":"44"},{"code":"441324115","name":"龙田镇","areaCode":"441324","cityCode":"4413","provinceCode":"44"},{"code":"441324116","name":"龙潭镇","areaCode":"441324","cityCode":"4413","provinceCode":"44"},{"code":"441324117","name":"地派镇","areaCode":"441324","cityCode":"4413","provinceCode":"44"},{"code":"441324118","name":"龙华镇","areaCode":"441324","cityCode":"4413","provinceCode":"44"},{"code":"441324119","name":"龙江镇","areaCode":"441324","cityCode":"4413","provinceCode":"44"},{"code":"441324200","name":"蓝田瑶族乡","areaCode":"441324","cityCode":"4413","provinceCode":"44"},{"code":"441324453","name":"龙门县密溪林场","areaCode":"441324","cityCode":"4413","provinceCode":"44"},{"code":"441324570","name":"南昆山生态旅游区管理委员会","areaCode":"441324","cityCode":"4413","provinceCode":"44"},{"code":"441402004","name":"江南街道","areaCode":"441402","cityCode":"4414","provinceCode":"44"},{"code":"441402006","name":"金山街道","areaCode":"441402","cityCode":"4414","provinceCode":"44"},{"code":"441402007","name":"西郊街道","areaCode":"441402","cityCode":"4414","provinceCode":"44"},{"code":"441402102","name":"三角镇","areaCode":"441402","cityCode":"4414","provinceCode":"44"},{"code":"441402103","name":"长沙镇","areaCode":"441402","cityCode":"4414","provinceCode":"44"},{"code":"441402105","name":"城北镇","areaCode":"441402","cityCode":"4414","provinceCode":"44"},{"code":"441402106","name":"西阳镇","areaCode":"441402","cityCode":"4414","provinceCode":"44"},{"code":"441403001","name":"新城办事处","areaCode":"441403","cityCode":"4414","provinceCode":"44"},{"code":"441403101","name":"城东镇","areaCode":"441403","cityCode":"4414","provinceCode":"44"},{"code":"441403102","name":"石扇镇","areaCode":"441403","cityCode":"4414","provinceCode":"44"},{"code":"441403103","name":"梅西镇","areaCode":"441403","cityCode":"4414","provinceCode":"44"},{"code":"441403104","name":"大坪镇","areaCode":"441403","cityCode":"4414","provinceCode":"44"},{"code":"441403105","name":"石坑镇","areaCode":"441403","cityCode":"4414","provinceCode":"44"},{"code":"441403109","name":"水车镇","areaCode":"441403","cityCode":"4414","provinceCode":"44"},{"code":"441403110","name":"梅南镇","areaCode":"441403","cityCode":"4414","provinceCode":"44"},{"code":"441403113","name":"丙村镇","areaCode":"441403","cityCode":"4414","provinceCode":"44"},{"code":"441403115","name":"白渡镇","areaCode":"441403","cityCode":"4414","provinceCode":"44"},{"code":"441403116","name":"松源镇","areaCode":"441403","cityCode":"4414","provinceCode":"44"},{"code":"441403117","name":"隆文镇","areaCode":"441403","cityCode":"4414","provinceCode":"44"},{"code":"441403118","name":"桃尧镇","areaCode":"441403","cityCode":"4414","provinceCode":"44"},{"code":"441403126","name":"畲江镇","areaCode":"441403","cityCode":"4414","provinceCode":"44"},{"code":"441403129","name":"雁洋镇","areaCode":"441403","cityCode":"4414","provinceCode":"44"},{"code":"441403130","name":"松口镇","areaCode":"441403","cityCode":"4414","provinceCode":"44"},{"code":"441403131","name":"南口镇","areaCode":"441403","cityCode":"4414","provinceCode":"44"},{"code":"441403132","name":"程江镇","areaCode":"441403","cityCode":"4414","provinceCode":"44"},{"code":"441403133","name":"扶大镇","areaCode":"441403","cityCode":"4414","provinceCode":"44"},{"code":"441403500","name":"梅西水库","areaCode":"441403","cityCode":"4414","provinceCode":"44"},{"code":"441422100","name":"湖寮镇","areaCode":"441422","cityCode":"4414","provinceCode":"44"},{"code":"441422103","name":"青溪镇","areaCode":"441422","cityCode":"4414","provinceCode":"44"},{"code":"441422105","name":"三河镇","areaCode":"441422","cityCode":"4414","provinceCode":"44"},{"code":"441422108","name":"银江镇","areaCode":"441422","cityCode":"4414","provinceCode":"44"},{"code":"441422109","name":"洲瑞镇","areaCode":"441422","cityCode":"4414","provinceCode":"44"},{"code":"441422112","name":"光德镇","areaCode":"441422","cityCode":"4414","provinceCode":"44"},{"code":"441422113","name":"桃源镇","areaCode":"441422","cityCode":"4414","provinceCode":"44"},{"code":"441422116","name":"百侯镇","areaCode":"441422","cityCode":"4414","provinceCode":"44"},{"code":"441422117","name":"大东镇","areaCode":"441422","cityCode":"4414","provinceCode":"44"},{"code":"441422121","name":"大麻镇","areaCode":"441422","cityCode":"4414","provinceCode":"44"},{"code":"441422122","name":"枫朗镇","areaCode":"441422","cityCode":"4414","provinceCode":"44"},{"code":"441422123","name":"茶阳镇","areaCode":"441422","cityCode":"4414","provinceCode":"44"},{"code":"441422124","name":"高陂镇","areaCode":"441422","cityCode":"4414","provinceCode":"44"},{"code":"441422125","name":"西河镇","areaCode":"441422","cityCode":"4414","provinceCode":"44"},{"code":"441422400","name":"丰溪林场","areaCode":"441422","cityCode":"4414","provinceCode":"44"},{"code":"441422401","name":"洲瑞林场","areaCode":"441422","cityCode":"4414","provinceCode":"44"},{"code":"441422402","name":"大埔林场","areaCode":"441422","cityCode":"4414","provinceCode":"44"},{"code":"441423103","name":"北斗镇","areaCode":"441423","cityCode":"4414","provinceCode":"44"},{"code":"441423104","name":"汤西镇","areaCode":"441423","cityCode":"4414","provinceCode":"44"},{"code":"441423105","name":"汤南镇","areaCode":"441423","cityCode":"4414","provinceCode":"44"},{"code":"441423106","name":"埔寨镇","areaCode":"441423","cityCode":"4414","provinceCode":"44"},{"code":"441423110","name":"建桥镇","areaCode":"441423","cityCode":"4414","provinceCode":"44"},{"code":"441423111","name":"龙岗镇","areaCode":"441423","cityCode":"4414","provinceCode":"44"},{"code":"441423112","name":"潘田镇","areaCode":"441423","cityCode":"4414","provinceCode":"44"},{"code":"441423114","name":"黄金镇","areaCode":"441423","cityCode":"4414","provinceCode":"44"},{"code":"441423122","name":"小胜镇","areaCode":"441423","cityCode":"4414","provinceCode":"44"},{"code":"441423123","name":"砂田镇","areaCode":"441423","cityCode":"4414","provinceCode":"44"},{"code":"441423124","name":"八乡山镇","areaCode":"441423","cityCode":"4414","provinceCode":"44"},{"code":"441423125","name":"丰良镇","areaCode":"441423","cityCode":"4414","provinceCode":"44"},{"code":"441423126","name":"潭江镇","areaCode":"441423","cityCode":"4414","provinceCode":"44"},{"code":"441423127","name":"汤坑镇","areaCode":"441423","cityCode":"4414","provinceCode":"44"},{"code":"441423128","name":"留隍镇","areaCode":"441423","cityCode":"4414","provinceCode":"44"},{"code":"441423129","name":"大龙华镇","areaCode":"441423","cityCode":"4414","provinceCode":"44"},{"code":"441423450","name":"埔寨农场","areaCode":"441423","cityCode":"4414","provinceCode":"44"},{"code":"441424103","name":"转水镇","areaCode":"441424","cityCode":"4414","provinceCode":"44"},{"code":"441424108","name":"潭下镇","areaCode":"441424","cityCode":"4414","provinceCode":"44"},{"code":"441424117","name":"郭田镇","areaCode":"441424","cityCode":"4414","provinceCode":"44"},{"code":"441424118","name":"双华镇","areaCode":"441424","cityCode":"4414","provinceCode":"44"},{"code":"441424125","name":"梅林镇","areaCode":"441424","cityCode":"4414","provinceCode":"44"},{"code":"441424126","name":"华阳镇","areaCode":"441424","cityCode":"4414","provinceCode":"44"},{"code":"441424130","name":"华城镇","areaCode":"441424","cityCode":"4414","provinceCode":"44"},{"code":"441424131","name":"周江镇","areaCode":"441424","cityCode":"4414","provinceCode":"44"},{"code":"441424134","name":"水寨镇","areaCode":"441424","cityCode":"4414","provinceCode":"44"},{"code":"441424135","name":"河东镇","areaCode":"441424","cityCode":"4414","provinceCode":"44"},{"code":"441424136","name":"岐岭镇","areaCode":"441424","cityCode":"4414","provinceCode":"44"},{"code":"441424137","name":"长布镇","areaCode":"441424","cityCode":"4414","provinceCode":"44"},{"code":"441424138","name":"横陂镇","areaCode":"441424","cityCode":"4414","provinceCode":"44"},{"code":"441424139","name":"安流镇","areaCode":"441424","cityCode":"4414","provinceCode":"44"},{"code":"441424140","name":"棉洋镇","areaCode":"441424","cityCode":"4414","provinceCode":"44"},{"code":"441424141","name":"龙村镇","areaCode":"441424","cityCode":"4414","provinceCode":"44"},{"code":"441426101","name":"石正镇","areaCode":"441426","cityCode":"4414","provinceCode":"44"},{"code":"441426104","name":"八尺镇","areaCode":"441426","cityCode":"4414","provinceCode":"44"},{"code":"441426105","name":"差干镇","areaCode":"441426","cityCode":"4414","provinceCode":"44"},{"code":"441426107","name":"河头镇","areaCode":"441426","cityCode":"4414","provinceCode":"44"},{"code":"441426108","name":"中行镇","areaCode":"441426","cityCode":"4414","provinceCode":"44"},{"code":"441426109","name":"上举镇","areaCode":"441426","cityCode":"4414","provinceCode":"44"},{"code":"441426110","name":"泗水镇","areaCode":"441426","cityCode":"4414","provinceCode":"44"},{"code":"441426114","name":"长田镇","areaCode":"441426","cityCode":"4414","provinceCode":"44"},{"code":"441426115","name":"热柘镇","areaCode":"441426","cityCode":"4414","provinceCode":"44"},{"code":"441426117","name":"东石镇","areaCode":"441426","cityCode":"4414","provinceCode":"44"},{"code":"441426118","name":"仁居镇","areaCode":"441426","cityCode":"4414","provinceCode":"44"},{"code":"441426119","name":"大柘镇","areaCode":"441426","cityCode":"4414","provinceCode":"44"},{"code":"441427103","name":"三圳镇","areaCode":"441427","cityCode":"4414","provinceCode":"44"},{"code":"441427106","name":"文福镇","areaCode":"441427","cityCode":"4414","provinceCode":"44"},{"code":"441427107","name":"广福镇","areaCode":"441427","cityCode":"4414","provinceCode":"44"},{"code":"441427112","name":"新铺镇","areaCode":"441427","cityCode":"4414","provinceCode":"44"},{"code":"441427113","name":"蓝坊镇","areaCode":"441427","cityCode":"4414","provinceCode":"44"},{"code":"441427114","name":"南礤镇","areaCode":"441427","cityCode":"4414","provinceCode":"44"},{"code":"441427115","name":"蕉城镇","areaCode":"441427","cityCode":"4414","provinceCode":"44"},{"code":"441427116","name":"长潭镇","areaCode":"441427","cityCode":"4414","provinceCode":"44"},{"code":"441427450","name":"华侨农场","areaCode":"441427","cityCode":"4414","provinceCode":"44"},{"code":"441481001","name":"兴田街道办事处","areaCode":"441481","cityCode":"4414","provinceCode":"44"},{"code":"441481002","name":"福兴街道办事处","areaCode":"441481","cityCode":"4414","provinceCode":"44"},{"code":"441481003","name":"宁新街道办事处","areaCode":"441481","cityCode":"4414","provinceCode":"44"},{"code":"441481107","name":"永和镇","areaCode":"441481","cityCode":"4414","provinceCode":"44"},{"code":"441481111","name":"新圩镇","areaCode":"441481","cityCode":"4414","provinceCode":"44"},{"code":"441481115","name":"罗浮镇","areaCode":"441481","cityCode":"4414","provinceCode":"44"},{"code":"441481116","name":"罗岗镇","areaCode":"441481","cityCode":"4414","provinceCode":"44"},{"code":"441481117","name":"黄槐镇","areaCode":"441481","cityCode":"4414","provinceCode":"44"},{"code":"441481123","name":"龙田镇","areaCode":"441481","cityCode":"4414","provinceCode":"44"},{"code":"441481124","name":"石马镇","areaCode":"441481","cityCode":"4414","provinceCode":"44"},{"code":"441481128","name":"宁中镇","areaCode":"441481","cityCode":"4414","provinceCode":"44"},{"code":"441481129","name":"径南镇","areaCode":"441481","cityCode":"4414","provinceCode":"44"},{"code":"441481130","name":"坭陂镇","areaCode":"441481","cityCode":"4414","provinceCode":"44"},{"code":"441481131","name":"水口镇","areaCode":"441481","cityCode":"4414","provinceCode":"44"},{"code":"441481132","name":"黄陂镇","areaCode":"441481","cityCode":"4414","provinceCode":"44"},{"code":"441481133","name":"合水镇","areaCode":"441481","cityCode":"4414","provinceCode":"44"},{"code":"441481134","name":"大坪镇","areaCode":"441481","cityCode":"4414","provinceCode":"44"},{"code":"441481135","name":"叶塘镇","areaCode":"441481","cityCode":"4414","provinceCode":"44"},{"code":"441481136","name":"新陂镇","areaCode":"441481","cityCode":"4414","provinceCode":"44"},{"code":"441481137","name":"刁坊镇","areaCode":"441481","cityCode":"4414","provinceCode":"44"},{"code":"441502001","name":"新港街道","areaCode":"441502","cityCode":"4415","provinceCode":"44"},{"code":"441502002","name":"香洲街道","areaCode":"441502","cityCode":"4415","provinceCode":"44"},{"code":"441502003","name":"凤山街道","areaCode":"441502","cityCode":"4415","provinceCode":"44"},{"code":"441502004","name":"田墘街道","areaCode":"441502","cityCode":"4415","provinceCode":"44"},{"code":"441502005","name":"东洲街道","areaCode":"441502","cityCode":"4415","provinceCode":"44"},{"code":"441502006","name":"遮浪街道","areaCode":"441502","cityCode":"4415","provinceCode":"44"},{"code":"441502007","name":"马宫街道","areaCode":"441502","cityCode":"4415","provinceCode":"44"},{"code":"441502100","name":"红草镇","areaCode":"441502","cityCode":"4415","provinceCode":"44"},{"code":"441502102","name":"东涌镇","areaCode":"441502","cityCode":"4415","provinceCode":"44"},{"code":"441502103","name":"捷胜镇","areaCode":"441502","cityCode":"4415","provinceCode":"44"},{"code":"441521101","name":"梅陇镇","areaCode":"441521","cityCode":"4415","provinceCode":"44"},{"code":"441521102","name":"小漠镇","areaCode":"441521","cityCode":"4415","provinceCode":"44"},{"code":"441521105","name":"鮜门镇","areaCode":"441521","cityCode":"4415","provinceCode":"44"},{"code":"441521106","name":"联安镇","areaCode":"441521","cityCode":"4415","provinceCode":"44"},{"code":"441521107","name":"陶河镇","areaCode":"441521","cityCode":"4415","provinceCode":"44"},{"code":"441521108","name":"赤坑镇","areaCode":"441521","cityCode":"4415","provinceCode":"44"},{"code":"441521109","name":"大湖镇","areaCode":"441521","cityCode":"4415","provinceCode":"44"},{"code":"441521110","name":"可塘镇","areaCode":"441521","cityCode":"4415","provinceCode":"44"},{"code":"441521112","name":"黄羌镇","areaCode":"441521","cityCode":"4415","provinceCode":"44"},{"code":"441521113","name":"平东镇","areaCode":"441521","cityCode":"4415","provinceCode":"44"},{"code":"441521115","name":"海城镇","areaCode":"441521","cityCode":"4415","provinceCode":"44"},{"code":"441521116","name":"鹅埠镇","areaCode":"441521","cityCode":"4415","provinceCode":"44"},{"code":"441521117","name":"赤石镇","areaCode":"441521","cityCode":"4415","provinceCode":"44"},{"code":"441521118","name":"公平镇","areaCode":"441521","cityCode":"4415","provinceCode":"44"},{"code":"441521119","name":"附城镇","areaCode":"441521","cityCode":"4415","provinceCode":"44"},{"code":"441521120","name":"城东镇","areaCode":"441521","cityCode":"4415","provinceCode":"44"},{"code":"441521450","name":"梅陇农场","areaCode":"441521","cityCode":"4415","provinceCode":"44"},{"code":"441523100","name":"河田镇","areaCode":"441523","cityCode":"4415","provinceCode":"44"},{"code":"441523101","name":"水唇镇","areaCode":"441523","cityCode":"4415","provinceCode":"44"},{"code":"441523102","name":"河口镇","areaCode":"441523","cityCode":"4415","provinceCode":"44"},{"code":"441523103","name":"新田镇","areaCode":"441523","cityCode":"4415","provinceCode":"44"},{"code":"441523104","name":"上护镇","areaCode":"441523","cityCode":"4415","provinceCode":"44"},{"code":"441523105","name":"螺溪镇","areaCode":"441523","cityCode":"4415","provinceCode":"44"},{"code":"441523106","name":"东坑镇","areaCode":"441523","cityCode":"4415","provinceCode":"44"},{"code":"441523107","name":"南万镇","areaCode":"441523","cityCode":"4415","provinceCode":"44"},{"code":"441581001","name":"东海街道","areaCode":"441581","cityCode":"4415","provinceCode":"44"},{"code":"441581002","name":"河西街道","areaCode":"441581","cityCode":"4415","provinceCode":"44"},{"code":"441581003","name":"城东街道","areaCode":"441581","cityCode":"4415","provinceCode":"44"},{"code":"441581101","name":"甲子镇","areaCode":"441581","cityCode":"4415","provinceCode":"44"},{"code":"441581102","name":"碣石镇","areaCode":"441581","cityCode":"4415","provinceCode":"44"},{"code":"441581103","name":"湖东镇","areaCode":"441581","cityCode":"4415","provinceCode":"44"},{"code":"441581104","name":"大安镇","areaCode":"441581","cityCode":"4415","provinceCode":"44"},{"code":"441581105","name":"博美镇","areaCode":"441581","cityCode":"4415","provinceCode":"44"},{"code":"441581106","name":"内湖镇","areaCode":"441581","cityCode":"4415","provinceCode":"44"},{"code":"441581107","name":"南塘镇","areaCode":"441581","cityCode":"4415","provinceCode":"44"},{"code":"441581108","name":"陂洋镇","areaCode":"441581","cityCode":"4415","provinceCode":"44"},{"code":"441581109","name":"八万镇","areaCode":"441581","cityCode":"4415","provinceCode":"44"},{"code":"441581110","name":"金厢镇","areaCode":"441581","cityCode":"4415","provinceCode":"44"},{"code":"441581111","name":"潭西镇","areaCode":"441581","cityCode":"4415","provinceCode":"44"},{"code":"441581112","name":"甲东镇","areaCode":"441581","cityCode":"4415","provinceCode":"44"},{"code":"441581115","name":"河东镇","areaCode":"441581","cityCode":"4415","provinceCode":"44"},{"code":"441581116","name":"上英镇","areaCode":"441581","cityCode":"4415","provinceCode":"44"},{"code":"441581117","name":"桥冲镇","areaCode":"441581","cityCode":"4415","provinceCode":"44"},{"code":"441581118","name":"甲西镇","areaCode":"441581","cityCode":"4415","provinceCode":"44"},{"code":"441581119","name":"西南镇","areaCode":"441581","cityCode":"4415","provinceCode":"44"},{"code":"441581400","name":"华侨管理区","areaCode":"441581","cityCode":"4415","provinceCode":"44"},{"code":"441581450","name":"铜锣湖农场","areaCode":"441581","cityCode":"4415","provinceCode":"44"},{"code":"441581451","name":"星都经济开发试验区","areaCode":"441581","cityCode":"4415","provinceCode":"44"},{"code":"441581452","name":"大安农场","areaCode":"441581","cityCode":"4415","provinceCode":"44"},{"code":"441581453","name":"罗经嶂林场","areaCode":"441581","cityCode":"4415","provinceCode":"44"},{"code":"441581454","name":"湖东林场","areaCode":"441581","cityCode":"4415","provinceCode":"44"},{"code":"441581455","name":"东海岸林场","areaCode":"441581","cityCode":"4415","provinceCode":"44"},{"code":"441581456","name":"红岭林场","areaCode":"441581","cityCode":"4415","provinceCode":"44"},{"code":"441581457","name":"畜牧果林场","areaCode":"441581","cityCode":"4415","provinceCode":"44"},{"code":"441602001","name":"上城街道办事处","areaCode":"441602","cityCode":"4416","provinceCode":"44"},{"code":"441602002","name":"新江街道办事处","areaCode":"441602","cityCode":"4416","provinceCode":"44"},{"code":"441602003","name":"东埔街道办事处","areaCode":"441602","cityCode":"4416","provinceCode":"44"},{"code":"441602004","name":"源西街道办事处","areaCode":"441602","cityCode":"4416","provinceCode":"44"},{"code":"441602005","name":"高埔岗街道办事处","areaCode":"441602","cityCode":"4416","provinceCode":"44"},{"code":"441602100","name":"源南镇","areaCode":"441602","cityCode":"4416","provinceCode":"44"},{"code":"441602101","name":"埔前镇","areaCode":"441602","cityCode":"4416","provinceCode":"44"},{"code":"441621100","name":"紫城镇","areaCode":"441621","cityCode":"4416","provinceCode":"44"},{"code":"441621102","name":"龙窝镇","areaCode":"441621","cityCode":"4416","provinceCode":"44"},{"code":"441621103","name":"九和镇","areaCode":"441621","cityCode":"4416","provinceCode":"44"},{"code":"441621104","name":"上义镇","areaCode":"441621","cityCode":"4416","provinceCode":"44"},{"code":"441621105","name":"蓝塘镇","areaCode":"441621","cityCode":"4416","provinceCode":"44"},{"code":"441621106","name":"凤安镇","areaCode":"441621","cityCode":"4416","provinceCode":"44"},{"code":"441621107","name":"义容镇","areaCode":"441621","cityCode":"4416","provinceCode":"44"},{"code":"441621108","name":"古竹镇","areaCode":"441621","cityCode":"4416","provinceCode":"44"},{"code":"441621109","name":"临江镇","areaCode":"441621","cityCode":"4416","provinceCode":"44"},{"code":"441621110","name":"柏埔镇","areaCode":"441621","cityCode":"4416","provinceCode":"44"},{"code":"441621111","name":"黄塘镇","areaCode":"441621","cityCode":"4416","provinceCode":"44"},{"code":"441621112","name":"敬梓镇","areaCode":"441621","cityCode":"4416","provinceCode":"44"},{"code":"441621114","name":"水墩镇","areaCode":"441621","cityCode":"4416","provinceCode":"44"},{"code":"441621115","name":"南岭镇","areaCode":"441621","cityCode":"4416","provinceCode":"44"},{"code":"441621116","name":"苏区镇","areaCode":"441621","cityCode":"4416","provinceCode":"44"},{"code":"441621117","name":"瓦溪镇","areaCode":"441621","cityCode":"4416","provinceCode":"44"},{"code":"441621118","name":"好义镇","areaCode":"441621","cityCode":"4416","provinceCode":"44"},{"code":"441621119","name":"中坝镇","areaCode":"441621","cityCode":"4416","provinceCode":"44"},{"code":"441622100","name":"老隆镇","areaCode":"441622","cityCode":"4416","provinceCode":"44"},{"code":"441622102","name":"义都镇","areaCode":"441622","cityCode":"4416","provinceCode":"44"},{"code":"441622103","name":"佗城镇","areaCode":"441622","cityCode":"4416","provinceCode":"44"},{"code":"441622104","name":"鹤市镇","areaCode":"441622","cityCode":"4416","provinceCode":"44"},{"code":"441622105","name":"黄布镇","areaCode":"441622","cityCode":"4416","provinceCode":"44"},{"code":"441622106","name":"紫市镇","areaCode":"441622","cityCode":"4416","provinceCode":"44"},{"code":"441622107","name":"通衢镇","areaCode":"441622","cityCode":"4416","provinceCode":"44"},{"code":"441622109","name":"登云镇","areaCode":"441622","cityCode":"4416","provinceCode":"44"},{"code":"441622110","name":"丰稔镇","areaCode":"441622","cityCode":"4416","provinceCode":"44"},{"code":"441622111","name":"四都镇","areaCode":"441622","cityCode":"4416","provinceCode":"44"},{"code":"441622112","name":"铁场镇","areaCode":"441622","cityCode":"4416","provinceCode":"44"},{"code":"441622114","name":"龙母镇","areaCode":"441622","cityCode":"4416","provinceCode":"44"},{"code":"441622115","name":"田心镇","areaCode":"441622","cityCode":"4416","provinceCode":"44"},{"code":"441622116","name":"黎咀镇","areaCode":"441622","cityCode":"4416","provinceCode":"44"},{"code":"441622117","name":"黄石镇","areaCode":"441622","cityCode":"4416","provinceCode":"44"},{"code":"441622118","name":"赤光镇","areaCode":"441622","cityCode":"4416","provinceCode":"44"},{"code":"441622119","name":"回龙镇","areaCode":"441622","cityCode":"4416","provinceCode":"44"},{"code":"441622120","name":"新田镇","areaCode":"441622","cityCode":"4416","provinceCode":"44"},{"code":"441622121","name":"车田镇","areaCode":"441622","cityCode":"4416","provinceCode":"44"},{"code":"441622123","name":"岩镇镇","areaCode":"441622","cityCode":"4416","provinceCode":"44"},{"code":"441622124","name":"麻布岗镇","areaCode":"441622","cityCode":"4416","provinceCode":"44"},{"code":"441622125","name":"贝岭镇","areaCode":"441622","cityCode":"4416","provinceCode":"44"},{"code":"441622126","name":"细坳镇","areaCode":"441622","cityCode":"4416","provinceCode":"44"},{"code":"441622127","name":"上坪镇","areaCode":"441622","cityCode":"4416","provinceCode":"44"},{"code":"441623100","name":"元善镇","areaCode":"441623","cityCode":"4416","provinceCode":"44"},{"code":"441623101","name":"上坪镇","areaCode":"441623","cityCode":"4416","provinceCode":"44"},{"code":"441623102","name":"内莞镇","areaCode":"441623","cityCode":"4416","provinceCode":"44"},{"code":"441623104","name":"陂头镇","areaCode":"441623","cityCode":"4416","provinceCode":"44"},{"code":"441623105","name":"溪山镇","areaCode":"441623","cityCode":"4416","provinceCode":"44"},{"code":"441623107","name":"隆街镇","areaCode":"441623","cityCode":"4416","provinceCode":"44"},{"code":"441623108","name":"田源镇","areaCode":"441623","cityCode":"4416","provinceCode":"44"},{"code":"441623109","name":"油溪镇","areaCode":"441623","cityCode":"4416","provinceCode":"44"},{"code":"441623110","name":"忠信镇","areaCode":"441623","cityCode":"4416","provinceCode":"44"},{"code":"441623111","name":"高莞镇","areaCode":"441623","cityCode":"4416","provinceCode":"44"},{"code":"441623113","name":"大湖镇","areaCode":"441623","cityCode":"4416","provinceCode":"44"},{"code":"441623114","name":"三角镇","areaCode":"441623","cityCode":"4416","provinceCode":"44"},{"code":"441623115","name":"绣缎镇","areaCode":"441623","cityCode":"4416","provinceCode":"44"},{"code":"441624100","name":"阳明镇","areaCode":"441624","cityCode":"4416","provinceCode":"44"},{"code":"441624101","name":"大坝镇","areaCode":"441624","cityCode":"4416","provinceCode":"44"},{"code":"441624102","name":"长塘镇","areaCode":"441624","cityCode":"4416","provinceCode":"44"},{"code":"441624103","name":"下车镇","areaCode":"441624","cityCode":"4416","provinceCode":"44"},{"code":"441624104","name":"上陵镇","areaCode":"441624","cityCode":"4416","provinceCode":"44"},{"code":"441624105","name":"优胜镇","areaCode":"441624","cityCode":"4416","provinceCode":"44"},{"code":"441624106","name":"贝墩镇","areaCode":"441624","cityCode":"4416","provinceCode":"44"},{"code":"441624107","name":"古寨镇","areaCode":"441624","cityCode":"4416","provinceCode":"44"},{"code":"441624108","name":"彭寨镇","areaCode":"441624","cityCode":"4416","provinceCode":"44"},{"code":"441624109","name":"合水镇","areaCode":"441624","cityCode":"4416","provinceCode":"44"},{"code":"441624110","name":"公白镇","areaCode":"441624","cityCode":"4416","provinceCode":"44"},{"code":"441624111","name":"青州镇","areaCode":"441624","cityCode":"4416","provinceCode":"44"},{"code":"441624112","name":"浰源镇","areaCode":"441624","cityCode":"4416","provinceCode":"44"},{"code":"441624113","name":"热水镇","areaCode":"441624","cityCode":"4416","provinceCode":"44"},{"code":"441624114","name":"东水镇","areaCode":"441624","cityCode":"4416","provinceCode":"44"},{"code":"441624115","name":"礼士镇","areaCode":"441624","cityCode":"4416","provinceCode":"44"},{"code":"441624116","name":"林寨镇","areaCode":"441624","cityCode":"4416","provinceCode":"44"},{"code":"441625100","name":"仙塘镇","areaCode":"441625","cityCode":"4416","provinceCode":"44"},{"code":"441625101","name":"灯塔镇","areaCode":"441625","cityCode":"4416","provinceCode":"44"},{"code":"441625102","name":"骆湖镇","areaCode":"441625","cityCode":"4416","provinceCode":"44"},{"code":"441625103","name":"船塘镇","areaCode":"441625","cityCode":"4416","provinceCode":"44"},{"code":"441625104","name":"顺天镇","areaCode":"441625","cityCode":"4416","provinceCode":"44"},{"code":"441625105","name":"上莞镇","areaCode":"441625","cityCode":"4416","provinceCode":"44"},{"code":"441625106","name":"曾田镇","areaCode":"441625","cityCode":"4416","provinceCode":"44"},{"code":"441625107","name":"柳城镇","areaCode":"441625","cityCode":"4416","provinceCode":"44"},{"code":"441625108","name":"义合镇","areaCode":"441625","cityCode":"4416","provinceCode":"44"},{"code":"441625109","name":"蓝口镇","areaCode":"441625","cityCode":"4416","provinceCode":"44"},{"code":"441625110","name":"黄田镇","areaCode":"441625","cityCode":"4416","provinceCode":"44"},{"code":"441625111","name":"叶潭镇","areaCode":"441625","cityCode":"4416","provinceCode":"44"},{"code":"441625112","name":"黄村镇","areaCode":"441625","cityCode":"4416","provinceCode":"44"},{"code":"441625113","name":"康禾镇","areaCode":"441625","cityCode":"4416","provinceCode":"44"},{"code":"441625114","name":"锡场镇","areaCode":"441625","cityCode":"4416","provinceCode":"44"},{"code":"441625115","name":"新港镇","areaCode":"441625","cityCode":"4416","provinceCode":"44"},{"code":"441625116","name":"双江镇","areaCode":"441625","cityCode":"4416","provinceCode":"44"},{"code":"441625117","name":"涧头镇","areaCode":"441625","cityCode":"4416","provinceCode":"44"},{"code":"441625121","name":"新回龙镇","areaCode":"441625","cityCode":"4416","provinceCode":"44"},{"code":"441625122","name":"半江镇","areaCode":"441625","cityCode":"4416","provinceCode":"44"},{"code":"441625200","name":"漳溪乡","areaCode":"441625","cityCode":"4416","provinceCode":"44"},{"code":"441702001","name":"南恩街道办事处","areaCode":"441702","cityCode":"4417","provinceCode":"44"},{"code":"441702002","name":"城南街道办事处","areaCode":"441702","cityCode":"4417","provinceCode":"44"},{"code":"441702003","name":"城北街道办事处","areaCode":"441702","cityCode":"4417","provinceCode":"44"},{"code":"441702004","name":"中洲街道办事处","areaCode":"441702","cityCode":"4417","provinceCode":"44"},{"code":"441702006","name":"城东街道办事处","areaCode":"441702","cityCode":"4417","provinceCode":"44"},{"code":"441702008","name":"岗列街道办事处","areaCode":"441702","cityCode":"4417","provinceCode":"44"},{"code":"441702009","name":"城西街道办事处","areaCode":"441702","cityCode":"4417","provinceCode":"44"},{"code":"441702011","name":"白沙街道办事处","areaCode":"441702","cityCode":"4417","provinceCode":"44"},{"code":"441702102","name":"埠场镇","areaCode":"441702","cityCode":"4417","provinceCode":"44"},{"code":"441702103","name":"平冈镇","areaCode":"441702","cityCode":"4417","provinceCode":"44"},{"code":"441702105","name":"闸坡镇","areaCode":"441702","cityCode":"4417","provinceCode":"44"},{"code":"441702106","name":"双捷镇","areaCode":"441702","cityCode":"4417","provinceCode":"44"},{"code":"441702401","name":"阳江林场罗琴分场","areaCode":"441702","cityCode":"4417","provinceCode":"44"},{"code":"441702450","name":"平冈农场","areaCode":"441702","cityCode":"4417","provinceCode":"44"},{"code":"441702453","name":"红十月农场","areaCode":"441702","cityCode":"4417","provinceCode":"44"},{"code":"441704100","name":"东城镇","areaCode":"441704","cityCode":"4417","provinceCode":"44"},{"code":"441704101","name":"北惯镇","areaCode":"441704","cityCode":"4417","provinceCode":"44"},{"code":"441704102","name":"那龙镇","areaCode":"441704","cityCode":"4417","provinceCode":"44"},{"code":"441704103","name":"东平镇","areaCode":"441704","cityCode":"4417","provinceCode":"44"},{"code":"441704104","name":"雅韶镇","areaCode":"441704","cityCode":"4417","provinceCode":"44"},{"code":"441704105","name":"大沟镇","areaCode":"441704","cityCode":"4417","provinceCode":"44"},{"code":"441704106","name":"新洲镇","areaCode":"441704","cityCode":"4417","provinceCode":"44"},{"code":"441704107","name":"合山镇","areaCode":"441704","cityCode":"4417","provinceCode":"44"},{"code":"441704108","name":"塘坪镇","areaCode":"441704","cityCode":"4417","provinceCode":"44"},{"code":"441704109","name":"大八镇","areaCode":"441704","cityCode":"4417","provinceCode":"44"},{"code":"441704110","name":"红丰镇","areaCode":"441704","cityCode":"4417","provinceCode":"44"},{"code":"441704400","name":"阳江监狱","areaCode":"441704","cityCode":"4417","provinceCode":"44"},{"code":"441704401","name":"红五月农场","areaCode":"441704","cityCode":"4417","provinceCode":"44"},{"code":"441704402","name":"鸡山农场","areaCode":"441704","cityCode":"4417","provinceCode":"44"},{"code":"441704501","name":"阳江林场宝山分场","areaCode":"441704","cityCode":"4417","provinceCode":"44"},{"code":"441704502","name":"阳江林场田畔分场","areaCode":"441704","cityCode":"4417","provinceCode":"44"},{"code":"441704503","name":"阳东原种场","areaCode":"441704","cityCode":"4417","provinceCode":"44"},{"code":"441704504","name":"阳东林场","areaCode":"441704","cityCode":"4417","provinceCode":"44"},{"code":"441704505","name":"阳江林场东岸分场","areaCode":"441704","cityCode":"4417","provinceCode":"44"},{"code":"441721100","name":"织篢镇","areaCode":"441721","cityCode":"4417","provinceCode":"44"},{"code":"441721101","name":"程村镇","areaCode":"441721","cityCode":"4417","provinceCode":"44"},{"code":"441721102","name":"塘口镇","areaCode":"441721","cityCode":"4417","provinceCode":"44"},{"code":"441721103","name":"上洋镇","areaCode":"441721","cityCode":"4417","provinceCode":"44"},{"code":"441721104","name":"溪头镇","areaCode":"441721","cityCode":"4417","provinceCode":"44"},{"code":"441721105","name":"沙扒镇","areaCode":"441721","cityCode":"4417","provinceCode":"44"},{"code":"441721106","name":"儒洞镇","areaCode":"441721","cityCode":"4417","provinceCode":"44"},{"code":"441721107","name":"新圩镇","areaCode":"441721","cityCode":"4417","provinceCode":"44"},{"code":"441721501","name":"织贡农场","areaCode":"441721","cityCode":"4417","provinceCode":"44"},{"code":"441721502","name":"阳江林场儒洞分场","areaCode":"441721","cityCode":"4417","provinceCode":"44"},{"code":"441781001","name":"春城街道办事处","areaCode":"441781","cityCode":"4417","provinceCode":"44"},{"code":"441781002","name":"河西街道办事处","areaCode":"441781","cityCode":"4417","provinceCode":"44"},{"code":"441781101","name":"河朗镇","areaCode":"441781","cityCode":"4417","provinceCode":"44"},{"code":"441781102","name":"松柏镇","areaCode":"441781","cityCode":"4417","provinceCode":"44"},{"code":"441781103","name":"石望镇","areaCode":"441781","cityCode":"4417","provinceCode":"44"},{"code":"441781105","name":"春湾镇","areaCode":"441781","cityCode":"4417","provinceCode":"44"},{"code":"441781106","name":"合水镇","areaCode":"441781","cityCode":"4417","provinceCode":"44"},{"code":"441781107","name":"陂面镇","areaCode":"441781","cityCode":"4417","provinceCode":"44"},{"code":"441781108","name":"圭岗镇","areaCode":"441781","cityCode":"4417","provinceCode":"44"},{"code":"441781109","name":"永宁镇","areaCode":"441781","cityCode":"4417","provinceCode":"44"},{"code":"441781110","name":"马水镇","areaCode":"441781","cityCode":"4417","provinceCode":"44"},{"code":"441781111","name":"岗美镇","areaCode":"441781","cityCode":"4417","provinceCode":"44"},{"code":"441781112","name":"河口镇","areaCode":"441781","cityCode":"4417","provinceCode":"44"},{"code":"441781113","name":"潭水镇","areaCode":"441781","cityCode":"4417","provinceCode":"44"},{"code":"441781114","name":"三甲镇","areaCode":"441781","cityCode":"4417","provinceCode":"44"},{"code":"441781116","name":"双窖镇","areaCode":"441781","cityCode":"4417","provinceCode":"44"},{"code":"441781117","name":"八甲镇","areaCode":"441781","cityCode":"4417","provinceCode":"44"},{"code":"441781402","name":"三叶农场","areaCode":"441781","cityCode":"4417","provinceCode":"44"},{"code":"441781403","name":"石录矿区","areaCode":"441781","cityCode":"4417","provinceCode":"44"},{"code":"441781404","name":"花滩林场","areaCode":"441781","cityCode":"4417","provinceCode":"44"},{"code":"441781405","name":"东湖林场","areaCode":"441781","cityCode":"4417","provinceCode":"44"},{"code":"441781406","name":"河尾山林场","areaCode":"441781","cityCode":"4417","provinceCode":"44"},{"code":"441781407","name":"南山矿","areaCode":"441781","cityCode":"4417","provinceCode":"44"},{"code":"441781408","name":"阳春监狱","areaCode":"441781","cityCode":"4417","provinceCode":"44"},{"code":"441781410","name":"硫铁矿","areaCode":"441781","cityCode":"4417","provinceCode":"44"},{"code":"441802006","name":"凤城街道办事处","areaCode":"441802","cityCode":"4418","provinceCode":"44"},{"code":"441802007","name":"东城街道办事处","areaCode":"441802","cityCode":"4418","provinceCode":"44"},{"code":"441802008","name":"洲心街道办事处","areaCode":"441802","cityCode":"4418","provinceCode":"44"},{"code":"441802009","name":"横荷街道办事处","areaCode":"441802","cityCode":"4418","provinceCode":"44"},{"code":"441802103","name":"源潭镇","areaCode":"441802","cityCode":"4418","provinceCode":"44"},{"code":"441802105","name":"龙塘镇","areaCode":"441802","cityCode":"4418","provinceCode":"44"},{"code":"441802106","name":"石角镇","areaCode":"441802","cityCode":"4418","provinceCode":"44"},{"code":"441802107","name":"飞来峡镇","areaCode":"441802","cityCode":"4418","provinceCode":"44"},{"code":"441802400","name":"清远市高新技术产业开发区","areaCode":"441802","cityCode":"4418","provinceCode":"44"},{"code":"441802450","name":"清远市国营银盏林场","areaCode":"441802","cityCode":"4418","provinceCode":"44"},{"code":"441803102","name":"太和镇","areaCode":"441803","cityCode":"4418","provinceCode":"44"},{"code":"441803104","name":"太平镇","areaCode":"441803","cityCode":"4418","provinceCode":"44"},{"code":"441803105","name":"山塘镇","areaCode":"441803","cityCode":"4418","provinceCode":"44"},{"code":"441803106","name":"三坑镇","areaCode":"441803","cityCode":"4418","provinceCode":"44"},{"code":"441803112","name":"龙颈镇","areaCode":"441803","cityCode":"4418","provinceCode":"44"},{"code":"441803113","name":"禾云镇","areaCode":"441803","cityCode":"4418","provinceCode":"44"},{"code":"441803117","name":"浸潭镇","areaCode":"441803","cityCode":"4418","provinceCode":"44"},{"code":"441803118","name":"石潭镇","areaCode":"441803","cityCode":"4418","provinceCode":"44"},{"code":"441803450","name":"笔架林场","areaCode":"441803","cityCode":"4418","provinceCode":"44"},{"code":"441821100","name":"石角镇","areaCode":"441821","cityCode":"4418","provinceCode":"44"},{"code":"441821101","name":"水头镇","areaCode":"441821","cityCode":"4418","provinceCode":"44"},{"code":"441821102","name":"汤塘镇","areaCode":"441821","cityCode":"4418","provinceCode":"44"},{"code":"441821103","name":"龙山镇","areaCode":"441821","cityCode":"4418","provinceCode":"44"},{"code":"441821104","name":"高岗镇","areaCode":"441821","cityCode":"4418","provinceCode":"44"},{"code":"441821107","name":"迳头镇","areaCode":"441821","cityCode":"4418","provinceCode":"44"},{"code":"441823100","name":"青莲镇","areaCode":"441823","cityCode":"4418","provinceCode":"44"},{"code":"441823101","name":"江英镇","areaCode":"441823","cityCode":"4418","provinceCode":"44"},{"code":"441823104","name":"杜步镇","areaCode":"441823","cityCode":"4418","provinceCode":"44"},{"code":"441823105","name":"七拱镇","areaCode":"441823","cityCode":"4418","provinceCode":"44"},{"code":"441823107","name":"太平镇","areaCode":"441823","cityCode":"4418","provinceCode":"44"},{"code":"441823108","name":"杨梅镇","areaCode":"441823","cityCode":"4418","provinceCode":"44"},{"code":"441823110","name":"大崀镇","areaCode":"441823","cityCode":"4418","provinceCode":"44"},{"code":"441823111","name":"小江镇","areaCode":"441823","cityCode":"4418","provinceCode":"44"},{"code":"441823113","name":"岭背镇","areaCode":"441823","cityCode":"4418","provinceCode":"44"},{"code":"441823115","name":"黄坌镇","areaCode":"441823","cityCode":"4418","provinceCode":"44"},{"code":"441823116","name":"黎埠镇","areaCode":"441823","cityCode":"4418","provinceCode":"44"},{"code":"441823119","name":"阳城镇","areaCode":"441823","cityCode":"4418","provinceCode":"44"},{"code":"441823201","name":"秤架瑶族乡","areaCode":"441823","cityCode":"4418","provinceCode":"44"},{"code":"441825100","name":"永和镇","areaCode":"441825","cityCode":"4418","provinceCode":"44"},{"code":"441825104","name":"吉田镇","areaCode":"441825","cityCode":"4418","provinceCode":"44"},{"code":"441825105","name":"太保镇","areaCode":"441825","cityCode":"4418","provinceCode":"44"},{"code":"441825106","name":"禾洞镇","areaCode":"441825","cityCode":"4418","provinceCode":"44"},{"code":"441825108","name":"福堂镇","areaCode":"441825","cityCode":"4418","provinceCode":"44"},{"code":"441825109","name":"小三江镇","areaCode":"441825","cityCode":"4418","provinceCode":"44"},{"code":"441825111","name":"上帅镇","areaCode":"441825","cityCode":"4418","provinceCode":"44"},{"code":"441825450","name":"连山林场","areaCode":"441825","cityCode":"4418","provinceCode":"44"},{"code":"441825451","name":"禾洞农林场","areaCode":"441825","cityCode":"4418","provinceCode":"44"},{"code":"441826100","name":"三江镇","areaCode":"441826","cityCode":"4418","provinceCode":"44"},{"code":"441826101","name":"大麦山镇","areaCode":"441826","cityCode":"4418","provinceCode":"44"},{"code":"441826102","name":"寨岗镇","areaCode":"441826","cityCode":"4418","provinceCode":"44"},{"code":"441826105","name":"三排镇","areaCode":"441826","cityCode":"4418","provinceCode":"44"},{"code":"441826106","name":"涡水镇","areaCode":"441826","cityCode":"4418","provinceCode":"44"},{"code":"441826108","name":"大坪镇","areaCode":"441826","cityCode":"4418","provinceCode":"44"},{"code":"441826109","name":"香坪镇","areaCode":"441826","cityCode":"4418","provinceCode":"44"},{"code":"441881001","name":"英城街道办事处","areaCode":"441881","cityCode":"4418","provinceCode":"44"},{"code":"441881101","name":"沙口镇","areaCode":"441881","cityCode":"4418","provinceCode":"44"},{"code":"441881102","name":"望埠镇","areaCode":"441881","cityCode":"4418","provinceCode":"44"},{"code":"441881103","name":"横石水镇","areaCode":"441881","cityCode":"4418","provinceCode":"44"},{"code":"441881105","name":"桥头镇","areaCode":"441881","cityCode":"4418","provinceCode":"44"},{"code":"441881106","name":"青塘镇","areaCode":"441881","cityCode":"4418","provinceCode":"44"},{"code":"441881108","name":"白沙镇","areaCode":"441881","cityCode":"4418","provinceCode":"44"},{"code":"441881109","name":"大站镇","areaCode":"441881","cityCode":"4418","provinceCode":"44"},{"code":"441881110","name":"西牛镇","areaCode":"441881","cityCode":"4418","provinceCode":"44"},{"code":"441881111","name":"九龙镇","areaCode":"441881","cityCode":"4418","provinceCode":"44"},{"code":"441881112","name":"含光镇","areaCode":"441881","cityCode":"4418","provinceCode":"44"},{"code":"441881114","name":"大湾镇","areaCode":"441881","cityCode":"4418","provinceCode":"44"},{"code":"441881115","name":"石灰铺镇","areaCode":"441881","cityCode":"4418","provinceCode":"44"},{"code":"441881116","name":"石牯塘镇","areaCode":"441881","cityCode":"4418","provinceCode":"44"},{"code":"441881120","name":"下太镇","areaCode":"441881","cityCode":"4418","provinceCode":"44"},{"code":"441881124","name":"波罗镇","areaCode":"441881","cityCode":"4418","provinceCode":"44"},{"code":"441881125","name":"横石塘镇","areaCode":"441881","cityCode":"4418","provinceCode":"44"},{"code":"441881126","name":"大洞镇","areaCode":"441881","cityCode":"4418","provinceCode":"44"},{"code":"441881129","name":"连江口镇","areaCode":"441881","cityCode":"4418","provinceCode":"44"},{"code":"441881130","name":"黎溪镇","areaCode":"441881","cityCode":"4418","provinceCode":"44"},{"code":"441881131","name":"水边镇","areaCode":"441881","cityCode":"4418","provinceCode":"44"},{"code":"441881136","name":"英红镇","areaCode":"441881","cityCode":"4418","provinceCode":"44"},{"code":"441881137","name":"东华镇","areaCode":"441881","cityCode":"4418","provinceCode":"44"},{"code":"441881138","name":"黄花镇","areaCode":"441881","cityCode":"4418","provinceCode":"44"},{"code":"441882100","name":"连州镇","areaCode":"441882","cityCode":"4418","provinceCode":"44"},{"code":"441882101","name":"星子镇","areaCode":"441882","cityCode":"4418","provinceCode":"44"},{"code":"441882102","name":"大路边镇","areaCode":"441882","cityCode":"4418","provinceCode":"44"},{"code":"441882103","name":"龙坪镇","areaCode":"441882","cityCode":"4418","provinceCode":"44"},{"code":"441882104","name":"西岸镇","areaCode":"441882","cityCode":"4418","provinceCode":"44"},{"code":"441882105","name":"保安镇","areaCode":"441882","cityCode":"4418","provinceCode":"44"},{"code":"441882106","name":"丰阳镇","areaCode":"441882","cityCode":"4418","provinceCode":"44"},{"code":"441882107","name":"东陂镇","areaCode":"441882","cityCode":"4418","provinceCode":"44"},{"code":"441882109","name":"九陂镇","areaCode":"441882","cityCode":"4418","provinceCode":"44"},{"code":"441882118","name":"西江镇","areaCode":"441882","cityCode":"4418","provinceCode":"44"},{"code":"441882200","name":"瑶安瑶族乡","areaCode":"441882","cityCode":"4418","provinceCode":"44"},{"code":"441882201","name":"三水瑶族乡","areaCode":"441882","cityCode":"4418","provinceCode":"44"},{"code":"441900003","name":"东城街道办事处","areaCode":"441900","cityCode":"4419","provinceCode":"44"},{"code":"441900004","name":"南城街道办事处","areaCode":"441900","cityCode":"4419","provinceCode":"44"},{"code":"441900005","name":"万江街道办事处","areaCode":"441900","cityCode":"4419","provinceCode":"44"},{"code":"441900006","name":"莞城街道办事处","areaCode":"441900","cityCode":"4419","provinceCode":"44"},{"code":"441900101","name":"石碣镇","areaCode":"441900","cityCode":"4419","provinceCode":"44"},{"code":"441900102","name":"石龙镇","areaCode":"441900","cityCode":"4419","provinceCode":"44"},{"code":"441900103","name":"茶山镇","areaCode":"441900","cityCode":"4419","provinceCode":"44"},{"code":"441900104","name":"石排镇","areaCode":"441900","cityCode":"4419","provinceCode":"44"},{"code":"441900105","name":"企石镇","areaCode":"441900","cityCode":"4419","provinceCode":"44"},{"code":"441900106","name":"横沥镇","areaCode":"441900","cityCode":"4419","provinceCode":"44"},{"code":"441900107","name":"桥头镇","areaCode":"441900","cityCode":"4419","provinceCode":"44"},{"code":"441900108","name":"谢岗镇","areaCode":"441900","cityCode":"4419","provinceCode":"44"},{"code":"441900109","name":"东坑镇","areaCode":"441900","cityCode":"4419","provinceCode":"44"},{"code":"441900110","name":"常平镇","areaCode":"441900","cityCode":"4419","provinceCode":"44"},{"code":"441900111","name":"寮步镇","areaCode":"441900","cityCode":"4419","provinceCode":"44"},{"code":"441900112","name":"樟木头镇","areaCode":"441900","cityCode":"4419","provinceCode":"44"},{"code":"441900113","name":"大朗镇","areaCode":"441900","cityCode":"4419","provinceCode":"44"},{"code":"441900114","name":"黄江镇","areaCode":"441900","cityCode":"4419","provinceCode":"44"},{"code":"441900115","name":"清溪镇","areaCode":"441900","cityCode":"4419","provinceCode":"44"},{"code":"441900116","name":"塘厦镇","areaCode":"441900","cityCode":"4419","provinceCode":"44"},{"code":"441900117","name":"凤岗镇","areaCode":"441900","cityCode":"4419","provinceCode":"44"},{"code":"441900118","name":"大岭山镇","areaCode":"441900","cityCode":"4419","provinceCode":"44"},{"code":"441900119","name":"长安镇","areaCode":"441900","cityCode":"4419","provinceCode":"44"},{"code":"441900121","name":"虎门镇","areaCode":"441900","cityCode":"4419","provinceCode":"44"},{"code":"441900122","name":"厚街镇","areaCode":"441900","cityCode":"4419","provinceCode":"44"},{"code":"441900123","name":"沙田镇","areaCode":"441900","cityCode":"4419","provinceCode":"44"},{"code":"441900124","name":"道滘镇","areaCode":"441900","cityCode":"4419","provinceCode":"44"},{"code":"441900125","name":"洪梅镇","areaCode":"441900","cityCode":"4419","provinceCode":"44"},{"code":"441900126","name":"麻涌镇","areaCode":"441900","cityCode":"4419","provinceCode":"44"},{"code":"441900127","name":"望牛墩镇","areaCode":"441900","cityCode":"4419","provinceCode":"44"},{"code":"441900128","name":"中堂镇","areaCode":"441900","cityCode":"4419","provinceCode":"44"},{"code":"441900129","name":"高埗镇","areaCode":"441900","cityCode":"4419","provinceCode":"44"},{"code":"441900401","name":"松山湖管委会","areaCode":"441900","cityCode":"4419","provinceCode":"44"},{"code":"441900402","name":"虎门港管委会","areaCode":"441900","cityCode":"4419","provinceCode":"44"},{"code":"441900403","name":"东莞生态园","areaCode":"441900","cityCode":"4419","provinceCode":"44"},{"code":"442000001","name":"石岐区街道办事处","areaCode":"442000","cityCode":"4420","provinceCode":"44"},{"code":"442000002","name":"东区街道办事处","areaCode":"442000","cityCode":"4420","provinceCode":"44"},{"code":"442000003","name":"火炬开发区街道办事处","areaCode":"442000","cityCode":"4420","provinceCode":"44"},{"code":"442000004","name":"西区街道办事处","areaCode":"442000","cityCode":"4420","provinceCode":"44"},{"code":"442000005","name":"南区街道办事处","areaCode":"442000","cityCode":"4420","provinceCode":"44"},{"code":"442000006","name":"五桂山街道办事处","areaCode":"442000","cityCode":"4420","provinceCode":"44"},{"code":"442000100","name":"小榄镇","areaCode":"442000","cityCode":"4420","provinceCode":"44"},{"code":"442000101","name":"黄圃镇","areaCode":"442000","cityCode":"4420","provinceCode":"44"},{"code":"442000102","name":"民众镇","areaCode":"442000","cityCode":"4420","provinceCode":"44"},{"code":"442000103","name":"东凤镇","areaCode":"442000","cityCode":"4420","provinceCode":"44"},{"code":"442000104","name":"东升镇","areaCode":"442000","cityCode":"4420","provinceCode":"44"},{"code":"442000105","name":"古镇镇","areaCode":"442000","cityCode":"4420","provinceCode":"44"},{"code":"442000106","name":"沙溪镇","areaCode":"442000","cityCode":"4420","provinceCode":"44"},{"code":"442000107","name":"坦洲镇","areaCode":"442000","cityCode":"4420","provinceCode":"44"},{"code":"442000108","name":"港口镇","areaCode":"442000","cityCode":"4420","provinceCode":"44"},{"code":"442000109","name":"三角镇","areaCode":"442000","cityCode":"4420","provinceCode":"44"},{"code":"442000110","name":"横栏镇","areaCode":"442000","cityCode":"4420","provinceCode":"44"},{"code":"442000111","name":"南头镇","areaCode":"442000","cityCode":"4420","provinceCode":"44"},{"code":"442000112","name":"阜沙镇","areaCode":"442000","cityCode":"4420","provinceCode":"44"},{"code":"442000113","name":"南朗镇","areaCode":"442000","cityCode":"4420","provinceCode":"44"},{"code":"442000114","name":"三乡镇","areaCode":"442000","cityCode":"4420","provinceCode":"44"},{"code":"442000115","name":"板芙镇","areaCode":"442000","cityCode":"4420","provinceCode":"44"},{"code":"442000116","name":"大涌镇","areaCode":"442000","cityCode":"4420","provinceCode":"44"},{"code":"442000117","name":"神湾镇","areaCode":"442000","cityCode":"4420","provinceCode":"44"},{"code":"445102001","name":"湘桥街道","areaCode":"445102","cityCode":"4451","provinceCode":"44"},{"code":"445102002","name":"西湖街道","areaCode":"445102","cityCode":"4451","provinceCode":"44"},{"code":"445102003","name":"金山街道","areaCode":"445102","cityCode":"4451","provinceCode":"44"},{"code":"445102004","name":"太平街道","areaCode":"445102","cityCode":"4451","provinceCode":"44"},{"code":"445102005","name":"南春街道","areaCode":"445102","cityCode":"4451","provinceCode":"44"},{"code":"445102006","name":"西新街道","areaCode":"445102","cityCode":"4451","provinceCode":"44"},{"code":"445102007","name":"桥东街道","areaCode":"445102","cityCode":"4451","provinceCode":"44"},{"code":"445102008","name":"城西街道","areaCode":"445102","cityCode":"4451","provinceCode":"44"},{"code":"445102009","name":"凤新街道","areaCode":"445102","cityCode":"4451","provinceCode":"44"},{"code":"445102100","name":"意溪镇","areaCode":"445102","cityCode":"4451","provinceCode":"44"},{"code":"445102111","name":"磷溪镇","areaCode":"445102","cityCode":"4451","provinceCode":"44"},{"code":"445102112","name":"铁铺镇","areaCode":"445102","cityCode":"4451","provinceCode":"44"},{"code":"445102113","name":"官塘镇","areaCode":"445102","cityCode":"4451","provinceCode":"44"},{"code":"445102400","name":"红山林场","areaCode":"445102","cityCode":"4451","provinceCode":"44"},{"code":"445102401","name":"开发区","areaCode":"445102","cityCode":"4451","provinceCode":"44"},{"code":"445103100","name":"古巷镇","areaCode":"445103","cityCode":"4451","provinceCode":"44"},{"code":"445103101","name":"登塘镇","areaCode":"445103","cityCode":"4451","provinceCode":"44"},{"code":"445103103","name":"凤塘镇","areaCode":"445103","cityCode":"4451","provinceCode":"44"},{"code":"445103104","name":"浮洋镇","areaCode":"445103","cityCode":"4451","provinceCode":"44"},{"code":"445103105","name":"龙湖镇","areaCode":"445103","cityCode":"4451","provinceCode":"44"},{"code":"445103106","name":"金石镇","areaCode":"445103","cityCode":"4451","provinceCode":"44"},{"code":"445103107","name":"沙溪镇","areaCode":"445103","cityCode":"4451","provinceCode":"44"},{"code":"445103108","name":"彩塘镇","areaCode":"445103","cityCode":"4451","provinceCode":"44"},{"code":"445103109","name":"东凤镇","areaCode":"445103","cityCode":"4451","provinceCode":"44"},{"code":"445103110","name":"庵埠镇","areaCode":"445103","cityCode":"4451","provinceCode":"44"},{"code":"445103114","name":"江东镇","areaCode":"445103","cityCode":"4451","provinceCode":"44"},{"code":"445103115","name":"归湖镇","areaCode":"445103","cityCode":"4451","provinceCode":"44"},{"code":"445103116","name":"文祠镇","areaCode":"445103","cityCode":"4451","provinceCode":"44"},{"code":"445103117","name":"凤凰镇","areaCode":"445103","cityCode":"4451","provinceCode":"44"},{"code":"445103120","name":"赤凤镇","areaCode":"445103","cityCode":"4451","provinceCode":"44"},{"code":"445103121","name":"枫溪镇","areaCode":"445103","cityCode":"4451","provinceCode":"44"},{"code":"445103400","name":"万峰林场","areaCode":"445103","cityCode":"4451","provinceCode":"44"},{"code":"445103404","name":"大坑苗圃场","areaCode":"445103","cityCode":"4451","provinceCode":"44"},{"code":"445103405","name":"东山湖农场","areaCode":"445103","cityCode":"4451","provinceCode":"44"},{"code":"445103450","name":"庵埠经济开发试验区","areaCode":"445103","cityCode":"4451","provinceCode":"44"},{"code":"445122100","name":"黄冈镇","areaCode":"445122","cityCode":"4451","provinceCode":"44"},{"code":"445122102","name":"上饶镇","areaCode":"445122","cityCode":"4451","provinceCode":"44"},{"code":"445122103","name":"饶洋镇","areaCode":"445122","cityCode":"4451","provinceCode":"44"},{"code":"445122104","name":"新丰镇","areaCode":"445122","cityCode":"4451","provinceCode":"44"},{"code":"445122106","name":"建饶镇","areaCode":"445122","cityCode":"4451","provinceCode":"44"},{"code":"445122107","name":"三饶镇","areaCode":"445122","cityCode":"4451","provinceCode":"44"},{"code":"445122108","name":"新塘镇","areaCode":"445122","cityCode":"4451","provinceCode":"44"},{"code":"445122109","name":"汤溪镇","areaCode":"445122","cityCode":"4451","provinceCode":"44"},{"code":"445122110","name":"浮滨镇","areaCode":"445122","cityCode":"4451","provinceCode":"44"},{"code":"445122112","name":"浮山镇","areaCode":"445122","cityCode":"4451","provinceCode":"44"},{"code":"445122113","name":"东山镇","areaCode":"445122","cityCode":"4451","provinceCode":"44"},{"code":"445122114","name":"新圩镇","areaCode":"445122","cityCode":"4451","provinceCode":"44"},{"code":"445122116","name":"樟溪镇","areaCode":"445122","cityCode":"4451","provinceCode":"44"},{"code":"445122117","name":"钱东镇","areaCode":"445122","cityCode":"4451","provinceCode":"44"},{"code":"445122118","name":"高堂镇","areaCode":"445122","cityCode":"4451","provinceCode":"44"},{"code":"445122119","name":"联饶镇","areaCode":"445122","cityCode":"4451","provinceCode":"44"},{"code":"445122120","name":"所城镇","areaCode":"445122","cityCode":"4451","provinceCode":"44"},{"code":"445122121","name":"大埕镇","areaCode":"445122","cityCode":"4451","provinceCode":"44"},{"code":"445122122","name":"柘林镇","areaCode":"445122","cityCode":"4451","provinceCode":"44"},{"code":"445122123","name":"汫洲镇","areaCode":"445122","cityCode":"4451","provinceCode":"44"},{"code":"445122124","name":"海山镇","areaCode":"445122","cityCode":"4451","provinceCode":"44"},{"code":"445122400","name":"韩江林场","areaCode":"445122","cityCode":"4451","provinceCode":"44"},{"code":"445202001","name":"榕华街道办事处","areaCode":"445202","cityCode":"4452","provinceCode":"44"},{"code":"445202002","name":"新兴街道办事处","areaCode":"445202","cityCode":"4452","provinceCode":"44"},{"code":"445202003","name":"中山街道办事处","areaCode":"445202","cityCode":"4452","provinceCode":"44"},{"code":"445202004","name":"西马街道办事处","areaCode":"445202","cityCode":"4452","provinceCode":"44"},{"code":"445202005","name":"东兴街道办事处","areaCode":"445202","cityCode":"4452","provinceCode":"44"},{"code":"445202006","name":"榕东街道办事处","areaCode":"445202","cityCode":"4452","provinceCode":"44"},{"code":"445202007","name":"仙桥街道办事处","areaCode":"445202","cityCode":"4452","provinceCode":"44"},{"code":"445202008","name":"梅云街道办事处","areaCode":"445202","cityCode":"4452","provinceCode":"44"},{"code":"445202009","name":"东升街道办事处","areaCode":"445202","cityCode":"4452","provinceCode":"44"},{"code":"445202010","name":"东阳街道办事处","areaCode":"445202","cityCode":"4452","provinceCode":"44"},{"code":"445202101","name":"渔湖镇","areaCode":"445202","cityCode":"4452","provinceCode":"44"},{"code":"445202102","name":"炮台镇","areaCode":"445202","cityCode":"4452","provinceCode":"44"},{"code":"445202103","name":"地都镇","areaCode":"445202","cityCode":"4452","provinceCode":"44"},{"code":"445202105","name":"登岗镇","areaCode":"445202","cityCode":"4452","provinceCode":"44"},{"code":"445203001","name":"曲溪街道办事处","areaCode":"445203","cityCode":"4452","provinceCode":"44"},{"code":"445203002","name":"磐东街道办事处","areaCode":"445203","cityCode":"4452","provinceCode":"44"},{"code":"445203102","name":"云路镇","areaCode":"445203","cityCode":"4452","provinceCode":"44"},{"code":"445203103","name":"玉窖镇","areaCode":"445203","cityCode":"4452","provinceCode":"44"},{"code":"445203104","name":"锡场镇","areaCode":"445203","cityCode":"4452","provinceCode":"44"},{"code":"445203105","name":"新亨镇","areaCode":"445203","cityCode":"4452","provinceCode":"44"},{"code":"445203106","name":"玉湖镇","areaCode":"445203","cityCode":"4452","provinceCode":"44"},{"code":"445203107","name":"埔田镇","areaCode":"445203","cityCode":"4452","provinceCode":"44"},{"code":"445203108","name":"霖磐镇","areaCode":"445203","cityCode":"4452","provinceCode":"44"},{"code":"445203109","name":"月城镇","areaCode":"445203","cityCode":"4452","provinceCode":"44"},{"code":"445203110","name":"白塔镇","areaCode":"445203","cityCode":"4452","provinceCode":"44"},{"code":"445203111","name":"龙尾镇","areaCode":"445203","cityCode":"4452","provinceCode":"44"},{"code":"445203112","name":"桂岭镇","areaCode":"445203","cityCode":"4452","provinceCode":"44"},{"code":"445203401","name":"东径茶场","areaCode":"445203","cityCode":"4452","provinceCode":"44"},{"code":"445203402","name":"坪上农场","areaCode":"445203","cityCode":"4452","provinceCode":"44"},{"code":"445203403","name":"揭阳高新技术产业开发区","areaCode":"445203","cityCode":"4452","provinceCode":"44"},{"code":"445203404","name":"卅岭农场","areaCode":"445203","cityCode":"4452","provinceCode":"44"},{"code":"445203405","name":"蓝城区工业园区管理处","areaCode":"445203","cityCode":"4452","provinceCode":"44"},{"code":"445203406","name":"珠海（揭阳）产业转移工业园","areaCode":"445203","cityCode":"4452","provinceCode":"44"},{"code":"445222001","name":"河婆街道办事处","areaCode":"445222","cityCode":"4452","provinceCode":"44"},{"code":"445222102","name":"龙潭镇","areaCode":"445222","cityCode":"4452","provinceCode":"44"},{"code":"445222103","name":"南山镇","areaCode":"445222","cityCode":"4452","provinceCode":"44"},{"code":"445222104","name":"五经富镇","areaCode":"445222","cityCode":"4452","provinceCode":"44"},{"code":"445222105","name":"京溪园镇","areaCode":"445222","cityCode":"4452","provinceCode":"44"},{"code":"445222106","name":"灰寨镇","areaCode":"445222","cityCode":"4452","provinceCode":"44"},{"code":"445222107","name":"塔头镇","areaCode":"445222","cityCode":"4452","provinceCode":"44"},{"code":"445222108","name":"东园镇","areaCode":"445222","cityCode":"4452","provinceCode":"44"},{"code":"445222109","name":"凤江镇","areaCode":"445222","cityCode":"4452","provinceCode":"44"},{"code":"445222110","name":"棉湖镇","areaCode":"445222","cityCode":"4452","provinceCode":"44"},{"code":"445222111","name":"金和镇","areaCode":"445222","cityCode":"4452","provinceCode":"44"},{"code":"445222112","name":"大溪镇","areaCode":"445222","cityCode":"4452","provinceCode":"44"},{"code":"445222113","name":"钱坑镇","areaCode":"445222","cityCode":"4452","provinceCode":"44"},{"code":"445222114","name":"坪上镇","areaCode":"445222","cityCode":"4452","provinceCode":"44"},{"code":"445222115","name":"五云镇","areaCode":"445222","cityCode":"4452","provinceCode":"44"},{"code":"445222116","name":"上砂镇","areaCode":"445222","cityCode":"4452","provinceCode":"44"},{"code":"445222201","name":"良田乡","areaCode":"445222","cityCode":"4452","provinceCode":"44"},{"code":"445222401","name":"北山农林场","areaCode":"445222","cityCode":"4452","provinceCode":"44"},{"code":"445222402","name":"果林场","areaCode":"445222","cityCode":"4452","provinceCode":"44"},{"code":"445222403","name":"油桐林场","areaCode":"445222","cityCode":"4452","provinceCode":"44"},{"code":"445222404","name":"高田农场","areaCode":"445222","cityCode":"4452","provinceCode":"44"},{"code":"445222405","name":"河輋农场","areaCode":"445222","cityCode":"4452","provinceCode":"44"},{"code":"445222406","name":"县苗圃场","areaCode":"445222","cityCode":"4452","provinceCode":"44"},{"code":"445224100","name":"惠城镇","areaCode":"445224","cityCode":"4452","provinceCode":"44"},{"code":"445224102","name":"华湖镇","areaCode":"445224","cityCode":"4452","provinceCode":"44"},{"code":"445224103","name":"仙庵镇","areaCode":"445224","cityCode":"4452","provinceCode":"44"},{"code":"445224104","name":"靖海镇","areaCode":"445224","cityCode":"4452","provinceCode":"44"},{"code":"445224105","name":"周田镇","areaCode":"445224","cityCode":"4452","provinceCode":"44"},{"code":"445224106","name":"前詹镇","areaCode":"445224","cityCode":"4452","provinceCode":"44"},{"code":"445224107","name":"神泉镇","areaCode":"445224","cityCode":"4452","provinceCode":"44"},{"code":"445224108","name":"东陇镇","areaCode":"445224","cityCode":"4452","provinceCode":"44"},{"code":"445224109","name":"岐石镇","areaCode":"445224","cityCode":"4452","provinceCode":"44"},{"code":"445224110","name":"隆江镇","areaCode":"445224","cityCode":"4452","provinceCode":"44"},{"code":"445224111","name":"溪西镇","areaCode":"445224","cityCode":"4452","provinceCode":"44"},{"code":"445224112","name":"鳌江镇","areaCode":"445224","cityCode":"4452","provinceCode":"44"},{"code":"445224113","name":"东港镇","areaCode":"445224","cityCode":"4452","provinceCode":"44"},{"code":"445224114","name":"葵潭镇","areaCode":"445224","cityCode":"4452","provinceCode":"44"},{"code":"445224401","name":"东埔农场","areaCode":"445224","cityCode":"4452","provinceCode":"44"},{"code":"445224402","name":"揭阳市大南山华侨管理区","areaCode":"445224","cityCode":"4452","provinceCode":"44"},{"code":"445224403","name":"葵潭农场","areaCode":"445224","cityCode":"4452","provinceCode":"44"},{"code":"445224404","name":"青坑林场","areaCode":"445224","cityCode":"4452","provinceCode":"44"},{"code":"445224450","name":"揭阳（惠来）沿海经济开发试验区","areaCode":"445224","cityCode":"4452","provinceCode":"44"},{"code":"445224451","name":"揭阳大南海石化工业区南海街道办事处","areaCode":"445224","cityCode":"4452","provinceCode":"44"},{"code":"445281001","name":"流沙东街道","areaCode":"445281","cityCode":"4452","provinceCode":"44"},{"code":"445281002","name":"流沙南街道","areaCode":"445281","cityCode":"4452","provinceCode":"44"},{"code":"445281003","name":"流沙西街道","areaCode":"445281","cityCode":"4452","provinceCode":"44"},{"code":"445281004","name":"流沙北街道","areaCode":"445281","cityCode":"4452","provinceCode":"44"},{"code":"445281005","name":"池尾街道","areaCode":"445281","cityCode":"4452","provinceCode":"44"},{"code":"445281006","name":"燎原街道","areaCode":"445281","cityCode":"4452","provinceCode":"44"},{"code":"445281007","name":"大南山街道","areaCode":"445281","cityCode":"4452","provinceCode":"44"},{"code":"445281102","name":"赤岗镇","areaCode":"445281","cityCode":"4452","provinceCode":"44"},{"code":"445281103","name":"大坝镇","areaCode":"445281","cityCode":"4452","provinceCode":"44"},{"code":"445281104","name":"洪阳镇","areaCode":"445281","cityCode":"4452","provinceCode":"44"},{"code":"445281105","name":"南溪镇","areaCode":"445281","cityCode":"4452","provinceCode":"44"},{"code":"445281106","name":"广太镇","areaCode":"445281","cityCode":"4452","provinceCode":"44"},{"code":"445281107","name":"麒麟镇","areaCode":"445281","cityCode":"4452","provinceCode":"44"},{"code":"445281108","name":"南径镇","areaCode":"445281","cityCode":"4452","provinceCode":"44"},{"code":"445281109","name":"占陇镇","areaCode":"445281","cityCode":"4452","provinceCode":"44"},{"code":"445281110","name":"军埠镇","areaCode":"445281","cityCode":"4452","provinceCode":"44"},{"code":"445281111","name":"下架山镇","areaCode":"445281","cityCode":"4452","provinceCode":"44"},{"code":"445281113","name":"高埔镇","areaCode":"445281","cityCode":"4452","provinceCode":"44"},{"code":"445281114","name":"云落镇","areaCode":"445281","cityCode":"4452","provinceCode":"44"},{"code":"445281115","name":"大坪镇","areaCode":"445281","cityCode":"4452","provinceCode":"44"},{"code":"445281116","name":"船埔镇","areaCode":"445281","cityCode":"4452","provinceCode":"44"},{"code":"445281117","name":"梅林镇","areaCode":"445281","cityCode":"4452","provinceCode":"44"},{"code":"445281119","name":"里湖镇","areaCode":"445281","cityCode":"4452","provinceCode":"44"},{"code":"445281121","name":"梅塘镇","areaCode":"445281","cityCode":"4452","provinceCode":"44"},{"code":"445281201","name":"后溪乡","areaCode":"445281","cityCode":"4452","provinceCode":"44"},{"code":"445281401","name":"大池农场","areaCode":"445281","cityCode":"4452","provinceCode":"44"},{"code":"445281402","name":"马鞍山农场","areaCode":"445281","cityCode":"4452","provinceCode":"44"},{"code":"445281403","name":"大坪农场","areaCode":"445281","cityCode":"4452","provinceCode":"44"},{"code":"445281404","name":"普侨区","areaCode":"445281","cityCode":"4452","provinceCode":"44"},{"code":"445281405","name":"三坑农场","areaCode":"445281","cityCode":"4452","provinceCode":"44"},{"code":"445281406","name":"乌石农场","areaCode":"445281","cityCode":"4452","provinceCode":"44"},{"code":"445281407","name":"科技工业园","areaCode":"445281","cityCode":"4452","provinceCode":"44"},{"code":"445281408","name":"英歌山工业园","areaCode":"445281","cityCode":"4452","provinceCode":"44"},{"code":"445302001","name":"云城街道","areaCode":"445302","cityCode":"4453","provinceCode":"44"},{"code":"445302002","name":"高峰街道","areaCode":"445302","cityCode":"4453","provinceCode":"44"},{"code":"445302003","name":"河口街道","areaCode":"445302","cityCode":"4453","provinceCode":"44"},{"code":"445302004","name":"安塘街道","areaCode":"445302","cityCode":"4453","provinceCode":"44"},{"code":"445302102","name":"腰古镇","areaCode":"445302","cityCode":"4453","provinceCode":"44"},{"code":"445302103","name":"思劳镇","areaCode":"445302","cityCode":"4453","provinceCode":"44"},{"code":"445302105","name":"前锋镇","areaCode":"445302","cityCode":"4453","provinceCode":"44"},{"code":"445302106","name":"南盛镇","areaCode":"445302","cityCode":"4453","provinceCode":"44"},{"code":"445303100","name":"六都镇","areaCode":"445303","cityCode":"4453","provinceCode":"44"},{"code":"445303101","name":"高村镇","areaCode":"445303","cityCode":"4453","provinceCode":"44"},{"code":"445303102","name":"白石镇","areaCode":"445303","cityCode":"4453","provinceCode":"44"},{"code":"445303103","name":"镇安镇","areaCode":"445303","cityCode":"4453","provinceCode":"44"},{"code":"445303104","name":"富林镇","areaCode":"445303","cityCode":"4453","provinceCode":"44"},{"code":"445303105","name":"石城镇","areaCode":"445303","cityCode":"4453","provinceCode":"44"},{"code":"445303106","name":"都杨镇","areaCode":"445303","cityCode":"4453","provinceCode":"44"},{"code":"445303400","name":"大云雾林场","areaCode":"445303","cityCode":"4453","provinceCode":"44"},{"code":"445321100","name":"新城镇","areaCode":"445321","cityCode":"4453","provinceCode":"44"},{"code":"445321101","name":"车岗镇","areaCode":"445321","cityCode":"4453","provinceCode":"44"},{"code":"445321103","name":"水台镇","areaCode":"445321","cityCode":"4453","provinceCode":"44"},{"code":"445321104","name":"稔村镇","areaCode":"445321","cityCode":"4453","provinceCode":"44"},{"code":"445321105","name":"东成镇","areaCode":"445321","cityCode":"4453","provinceCode":"44"},{"code":"445321107","name":"太平镇","areaCode":"445321","cityCode":"4453","provinceCode":"44"},{"code":"445321108","name":"里洞镇","areaCode":"445321","cityCode":"4453","provinceCode":"44"},{"code":"445321110","name":"大江镇","areaCode":"445321","cityCode":"4453","provinceCode":"44"},{"code":"445321112","name":"天堂镇","areaCode":"445321","cityCode":"4453","provinceCode":"44"},{"code":"445321113","name":"河头镇","areaCode":"445321","cityCode":"4453","provinceCode":"44"},{"code":"445321114","name":"簕竹镇","areaCode":"445321","cityCode":"4453","provinceCode":"44"},{"code":"445321115","name":"六祖镇","areaCode":"445321","cityCode":"4453","provinceCode":"44"},{"code":"445321501","name":"广东省西江林业局良洞迳林场","areaCode":"445321","cityCode":"4453","provinceCode":"44"},{"code":"445321502","name":"云浮市国有水台林场","areaCode":"445321","cityCode":"4453","provinceCode":"44"},{"code":"445321503","name":"国营新兴县岩头林场","areaCode":"445321","cityCode":"4453","provinceCode":"44"},{"code":"445322100","name":"都城镇","areaCode":"445322","cityCode":"4453","provinceCode":"44"},{"code":"445322101","name":"平台镇","areaCode":"445322","cityCode":"4453","provinceCode":"44"},{"code":"445322102","name":"桂圩镇","areaCode":"445322","cityCode":"4453","provinceCode":"44"},{"code":"445322104","name":"通门镇","areaCode":"445322","cityCode":"4453","provinceCode":"44"},{"code":"445322105","name":"建城镇","areaCode":"445322","cityCode":"4453","provinceCode":"44"},{"code":"445322106","name":"宝珠镇","areaCode":"445322","cityCode":"4453","provinceCode":"44"},{"code":"445322108","name":"大方镇","areaCode":"445322","cityCode":"4453","provinceCode":"44"},{"code":"445322110","name":"千官镇","areaCode":"445322","cityCode":"4453","provinceCode":"44"},{"code":"445322111","name":"大湾镇","areaCode":"445322","cityCode":"4453","provinceCode":"44"},{"code":"445322112","name":"河口镇","areaCode":"445322","cityCode":"4453","provinceCode":"44"},{"code":"445322113","name":"宋桂镇","areaCode":"445322","cityCode":"4453","provinceCode":"44"},{"code":"445322114","name":"东坝镇","areaCode":"445322","cityCode":"4453","provinceCode":"44"},{"code":"445322115","name":"连滩镇","areaCode":"445322","cityCode":"4453","provinceCode":"44"},{"code":"445322116","name":"历洞镇","areaCode":"445322","cityCode":"4453","provinceCode":"44"},{"code":"445322117","name":"南江口镇","areaCode":"445322","cityCode":"4453","provinceCode":"44"},{"code":"445322400","name":"西江林场","areaCode":"445322","cityCode":"4453","provinceCode":"44"},{"code":"445322401","name":"通门林场","areaCode":"445322","cityCode":"4453","provinceCode":"44"},{"code":"445322402","name":"大历林场","areaCode":"445322","cityCode":"4453","provinceCode":"44"},{"code":"445322403","name":"同乐林场","areaCode":"445322","cityCode":"4453","provinceCode":"44"},{"code":"445381001","name":"罗城街道","areaCode":"445381","cityCode":"4453","provinceCode":"44"},{"code":"445381002","name":"素龙街道","areaCode":"445381","cityCode":"4453","provinceCode":"44"},{"code":"445381003","name":"附城街道","areaCode":"445381","cityCode":"4453","provinceCode":"44"},{"code":"445381004","name":"双东镇街道","areaCode":"445381","cityCode":"4453","provinceCode":"44"},{"code":"445381100","name":"罗镜镇","areaCode":"445381","cityCode":"4453","provinceCode":"44"},{"code":"445381101","name":"太平镇","areaCode":"445381","cityCode":"4453","provinceCode":"44"},{"code":"445381102","name":"分界镇","areaCode":"445381","cityCode":"4453","provinceCode":"44"},{"code":"445381104","name":"罗平镇","areaCode":"445381","cityCode":"4453","provinceCode":"44"},{"code":"445381105","name":"船步镇","areaCode":"445381","cityCode":"4453","provinceCode":"44"},{"code":"445381106","name":"满塘镇","areaCode":"445381","cityCode":"4453","provinceCode":"44"},{"code":"445381107","name":"苹塘镇","areaCode":"445381","cityCode":"4453","provinceCode":"44"},{"code":"445381108","name":"金鸡镇","areaCode":"445381","cityCode":"4453","provinceCode":"44"},{"code":"445381109","name":"围底镇","areaCode":"445381","cityCode":"4453","provinceCode":"44"},{"code":"445381110","name":"华石镇","areaCode":"445381","cityCode":"4453","provinceCode":"44"},{"code":"445381111","name":"林滨镇","areaCode":"445381","cityCode":"4453","provinceCode":"44"},{"code":"445381113","name":"黎少镇","areaCode":"445381","cityCode":"4453","provinceCode":"44"},{"code":"445381114","name":"生江镇","areaCode":"445381","cityCode":"4453","provinceCode":"44"},{"code":"445381115","name":"连州镇","areaCode":"445381","cityCode":"4453","provinceCode":"44"},{"code":"445381116","name":"泗纶镇","areaCode":"445381","cityCode":"4453","provinceCode":"44"},{"code":"445381118","name":"加益镇","areaCode":"445381","cityCode":"4453","provinceCode":"44"},{"code":"445381119","name":"龙湾镇","areaCode":"445381","cityCode":"4453","provinceCode":"44"},{"code":"445381400","name":"罗平农场","areaCode":"445381","cityCode":"4453","provinceCode":"44"}]